school_name,address,postal_code,dgp_code,zone_code,lon,lat
NATIONAL JUNIOR COLLEGE,37 HILLCREST ROAD Singapore,288913,BUKIT TIMAH,SOUTH,103.8044544,1.3300068
TEMASEK JUNIOR COLLEGE,22 BEDOK SOUTH ROAD Singapore,469278,BEDOK,EAST,103.9355622,1.3189246
VICTORIA JUNIOR COLLEGE,20 MARINE VISTA Singapore,449035,BEDOK,EAST,103.919825,1.306142
EUNOIA JUNIOR COLLEGE,53 MOUNT SINAI ROAD Singapore,276880,BISHAN,NORTH,103.7866715,1.3135481
ANDERSON SERANGOON JUNIOR COLLEGE,4500 ANG MO KIO AVENUE 6 Singapore,569843,ANG MO KIO,NORTH,103.8457619,1.378043
YISHUN INNOVA JUNIOR COLLEGE,3 YISHUN RING ROAD Singapore,768675,YISHUN,NORTH,103.829634,1.424637
TAMPINES MERIDIAN JUNIOR COLLEGE,21 PASIR RIS STREET 71 Singapore,518799,PASIR RIS,EAST,103.9372655,1.3766539
JURONG PIONEER JUNIOR COLLEGE,21 TECK WHYE WALK Singapore,688258,CHOA CHU KANG,WEST,103.753951,1.384627
CATHOLIC JUNIOR COLLEGE,129 WHITLEY ROAD Singapore,297822,NOVENA,SOUTH,103.8355543,1.324644
ANGLO-CHINESE JUNIOR COLLEGE,25 DOVER CLOSE EAST Singapore,139745,QUEENSTOWN,WEST,103.7851322,1.3032395
ST. ANDREW'S JUNIOR COLLEGE,5 SORBY ADAMS DRIVE Singapore,357691,TOA PAYOH,SOUTH,103.8630452,1.3331921
NANYANG JUNIOR COLLEGE,128 SERANGOON AVENUE 3 Singapore,556111,SERANGOON,SOUTH,103.8664323,1.3503224
HWA CHONG INSTITUTION,661 BUKIT TIMAH ROAD Singapore,269734,BUKIT TIMAH,WEST,103.8059,1.324644
MILLENNIA INSTITUTE,60 BUKIT BATOK WEST AVENUE 8 Singapore,658965,BUKIT BATOK,WEST,103.7417383,1.3510437
BUKIT PANJANG PRIMARY SCHOOL,109 CASHEW ROAD Singapore,679676,BUKIT PANJANG,WEST,103.7692713,1.372936
HAIG GIRLS' SCHOOL,51 KOON SENG ROAD Singapore,427072,GEYLANG,EAST,103.9026249,1.3115593
TECK WHYE PRIMARY SCHOOL,11 TECK WHYE WALK Singapore,688261,CHOA CHU KANG,WEST,103.753548,1.383126
JURONG PRIMARY SCHOOL,320 JURONG EAST STREET 32 Singapore,609476,JURONG EAST,WEST,103.732992,1.348679
QUEENSTOWN PRIMARY SCHOOL,310 MARGARET DR Singapore,149303,QUEENSTOWN,SOUTH,103.8076794,1.2958718
RADIN MAS PRIMARY SCHOOL,1 BUKIT PURMEI AVENUE Singapore,099840,BUKIT MERAH,SOUTH,103.8240741,1.275094
RAFFLES GIRLS' PRIMARY SCHOOL,21 HILLCREST ROAD Singapore,289072,BUKIT TIMAH,SOUTH,103.8062274,1.3300317
ROSYTH SCHOOL,21 SERANGOON NORTH AVENUE 4 Singapore,555855,SERANGOON,NORTH,103.874589,1.3729091
DAMAI PRIMARY SCHOOL,52 BEDOK RESERVOIR CRESCENT Singapore,479226,BEDOK,EAST,103.9202895,1.3358357
FUHUA PRIMARY SCHOOL,65 JURONG EAST STREET 13 Singapore,609647,JURONG EAST,WEST,103.7364909,1.3365456
WOODLANDS PRIMARY SCHOOL,10 WOODLANDS DRIVE 50 Singapore,738853,WOODLANDS,NORTH,103.791794,1.436771
EUNOS PRIMARY SCHOOL,95 JALAN EUNOS Singapore,419529,GEYLANG,EAST,103.904727,1.324223
HENRY PARK PRIMARY SCHOOL,1 HOLLAND GROVE ROAD Singapore,278790,BUKIT TIMAH,WEST,103.784132,1.3168709
BENDEMEER PRIMARY SCHOOL,91 BENDEMEER ROAD Singapore,339948,KALLANG,SOUTH,103.8652706,1.3219582
CORPORATION PRIMARY SCHOOL,31 JURONG WEST STREET 24 Singapore,648347,JURONG WEST,WEST,103.707576,1.351499
YIO CHU KANG PRIMARY SCHOOL,1 HOUGANG STREET 51 Singapore,538720,HOUGANG,NORTH,103.885447,1.3777919
BLANGAH RISE PRIMARY SCHOOL,91 TELOK BLANGAH HEIGHTS Singapore,109100,BUKIT MERAH,SOUTH,103.8084074,1.2762766
ANG MO KIO PRIMARY SCHOOL,20 ANG MO KIO AVENUE 3 Singapore,569920,ANG MO KIO,SOUTH,103.8392649,1.3694167
MAYFLOWER PRIMARY SCHOOL,200 ANG MO KIO AVE 5 Singapore,569878,ANG MO KIO,SOUTH,103.843181,1.376395
TECK GHEE PRIMARY SCHOOL,1 ANG MO KIO STREET 32 Singapore,569299,ANG MO KIO,SOUTH,103.8505239,1.365396
TEMASEK PRIMARY SCHOOL,501 BEDOK SOUTH AVE 3 Singapore,469300,BEDOK,EAST,103.945488,1.317502
SI LING PRIMARY SCHOOL,61 WOODLANDS AVENUE 1 Singapore,739067,WOODLANDS,NORTH,103.78577,1.432693
JING SHAN PRIMARY SCHOOL,5 ANG MO KIO ST 52 Singapore,569228,ANG MO KIO,SOUTH,103.851863,1.3714789
YISHUN PRIMARY SCHOOL,500 YISHUN RING ROAD Singapore,768679,YISHUN,NORTH,103.834125,1.4334484
STAMFORD PRIMARY SCHOOL,1 VICTORIA LANE Singapore,198423,CENTRAL,SOUTH,103.8572692,1.304116
FERNVALE PRIMARY SCHOOL,1 FERNVALE LANE Singapore,797701,SENG KANG,NORTH,103.873919,1.389948
TOWNSVILLE PRIMARY SCHOOL,3 ANG MO KIO AVE 10 Singapore,569730,ANG MO KIO,SOUTH,103.8537829,1.3600534
RULANG PRIMARY SCHOOL,6 JURONG WEST STREET 52 Singapore,649295,JURONG WEST,WEST,103.718911,1.346187
QIFA PRIMARY SCHOOL,50 WEST COAST AVENUE Singapore,128104,CLEMENTI,WEST,103.7568857,1.3126176
ZHANGDE PRIMARY SCHOOL,51 JALAN MEMBINA Singapore,169485,BUKIT MERAH,SOUTH,103.8260335,1.2843455
TAMPINES PRIMARY SCHOOL,250 TAMPINES STREET 12 Singapore,529426,TAMPINES,EAST,103.94402,1.349774
CHONGZHENG PRIMARY SCHOOL,1 TAMPINES STREET 21 Singapore,529392,TAMPINES,EAST,103.951438,1.350835
XINGHUA PRIMARY SCHOOL,45 HOUGANG AVENUE 1 Singapore,538882,HOUGANG,SOUTH,103.8901506,1.3578717
JIEMIN PRIMARY SCHOOL,2 YISHUN STREET 71 Singapore,768515,YISHUN,NORTH,103.830502,1.4276007
FUCHUN PRIMARY SCHOOL,23 WOODLANDS AVENUE 1 Singapore,739063,WOODLANDS,NORTH,103.778088,1.4302
BUKIT VIEW PRIMARY SCHOOL,18 BUKIT BATOK STREET 21 Singapore,659634,BUKIT BATOK,WEST,103.75348,1.3459352
CEDAR PRIMARY SCHOOL,15 CEDAR AVENUE Singapore,349700,TOA PAYOH,SOUTH,103.8754605,1.3356131
OPERA ESTATE PRIMARY SCHOOL,48 FIDELIO STREET Singapore,458436,BEDOK,EAST,103.9236436,1.3195034
RIVER VALLEY PRIMARY SCHOOL,2 RIVER VALLEY GREEN Singapore,237993,CENTRAL,SOUTH,103.8362883,1.2938988
TELOK KURAU PRIMARY SCHOOL,50 BEDOK RESERVOIR RD Singapore,479239,BEDOK,EAST,103.9114083,1.3309135
YUMIN PRIMARY SCHOOL,3 TAMPINES STREET 21 Singapore,529393,TAMPINES,EAST,103.9507462,1.3514701
SHUQUN PRIMARY SCHOOL,8 JURONG WEST STREET 51 Singapore,649332,JURONG WEST,WEST,103.7215779,1.347595
GAN ENG SENG PRIMARY SCHOOL,100 REDHILL CLOSE Singapore,158901,BUKIT MERAH,SOUTH,103.8153327,1.2858277
GONGSHANG PRIMARY SCHOOL,1 TAMPINES STREET 42 Singapore,529176,TAMPINES,EAST,103.948893,1.357339
HUAMIN PRIMARY SCHOOL,530 YISHUN RING ROAD Singapore,768680,YISHUN,NORTH,103.8447228,1.4278803
XISHAN PRIMARY SCHOOL,8 YISHUN STREET 21 Singapore,768611,YISHUN,NORTH,103.8378387,1.4334989
PRINCESS ELIZABETH PRIMARY SCHOOL,30 BUKIT BATOK WEST AVENUE 3 Singapore,659163,BUKIT BATOK,WEST,103.74102,1.349481
DAZHONG PRIMARY SCHOOL,35 BUKIT BATOK STREET 31 Singapore,659441,BUKIT BATOK,WEST,103.7485279,1.359
BEDOK GREEN PRIMARY SCHOOL,1 BEDOK SOUTH AVE 2 Singapore,469317,BEDOK,EAST,103.9380502,1.3237397
LIANHUA PRIMARY SCHOOL,2 BUKIT BATOK STREET 52 Singapore,659243,BUKIT BATOK,WEST,103.754202,1.354143
ZHONGHUA PRIMARY SCHOOL,12 SERANGOON AVENUE 4 Singapore,556095,SERANGOON,SOUTH,103.869558,1.359895
PEIYING PRIMARY SCHOOL,651 YISHUN RING ROAD Singapore,768687,YISHUN,NORTH,103.8302303,1.4174051
KEMING PRIMARY SCHOOL,90 BUKIT BATOK EAST AVENUE 6 Singapore,659762,BUKIT BATOK,WEST,103.7562455,1.3454147
CHANGKAT PRIMARY SCHOOL,11 SIMEI ST 3 Singapore,529896,TAMPINES,EAST,103.9521967,1.3401906
ZHENGHUA PRIMARY SCHOOL,9 FAJAR ROAD Singapore,679002,BUKIT PANJANG,WEST,103.769301,1.37957
SOUTH VIEW PRIMARY SCHOOL,6 CHOA CHU KANG CENTRAL Singapore,689762,CHOA CHU KANG,WEST,103.747145,1.381324
PASIR RIS PRIMARY SCHOOL,5 PASIR RIS STREET 21 Singapore,518968,PASIR RIS,EAST,103.9628003,1.3722117
CHUA CHU KANG PRIMARY SCHOOL,20 CHOA CHU KANG AVENUE 2 Singapore,689905,CHOA CHU KANG,WEST,103.7417229,1.378056
GREENRIDGE PRIMARY SCHOOL,11 JELAPANG ROAD Singapore,677744,BUKIT PANJANG,WEST,103.7679301,1.3856591
FARRER PARK PRIMARY SCHOOL,2 FARRER PARK ROAD Singapore,217567,KALLANG,SOUTH,103.8508273,1.3122933
BUKIT TIMAH PRIMARY SCHOOL,111 LORONG KISMIS Singapore,598112,BUKIT TIMAH,WEST,103.766768,1.337385
LAKESIDE PRIMARY SCHOOL,161 CORPORATION WALK Singapore,618310,JURONG WEST,WEST,103.718147,1.3384626
BEACON PRIMARY SCHOOL,36 BUKIT PANJANG RING ROAD Singapore,679944,BUKIT PANJANG,WEST,103.77377,1.384235
INNOVA PRIMARY SCHOOL,80 WOODLANDS DRIVE 17 Singapore,737888,WOODLANDS,NORTH,103.790631,1.428957
GREENDALE PRIMARY SCHOOL,50 EDGEDALE PLAINS Singapore,828848,PUNGGOL,NORTH,103.9126762,1.396398
ENDEAVOUR PRIMARY SCHOOL,10 ADMIRALTY LINK Singapore,757521,SEMBAWANG,NORTH,103.8173695,1.4546184
NORTH VISTA PRIMARY SCHOOL,20 COMPASSVALE LINK Singapore,544974,SENG KANG,NORTH,103.8960478,1.3828084
ANCHOR GREEN PRIMARY SCHOOL,31 ANCHORVALE DRIVE Singapore,544969,SENG KANG,NORTH,103.8874074,1.3909254
HORIZON PRIMARY SCHOOL,61 EDGEDALE PLAINS Singapore,828819,PUNGGOL,NORTH,103.913058,1.400025
CANTONMENT PRIMARY SCHOOL,1 CANTONMENT CLOSE Singapore,088256,BUKIT MERAH,SOUTH,103.8400126,1.2754392
FRONTIER PRIMARY SCHOOL,20 JURONG WEST STREET 61 Singapore,648200,JURONG WEST,WEST,103.6990865,1.3365813
WESTWOOD PRIMARY SCHOOL,1 JURONG WEST STREET 73 Singapore,649188,JURONG WEST,WEST,103.7003201,1.3475751
PUNGGOL GREEN PRIMARY SCHOOL,98 PUNGGOL WALK Singapore,828772,PUNGGOL,EAST,103.8985774,1.4019149
PUNGGOL VIEW PRIMARY SCHOOL,9 PUNGGOL PLACE Singapore,828845,PUNGGOL,EAST,103.9051798,1.4052956
SENGKANG GREEN PRIMARY SCHOOL,15 FERNVALE ROAD Singapore,797636,SENG KANG,EAST,103.8753898,1.392548
SPRINGDALE PRIMARY SCHOOL,71 ANCHORVALE LINK Singapore,544799,SENG KANG,EAST,103.8897326,1.3949665
PALM VIEW PRIMARY SCHOOL,150 COMPASSVALE BOW Singapore,544822,SENG KANG,NORTH,103.8907384,1.3835054
RIVERSIDE PRIMARY SCHOOL,110 WOODLANDS CRESCENT Singapore,737803,WOODLANDS,NORTH,103.8044982,1.4446036
WEST SPRING PRIMARY SCHOOL,60 BUKIT PANJANG RING ROAD Singapore,679946,BUKIT PANJANG,WEST,103.7663052,1.3888971
ALEXANDRA PRIMARY SCHOOL,2A PRINCE CHARLES CRESCENT Singapore,159016,BUKIT MERAH,SOUTH,103.8235297,1.2912968
NORTHOAKS PRIMARY SCHOOL,61 SEMBAWANG DRIVE Singapore,757622,SEMBAWANG,NORTH,103.813826,1.456638
ANGSANA PRIMARY SCHOOL,3 TAMPINES STREET 22 Singapore,529366,TAMPINES,EAST,103.951859,1.348251
PUNGGOL COVE PRIMARY SCHOOL,52 SUMANG WALK Singapore,828674,PUNGGOL,EAST,103.895989,1.4082573
OASIS PRIMARY SCHOOL,71 EDGEFIELD PLAINS Singapore,828716,PUNGGOL,EAST,103.9109619,1.404288
WATERWAY PRIMARY SCHOOL,70 PUNGGOL DRIVE Singapore,828802,PUNGGOL,EAST,103.9186176,1.3991315
FERN GREEN PRIMARY SCHOOL,70 FERNVALE LINK Singapore,797538,SENG KANG,EAST,103.8798637,1.3975315
FIRST TOA PAYOH PRIMARY SCHOOL,7 LORONG 8 TOA PAYOH Singapore,319252,TOA PAYOH,SOUTH,103.855651,1.340145
NEW TOWN PRIMARY SCHOOL,300 TANGLIN HALT ROAD Singapore,148812,QUEENSTOWN,SOUTH,103.7998822,1.2999119
BOON LAY GARDEN PRIMARY SCHOOL,20 BOON LAY DRIVE Singapore,649930,JURONG WEST,WEST,103.712983,1.34287
MARSILING PRIMARY SCHOOL,31 WOODLANDS CENTRE ROAD Singapore,738927,WOODLANDS,NORTH,103.773663,1.433827
PEI TONG PRIMARY SCHOOL,15 CLEMENTI AVENUE 5 Singapore,129857,CLEMENTI,SOUTH,103.767568,1.3160707
YUHUA PRIMARY SCHOOL,158 JURONG EAST STREET 24 Singapore,609558,JURONG EAST,WEST,103.7406829,1.3428019
FENGSHAN PRIMARY SCHOOL,307 BEDOK NORTH ROAD Singapore,469680,BEDOK,EAST,103.9318916,1.3299176
YU NENG PRIMARY SCHOOL,56 BEDOK NORTH ST 3 Singapore,469623,BEDOK,EAST,103.9324355,1.3338657
XINMIN PRIMARY SCHOOL,9 HOUGANG AVENUE 8 Singapore,538784,HOUGANG,NORTH,103.8830289,1.371069
YANGZHENG PRIMARY SCHOOL,15 SERANGOON AVENUE 3 Singapore,556108,SERANGOON,SOUTH,103.8682765,1.3488764
JUYING PRIMARY SCHOOL,31 JURONG WEST STREET 91 Singapore,649037,JURONG WEST,WEST,103.688061,1.33837
JUNYUAN PRIMARY SCHOOL,2 TAMPINES STREET 91 Singapore,528906,TAMPINES,EAST,103.940012,1.347973
NORTHLAND PRIMARY SCHOOL,15 YISHUN AVENUE 4 Singapore,769026,YISHUN,NORTH,103.8405561,1.4210098
NAVAL BASE PRIMARY SCHOOL,7 YISHUN AVE 4 Singapore,769028,YISHUN,NORTH,103.8387445,1.4163264
XINGNAN PRIMARY SCHOOL,5 JURONG WEST STREET 91 Singapore,649036,JURONG WEST,WEST,103.68778,1.34283
QIHUA PRIMARY SCHOOL,5 WOODLANDS STREET 81 Singapore,738525,WOODLANDS,NORTH,103.788557,1.442105
GUANGYANG PRIMARY SCHOOL,6 BISHAN STREET 12 Singapore,579806,BISHAN,SOUTH,103.849315,1.345887
TAMPINES NORTH PRIMARY SCHOOL,30 TAMPINES AVENUE 9 Singapore,529565,TAMPINES,EAST,103.948581,1.360298
ELIAS PARK PRIMARY SCHOOL,11 PASIR RIS STREET 52 Singapore,518866,PASIR RIS,EAST,103.9452385,1.3749538
AHMAD IBRAHIM PRIMARY SCHOOL,10 YISHUN STREET 11 Singapore,768643,YISHUN,NORTH,103.8330381,1.4337487
NORTH VIEW PRIMARY SCHOOL,210 YISHUN AVENUE 6 Singapore,768960,YISHUN,NORTH,103.8485274,1.4277102
PIONEER PRIMARY SCHOOL,23 JURONG WEST STREET 81 Singapore,649076,JURONG WEST,WEST,103.694609,1.348486
PUNGGOL PRIMARY SCHOOL,61 HOUGANG AVENUE 8 Singapore,538787,HOUGANG,SOUTH,103.894746,1.37819
PARK VIEW PRIMARY SCHOOL,60 PASIR RIS DRIVE 1 Singapore,519524,PASIR RIS,EAST,103.939371,1.377331
ADMIRALTY PRIMARY SCHOOL,11 WOODLANDS CIRCLE Singapore,738907,WOODLANDS,NORTH,103.8004349,1.4430507
KRANJI PRIMARY SCHOOL,11 CHOA CHU KANG STREET 54 Singapore,689189,CHOA CHU KANG,WEST,103.7477849,1.393694
SENG KANG PRIMARY SCHOOL,21 COMPASSVALE WALK Singapore,545166,SENG KANG,NORTH,103.899471,1.389086
WOODLANDS RING PRIMARY SCHOOL,11 WOODLANDS RING ROAD Singapore,738240,WOODLANDS,NORTH,103.797928,1.434839
WEST VIEW PRIMARY SCHOOL,31 SENJA ROAD Singapore,677742,BUKIT PANJANG,WEST,103.7603257,1.383358
WHITE SANDS PRIMARY SCHOOL,2 PASIR RIS ST 11 Singapore,519075,PASIR RIS,EAST,103.961329,1.364903
UNITY PRIMARY SCHOOL,21 CHOA CHU KANG CRESCENT Singapore,688268,CHOA CHU KANG,WEST,103.74729,1.403245
CANBERRA PRIMARY SCHOOL,21 ADMIRALTY DRIVE Singapore,757714,SEMBAWANG,NORTH,103.8156488,1.4511784
RIVERVALE PRIMARY SCHOOL,80 RIVERVALE DRIVE Singapore,545092,SENG KANG,NORTH,103.904383,1.393196
JURONG WEST PRIMARY SCHOOL,30 JURONG WEST ST 61 Singapore,648368,JURONG WEST,WEST,103.698854,1.339037
EAST SPRING PRIMARY SCHOOL,31 TAMPINES ST 33 Singapore,529258,TAMPINES,EAST,103.961799,1.35349
EVERGREEN PRIMARY SCHOOL,31 WOODLANDS CIRCLE Singapore,738908,WOODLANDS,NORTH,103.795038,1.444082
COMPASSVALE PRIMARY SCHOOL,21 COMPASSVALE ST Singapore,545091,SENG KANG,NORTH,103.898003,1.3944615
WOODGROVE PRIMARY SCHOOL,2 WOODLANDS DRIVE 14 Singapore,738079,WOODLANDS,NORTH,103.7904291,1.4331667
SEMBAWANG PRIMARY SCHOOL,10 SEMBAWANG DRIVE Singapore,757715,SEMBAWANG,NORTH,103.8211733,1.4454915
CONCORD PRIMARY SCHOOL,3 CHOA CHU KANG AVE 4 Singapore,689814,CHOA CHU KANG,WEST,103.745047,1.3852291
NORTH SPRING PRIMARY SCHOOL,1 RIVERVALE STREET Singapore,545088,SENG KANG,NORTH,103.903609,1.386881
YEW TEE PRIMARY SCHOOL,10 CHOA CHU KANG ST 64 Singapore,689100,CHOA CHU KANG,WEST,103.751221,1.396985
HOUGANG PRIMARY SCHOOL,1 HOUGANG ST 93 Singapore,534238,HOUGANG,NORTH,103.881046,1.37734
MERIDIAN PRIMARY SCHOOL,20 PASIR RIS ST 71 Singapore,518798,PASIR RIS,EAST,103.9352781,1.3762831
GREENWOOD PRIMARY SCHOOL,11 WOODLANDS  DR  62 Singapore,737942,WOODLANDS,NORTH,103.804609,1.43985
ANDERSON PRIMARY SCHOOL,19 ANG MO KIO AVE 9 Singapore,569785,ANG MO KIO,NORTH,103.841225,1.384692
WELLINGTON PRIMARY SCHOOL,10 WELLINGTON CIRCLE Singapore,757702,SEMBAWANG,NORTH,103.8222601,1.4519448
EDGEFIELD PRIMARY SCHOOL,41 EDGEFIELD PLAINS Singapore,828869,PUNGGOL,NORTH,103.9076926,1.4004367
WEST GROVE PRIMARY SCHOOL,1 JURONG WEST ST 72 Singapore,649223,JURONG WEST,WEST,103.698987,1.34455
CASUARINA PRIMARY SCHOOL,30 PASIR RIS ST 41 Singapore,518935,PASIR RIS,EAST,103.9570205,1.3725006
CLEMENTI PRIMARY SCHOOL,8 CLEMENTI AVE 3 Singapore,129903,CLEMENTI,WEST,103.7632163,1.3155074
TANJONG KATONG PRIMARY SCHOOL,860 NEW UPPER CHANGI ROAD Singapore,467353,MARINE PARADE,EAST,103.93895500000001,1.3247024
ANDERSON SECONDARY SCHOOL,10 ANG MO KIO STREET 53 Singapore,569206,ANG MO KIO,NORTH,103.8516001,1.3750929
BARTLEY SECONDARY SCHOOL,10 JALAN BUNGA RAMPAI Singapore,538403,TOA PAYOH,SOUTH,103.882831,1.340275
BEATTY SECONDARY SCHOOL,1 TOA PAYOH NORTH Singapore,318990,TOA PAYOH,SOUTH,103.851956,1.34154
CEDAR GIRLS' SECONDARY SCHOOL,1 CEDAR AVENUE Singapore,349692,TOA PAYOH,EAST,103.874242,1.333751
CRESCENT GIRLS' SCHOOL,357 TANGLIN ROAD Singapore,247961,BUKIT MERAH,SOUTH,103.8178223,1.2934751
GAN ENG SENG SCHOOL,1 HENDERSON ROAD Singapore,159561,BUKIT MERAH,SOUTH,103.823528,1.2895675
QUEENSWAY SECONDARY SCHOOL,2A MARGARET DRIVE Singapore,149295,QUEENSTOWN,SOUTH,103.8019743,1.3005119
RAFFLES GIRLS' SCHOOL (SECONDARY),20 ANDERSON ROAD Singapore,259978,CENTRAL,SOUTH,103.8287358,1.311665
RAFFLES INSTITUTION,1 RAFFLES INSTITUTION LANE Singapore,575954,BISHAN,SOUTH,103.8432556,1.3466384
SERANGOON SECONDARY SCHOOL,11 UPPER SERANGOON VIEW Singapore,534237,HOUGANG,NORTH,103.9022635,1.3748927
COMMONWEALTH SECONDARY SCHOOL,698 WEST COAST ROAD Singapore,608784,JURONG EAST,WEST,103.7455916,1.3189295
TANJONG KATONG GIRLS' SCHOOL,2 BEDOK SOUTH ROAD Singapore,469268,MARINE PARADE,EAST,103.926756,1.3220605
VICTORIA SCHOOL,2 SIGLAP LINK Singapore,448880,BEDOK,EAST,103.9275012,1.3085839
WHITLEY SECONDARY SCHOOL,30 BISHAN STREET 24 Singapore,579747,BISHAN,SOUTH,103.843265,1.355497
YUHUA SECONDARY SCHOOL,35 JURONG WEST STREET 41 Singapore,649406,JURONG WEST,WEST,103.722405,1.347026
YISHUN SECONDARY SCHOOL,4 YISHUN STREET 71 Singapore,768516,YISHUN,NORTH,103.828833,1.428129
BENDEMEER SECONDARY SCHOOL,1 ST WILFRED ROAD Singapore,327919,KALLANG,SOUTH,103.8606585,1.3245246
FUCHUN SECONDARY SCHOOL,21 WOODLANDS AVENUE 1 Singapore,739062,WOODLANDS,NORTH,103.777326,1.430948
ANG MO KIO SECONDARY SCHOOL,6 ANG MO KIO STREET 22 Singapore,569362,ANG MO KIO,SOUTH,103.8426103,1.3677825
BEDOK SOUTH SECONDARY SCHOOL,1 JALAN LANGGAR BEDOK Singapore,468585,BEDOK,EAST,103.950977,1.3248089
CLEMENTI TOWN SECONDARY SCHOOL,10 CLEMENTI AVE 3 Singapore,129904,CLEMENTI,WEST,103.7618194,1.3154809
TEMASEK SECONDARY SCHOOL,600 UPPER EAST COAST ROAD Singapore,465561,BEDOK,EAST,103.9471669,1.3157589
MAYFLOWER SECONDARY SCHOOL,2 ANG MO KIO STREET 21 Singapore,569384,ANG MO KIO,SOUTH,103.835438,1.368331
TAMPINES SECONDARY SCHOOL,252 TAMPINES ST 12 Singapore,529427,TAMPINES,EAST,103.9439474,1.3498263
BUKIT VIEW SECONDARY SCHOOL,16 BUKIT BATOK STREET 21 Singapore,659633,BUKIT BATOK,WEST,103.7521004,1.345925
WOODLANDS SECONDARY SCHOOL,11 MARSILING ROAD Singapore,739111,WOODLANDS,NORTH,103.774208,1.439565
BOWEN SECONDARY SCHOOL,2 LORONG NAPIRI Singapore,547529,HOUGANG,NORTH,103.877649,1.370117
BUKIT BATOK SECONDARY SCHOOL,50 BUKIT BATOK WEST AVE 8 Singapore,658962,BUKIT BATOK,WEST,103.740867,1.348506
YISHUN TOWN SECONDARY SCHOOL,6 YISHUN STREET 21 Singapore,768610,YISHUN,NORTH,103.8384727,1.4325411
HOUGANG SECONDARY SCHOOL,2 HOUGANG STREET 93 Singapore,534256,HOUGANG,NORTH,103.88253,1.377661
NAN HUA HIGH SCHOOL,41 CLEMENTI AVENUE 1 Singapore,129956,CLEMENTI,WEST,103.769189,1.30807
HILLGROVE SECONDARY SCHOOL,10 BUKIT BATOK STREET 52 Singapore,659250,BUKIT BATOK,WEST,103.752785,1.35277
XINMIN SECONDARY SCHOOL,11 HOUGANG AVENUE 8 Singapore,538789,HOUGANG,NORTH,103.883077,1.372635
GREENRIDGE SECONDARY SCHOOL,32 BUKIT PANJANG RING ROAD Singapore,679938,BUKIT PANJANG,WEST,103.773836,1.38206
SPRINGFIELD SECONDARY SCHOOL,30 TAMPINES AVENUE 8 Singapore,529593,TAMPINES,EAST,103.9300788,1.3498342
CHUA CHU KANG SECONDARY SCHOOL,3 TECK WHYE CRESCENT Singapore,688845,CHOA CHU KANG,WEST,103.7525502,1.3825531
DAMAI SECONDARY SCHOOL,4800 BEDOK RESERVOIR ROAD Singapore,479229,BEDOK,EAST,103.927061,1.336405
NORTHLAND SECONDARY SCHOOL,3 YISHUN STREET 22 Singapore,768578,YISHUN,NORTH,103.840098,1.435827
PEIRCE SECONDARY SCHOOL,10 SIN MING WALK Singapore,575566,BISHAN,SOUTH,103.829903,1.36613
JURONGVILLE SECONDARY SCHOOL,202 JURONG EAST AVENUE 1 Singapore,609790,JURONG EAST,WEST,103.729161,1.351493
FAJAR SECONDARY SCHOOL,31 GANGSA ROAD Singapore,678972,BUKIT PANJANG,WEST,103.7644367,1.3753749
KRANJI SECONDARY SCHOOL,38 TECK WHYE CRESCENT Singapore,688945,CHOA CHU KANG,WEST,103.756524,1.381679
JUYING SECONDARY SCHOOL,33 JURONG WEST STREET 91 Singapore,649038,JURONG WEST,WEST,103.6871273,1.3386025
WEST SPRING SECONDARY SCHOOL,61 SENJA  ROAD Singapore,677737,BUKIT PANJANG,WEST,103.760018,1.387707
JURONG WEST SECONDARY SCHOOL,61 JURONG WEST STREET 65 Singapore,648348,JURONG WEST,WEST,103.702086,1.335276
BEDOK GREEN SECONDARY SCHOOL,360 BEDOK NORTH AVE 3 Singapore,469722,BEDOK,EAST,103.935336,1.3341416
PUNGGOL SECONDARY SCHOOL,51 EDGEFIELD PLAINS Singapore,828870,PUNGGOL,NORTH,103.909443,1.402069
NORTH VISTA SECONDARY SCHOOL,11 RIVERVALE LINK Singapore,545081,SENG KANG,NORTH,103.8990751,1.38121
ADMIRALTY SECONDARY SCHOOL,31 WOODLANDS CRESCENT Singapore,737916,WOODLANDS,NORTH,103.8026082,1.4462673
PEI HWA SECONDARY SCHOOL,21 FERNVALE LINK Singapore,797702,SENG KANG,NORTH,103.8785975,1.3907376
GREENDALE SECONDARY SCHOOL,51 EDGEDALE PLAINS Singapore,828866,PUNGGOL,NORTH,103.9117179,1.396986
EDGEFIELD SECONDARY SCHOOL,36 PUNGGOL FIELD Singapore,828814,PUNGGOL,NORTH,103.902302,1.399882
MERIDIAN SECONDARY SCHOOL,31 PASIR RIS STREET 51 Singapore,518901,PASIR RIS,EAST,103.949261,1.3671009
LOYANG VIEW SECONDARY SCHOOL,12 PASIR RIS STREET 11 Singapore,519073,PASIR RIS,EAST,103.956826,1.366972
DUNMAN HIGH SCHOOL,10 TANJONG RHU ROAD Singapore,436895,KALLANG,EAST,103.8835308,1.2982166
RIVER VALLEY HIGH SCHOOL,6 BOON LAY AVENUE Singapore,649961,JURONG WEST,WEST,103.709695,1.3431764
AHMAD IBRAHIM SECONDARY SCHOOL,751 YISHUN AVENUE 7 Singapore,768928,YISHUN,NORTH,103.8299804,1.4364306
BROADRICK SECONDARY SCHOOL,61 DAKOTA CRESCENT Singapore,399935,GEYLANG,EAST,103.8866552,1.307525
BUKIT MERAH SECONDARY SCHOOL,10 LENGKOK BAHRU Singapore,159050,BUKIT MERAH,SOUTH,103.81344,1.285583
BUKIT PANJANG GOVT. HIGH SCHOOL,7 CHOA CHU KANG AVE 4 Singapore,689809,CHOA CHU KANG,WEST,103.738424,1.38166
DUNMAN SECONDARY SCHOOL,21 TAMPINES STREET 45 Singapore,529093,TAMPINES,EAST,103.956206,1.360673
JURONG SECONDARY SCHOOL,31 YUAN CHING ROAD Singapore,618652,JURONG WEST,WEST,103.7239048,1.3305084
NAVAL BASE SECONDARY SCHOOL,901 YISHUN RING ROAD Singapore,768689,YISHUN,NORTH,103.8310319,1.41924
OUTRAM SECONDARY SCHOOL,3 YORK HILL Singapore,168622,CENTRAL,SOUTH,103.837091,1.286507
YIO CHU KANG SECONDARY SCHOOL,3063 ANG MO KIO AVENUE 5 Singapore,569868,ANG MO KIO,NORTH,103.842103,1.377635
YUAN CHING SECONDARY SCHOOL,103 YUAN CHING ROAD Singapore,618654,JURONG WEST,WEST,103.720994,1.341917
BOON LAY SECONDARY SCHOOL,11 JURONG WEST STREET 65 Singapore,648354,JURONG WEST,WEST,103.701945,1.342172
BEDOK VIEW SECONDARY SCHOOL,6 BEDOK SOUTH AVENUE 3 Singapore,469293,BEDOK,EAST,103.9438629,1.3246274
HUA YI SECONDARY SCHOOL,60 JURONG WEST ST 42 Singapore,649371,JURONG WEST,WEST,103.72158,1.351473
DEYI SECONDARY SCHOOL,1 ANG MO KIO STREET 42 Singapore,569277,ANG MO KIO,NORTH,103.852329,1.365893
PING YI SECONDARY SCHOOL,61 CHAI CHEE STREET Singapore,468980,BEDOK,EAST,103.920426,1.3278983
PEICAI SECONDARY SCHOOL,10 SERANGOON AVENUE 4 Singapore,556094,SERANGOON,SOUTH,103.8704861,1.3593733
PASIR RIS SECONDARY SCHOOL,390 TAMPINES STREET 21 Singapore,529400,TAMPINES,EAST,103.948533,1.354757
GUANGYANG SECONDARY SCHOOL,8 BISHAN STREET 12 Singapore,579807,BISHAN,SOUTH,103.850566,1.344693
RIVERSIDE SECONDARY SCHOOL,3 WOODLANDS STREET 81 Singapore,738524,WOODLANDS,NORTH,103.788591,1.4404834
ZHONGHUA SECONDARY SCHOOL,13 SERANGOON AVENUE 3 Singapore,556123,SERANGOON,SOUTH,103.8694885,1.3486694
SWISS COTTAGE SECONDARY SCHOOL,3 BUKIT BATOK STREET 34 Singapore,659322,BUKIT BATOK,WEST,103.75064,1.36469
YUSOF ISHAK SECONDARY SCHOOL,11 BUKIT BATOK STREET 25 Singapore,658712,BUKIT BATOK,WEST,103.760309,1.342423
CHANGKAT CHANGI SECONDARY SCHOOL,23 SIMEI ST 3 Singapore,529894,TAMPINES,EAST,103.952619,1.340939
TECK WHYE SECONDARY SCHOOL,31 TECK WHYE CRESCENT Singapore,688848,CHOA CHU KANG,WEST,103.755214,1.382536
DUNEARN SECONDARY SCHOOL,21 BUKIT BATOK WEST AVENUE 2 Singapore,659204,BUKIT BATOK,WEST,103.7449283,1.3634532
NEW TOWN SECONDARY SCHOOL,1020 DOVER ROAD Singapore,139657,QUEENSTOWN,WEST,103.7736048,1.3091505
QUEENSTOWN SECONDARY SCHOOL,1 STRATHMORE ROAD Singapore,148800,QUEENSTOWN,SOUTH,103.8132036,1.2938664
SERANGOON GARDEN SECONDARY SCHOOL,21 SERANGOON NORTH AVENUE 1 Singapore,555889,SERANGOON,SOUTH,103.868983,1.36967
TANGLIN SECONDARY SCHOOL,301 WEST COAST ROAD Singapore,127391,CLEMENTI,SOUTH,103.7581531,1.3096831
TANJONG KATONG SECONDARY SCHOOL,130 HAIG ROAD Singapore,438796,MARINE PARADE,EAST,103.897257,1.3086279
WOODLANDS RING SECONDARY SCHOOL,10 WOODLANDS RING ROAD Singapore,738239,WOODLANDS,NORTH,103.8007288,1.4364147
ORCHID PARK SECONDARY SCHOOL,10 YISHUN STREET 81 Singapore,768454,YISHUN,NORTH,103.8383822,1.4153017
SEMBAWANG SECONDARY SCHOOL,30 SEMBAWANG CRESCENT Singapore,757704,SEMBAWANG,NORTH,103.8170072,1.4459577
SENG KANG SECONDARY SCHOOL,10 COMPASSVALE LANE Singapore,545090,SENG KANG,NORTH,103.897892,1.386517
JUNYUAN SECONDARY SCHOOL,11 TAMPINES STREET 84 Singapore,528933,TAMPINES,EAST,103.9335232,1.3533278
EAST SPRING SECONDARY SCHOOL,30 TAMPINES STREET 34 Singapore,529231,TAMPINES,EAST,103.960586,1.3559969
UNITY SECONDARY SCHOOL,20 CHOA CHU KANG STREET 62 Singapore,689143,CHOA CHU KANG,WEST,103.746125,1.40005
NORTHBROOKS SECONDARY SCHOOL,585 YISHUN RING ROAD Singapore,768692,YISHUN,NORTH,103.8450852,1.4209822
PASIR RIS CREST SECONDARY SCHOOL,11 PASIR RIS STREET 41 Singapore,518934,PASIR RIS,EAST,103.9593862,1.3724026
FUHUA SECONDARY SCHOOL,5 JURONG WEST STREET 41 Singapore,649410,JURONG WEST,WEST,103.726756,1.346902
MARSILING SECONDARY SCHOOL,12 MARSILING ROAD Singapore,739110,WOODLANDS,NORTH,103.7763303,1.4381054
WOODGROVE SECONDARY SCHOOL,3 WOODLANDS AVENUE 6 Singapore,738990,WOODLANDS,NORTH,103.796334,1.4280679
ZHENGHUA SECONDARY SCHOOL,91 SENJA ROAD Singapore,677741,BUKIT PANJANG,WEST,103.764939,1.388271
REGENT SECONDARY SCHOOL,50 CHOA CHU KANG NORTH 5 Singapore,689621,CHOA CHU KANG,WEST,103.750966,1.393079
KENT RIDGE SECONDARY SCHOOL,147 WEST COAST ROAD Singapore,127368,CLEMENTI,SOUTH,103.7649426,1.3013766
WESTWOOD SECONDARY SCHOOL,11 JURONG WEST STREET 25 Singapore,648350,JURONG WEST,WEST,103.7017788,1.3537852
CANBERRA SECONDARY SCHOOL,51 SEMBAWANG DRIVE Singapore,757699,SEMBAWANG,NORTH,103.8144714,1.4536086
COMPASSVALE SECONDARY SCHOOL,51 COMPASSVALE CRESCENT Singapore,545083,SENG KANG,NORTH,103.899711,1.396086
EVERGREEN SECONDARY SCHOOL,11 WOODLANDS STREET 83 Singapore,738489,WOODLANDS,NORTH,103.794011,1.441283
ANGLO-CHINESE SCHOOL (JUNIOR),16 WINSTEDT ROAD Singapore,227988,CENTRAL,SOUTH,103.8415002,1.3089557
CHIJ PRIMARY (TOA PAYOH),628 LORONG 1 TOA PAYOH Singapore,319765,TOA PAYOH,SOUTH,103.841908,1.333107
CHIJ (KELLOCK),121 QUEENSWAY Singapore,149059,BUKIT MERAH,SOUTH,103.800263,1.302031
CHIJ OUR LADY OF THE NATIVITY,1257 UPPER SERANGOON ROAD Singapore,534793,HOUGANG,SOUTH,103.898088,1.372971
DE LA SALLE SCHOOL,11 CHOA CHU KANG ST 52 Singapore,689285,CHOA CHU KANG,WEST,103.7435172,1.3947804
ST. ANDREW'S JUNIOR SCHOOL,2 FRANCIS THOMAS DRIVE Singapore,359337,TOA PAYOH,SOUTH,103.8652089,1.331468
ST. ANTHONY'S CANOSSIAN PRIMARY SCHOOL,1602 BEDOK NORTH AVE 4 Singapore,469701,BEDOK,EAST,103.941072,1.334282
ST. GABRIEL'S PRIMARY SCHOOL,220 LORONG CHUAN Singapore,556742,SERANGOON,SOUTH,103.8622746,1.3493095
ST. MARGARET'S PRIMARY SCHOOL,99 WILKIE ROAD Singapore,228091,CENTRAL,SOUTH,103.84625080000001,1.303746
ST. JOSEPH'S INSTITUTION JUNIOR,3 ESSEX ROAD Singapore,309331,NOVENA,SOUTH,103.8458472,1.3174708
ST. STEPHEN'S SCHOOL,20 SIGLAP VIEW Singapore,455789,BEDOK,EAST,103.9175727,1.3188814
CHIJ OUR LADY OF GOOD COUNSEL,2C BURGHLEY DRIVE Singapore,558979,SERANGOON,SOUTH,103.863998,1.35732
MONTFORT JUNIOR SCHOOL,52 HOUGANG AVENUE 8 Singapore,538786,HOUGANG,NORTH,103.889614,1.373864
CHIJ OUR LADY QUEEN OF PEACE,4 CHESTNUT DRIVE Singapore,679287,BUKIT PANJANG,WEST,103.767594,1.366297
FAIRFIELD METHODIST SCHOOL (PRIMARY),100 DOVER ROAD Singapore,139648,QUEENSTOWN,SOUTH,103.785809,1.3007439
GEYLANG METHODIST SCHOOL (PRIMARY),4 GEYLANG EAST CENTRAL Singapore,389706,GEYLANG,EAST,103.882915,1.3179179
KUO CHUAN PRESBYTERIAN PRIMARY SCHOOL,8 BISHAN STREET 13 Singapore,579793,BISHAN,SOUTH,103.854727,1.349116
ST. HILDA'S PRIMARY SCHOOL,2 TAMPINES AVE 3 Singapore,529706,TAMPINES,EAST,103.936605,1.3492104
SINGAPORE CHINESE GIRLS' PRIMARY SCHOOL,60 DUNEARN ROAD Singapore,309434,NOVENA,NORTH,103.8296851,1.3202303
METHODIST GIRLS' SCHOOL (PRIMARY),11 BLACKMORE DRIVE Singapore,599986,BUKIT TIMAH,WEST,103.782566,1.332954
NAN CHIAU PRIMARY SCHOOL,50 ANCHORVALE LINK Singapore,545080,SENG KANG,NORTH,103.890834,1.391841
CANOSSA CATHOLIC PRIMARY SCHOOL,1 SALLIM ROAD Singapore,387621,GEYLANG,EAST,103.8822778,1.3261855
KONG HWA SCHOOL,350 GUILLEMARD ROAD Singapore,399772,GEYLANG,EAST,103.8878503,1.311
MEE TOH SCHOOL,21 EDGEDALE PLAINS Singapore,828867,PUNGGOL,NORTH,103.9089333,1.3947729
NGEE ANN PRIMARY SCHOOL,344 MARINE TERRACE Singapore,449149,MARINE PARADE,EAST,103.9181149,1.3055653
RED SWASTIKA SCHOOL,350 BEDOK NORTH AVENUE 3 Singapore,469719,BEDOK,EAST,103.9346109,1.3332677
TAO NAN SCHOOL,49 MARINE CRESCENT Singapore,449761,MARINE PARADE,EAST,103.9113177,1.3049455
NANYANG PRIMARY SCHOOL,52 KING'S ROAD Singapore,268097,BUKIT TIMAH,WEST,103.8077117,1.3210855
ST. ANTHONY'S PRIMARY SCHOOL,30 BUKIT BATOK ST 32 Singapore,659401,BUKIT BATOK,WEST,103.7490186,1.3642757
MAHA BODHI SCHOOL,10 UBI AVENUE 1 Singapore,408931,GEYLANG,EAST,103.8962436,1.3264069
PEI CHUN PUBLIC SCHOOL,580 TOA PAYOH EAST Singapore,319133,TOA PAYOH,SOUTH,103.8589626,1.3332385
POI CHING SCHOOL,21 TAMPINES STREET 71 Singapore,529067,TAMPINES,EAST,103.9352454,1.3577836
KHENG CHENG SCHOOL,15 LORONG 3 TOA PAYOH Singapore,319580,TOA PAYOH,SOUTH,103.847796,1.337666
NAN HUA PRIMARY SCHOOL,170 WEST COAST ROAD Singapore,127443,CLEMENTI,WEST,103.7652142,1.3065701
PEI HWA PRESBYTERIAN PRIMARY SCHOOL,7 PEI WAH AVENUE Singapore,597610,BUKIT TIMAH,WEST,103.77613,1.338081
AI TONG SCHOOL,100 BRIGHT HILL DRIVE Singapore,579646,BISHAN,SOUTH,103.832615,1.360415
HONG WEN SCHOOL,30 TOWNER ROAD Singapore,327829,KALLANG,SOUTH,103.8576768,1.3219278
HOLY INNOCENTS' PRIMARY SCHOOL,5 LORONG LOW KOON Singapore,536451,HOUGANG,SOUTH,103.893711,1.366573
PAYA LEBAR METHODIST GIRLS' SCHOOL (PRIMARY),298 LORONG AH SOO Singapore,536741,HOUGANG,EAST,103.884813,1.351003
CHONGFU SCHOOL,170 YISHUN AVENUE 6 Singapore,768959,YISHUN,NORTH,103.8389256,1.4386291
CHIJ (KATONG) PRIMARY,17 MARTIA ROAD Singapore,424821,BEDOK,EAST,103.9109552,1.3064102
ANGLO-CHINESE SCHOOL (PRIMARY),50 BARKER ROAD Singapore,309918,NOVENA,SOUTH,103.8351774,1.3186587
ANGLO-CHINESE SCHOOL (INDEPENDENT),121 DOVER ROAD Singapore,139650,QUEENSTOWN,SOUTH,103.7809869,1.302298
ASSUMPTION ENGLISH SCHOOL,622 UPPER BUKIT TIMAH ROAD Singapore,678117,BUKIT PANJANG,WEST,103.7661047,1.3681024
CHIJ SECONDARY (TOA PAYOH),626 LORONG 1 TOA PAYOH Singapore,319764,TOA PAYOH,SOUTH,103.8432669,1.3324745
GEYLANG METHODIST SCHOOL (SECONDARY),2 GEYLANG EAST CENTRAL Singapore,389705,GEYLANG,EAST,103.8829,1.318124
CHIJ KATONG CONVENT,346 MARINE TERRACE Singapore,449150,MARINE PARADE,EAST,103.9173898,1.3065932
MONTFORT SECONDARY SCHOOL,50 HOUGANG AVENUE 8 Singapore,538785,HOUGANG,NORTH,103.888992,1.373518
SINGAPORE CHINESE GIRLS' SCHOOL,190 DUNEARN ROAD Singapore,309437,NOVENA,NORTH,103.8280003,1.3211402
ST. ANDREW'S SECONDARY SCHOOL,15 FRANCIS THOMAS DRIVE Singapore,359342,TOA PAYOH,SOUTH,103.8658718,1.3307305
ST. ANTHONY'S CANOSSIAN SECONDARY SCHOOL,1600 BEDOK NORTH AVENUE 4 Singapore,469700,BEDOK,EAST,103.9419352,1.3346718
ST. GABRIEL'S SECONDARY SCHOOL,24 SERANGOON AVENUE 1 Singapore,556140,SERANGOON,SOUTH,103.8754893,1.3468395
CHIJ ST. JOSEPH'S CONVENT,62 SENGKANG EAST WAY Singapore,548595,SENG KANG,NORTH,103.902461,1.391747
ST. JOSEPH'S INSTITUTION,38 MALCOLM ROAD Singapore,308274,NOVENA,SOUTH,103.828591,1.322914
ST. MARGARET'S SECONDARY SCHOOL,111 FARRER ROAD Singapore,259240,BUKIT TIMAH,SOUTH,103.8094906,1.3198595
ST. PATRICK'S SCHOOL,490 EAST COAST ROAD Singapore,429058,BEDOK,EAST,103.916926,1.3085736
CHIJ ST. THERESA'S CONVENT,160 LOWER DELTA ROAD Singapore,099138,BUKIT MERAH,SOUTH,103.8218103,1.2753258
CHRIST CHURCH SECONDARY SCHOOL,20 WOODLANDS DRIVE 17 Singapore,737924,WOODLANDS,NORTH,103.793419,1.426395
PAYA LEBAR METHODIST GIRLS' SCHOOL (SECONDARY),296 LOR AH SOO Singapore,536742,HOUGANG,EAST,103.88551030000001,1.3508153
YUYING SECONDARY SCHOOL,47 HOUGANG AVENUE 1 Singapore,538884,HOUGANG,SOUTH,103.8900219,1.3572435
KUO CHUAN PRESBYTERIAN SECONDARY SCHOOL,10 BISHAN STREET 13 Singapore,579795,BISHAN,SOUTH,103.854975,1.349774
ST. HILDA'S SECONDARY SCHOOL,2 TAMPINES STREET 82 Singapore,528986,TAMPINES,EAST,103.9366957,1.3504543
METHODIST GIRLS' SCHOOL (SECONDARY),11 BLACKMORE DRIVE Singapore,599986,BUKIT TIMAH,WEST,103.782566,1.332954
HAI SING CATHOLIC SCHOOL,9 PASIR RIS DRIVE 6 Singapore,519421,PASIR RIS,EAST,103.954463,1.374513
ANGLO-CHINESE SCHOOL (BARKER ROAD),60 BARKER ROAD Singapore,309919,NOVENA,SOUTH,103.8359365,1.3188316
ANGLICAN HIGH SCHOOL,600 UPPER CHANGI ROAD Singapore,487012,BEDOK,EAST,103.942429,1.3300216
CATHOLIC HIGH SCHOOL,9 BISHAN STREET 22 Singapore,579767,BISHAN,NORTH,103.8454488,1.3551578
CHUNG CHENG HIGH SCHOOL (MAIN),50 GOODMAN ROAD Singapore,439012,MARINE PARADE,EAST,103.8925324,1.3048047
CHUNG CHENG HIGH SCHOOL (YISHUN),11 YISHUN STREET 61 Singapore,768547,YISHUN,NORTH,103.837311,1.418737
HOLY INNOCENTS' HIGH SCHOOL,1191 UPPER SERANGOON ROAD Singapore,534786,HOUGANG,SOUTH,103.896018,1.371204
MARIS STELLA HIGH SCHOOL,25 MOUNT VERNON ROAD Singapore,368051,TOA PAYOH,NORTH,103.8782839,1.341737
NAN CHIAU HIGH SCHOOL,20 ANCHORVALE LINK Singapore,545079,SENG KANG,NORTH,103.8899803,1.389411
NANYANG GIRLS' HIGH SCHOOL,2 LINDEN DRIVE Singapore,288683,BUKIT TIMAH,WEST,103.8022688,1.3306486
CHIJ ST. NICHOLAS GIRLS' SCHOOL,501 ANG MO KIO STREET 13 Singapore,569405,ANG MO KIO,NORTH,103.8339743,1.3735892
MARYMOUNT CONVENT SCHOOL,20 MARYMOUNT ROAD Singapore,297754,TOA PAYOH,SOUTH,103.8399377,1.3406992
MANJUSRI SECONDARY SCHOOL,20 UBI AVENUE 1 Singapore,408940,GEYLANG,EAST,103.9013422,1.3274138
PRESBYTERIAN HIGH SCHOOL,5209 ANG MO KIO AVENUE 6 Singapore,569845,ANG MO KIO,NORTH,103.8431,1.382254
FAIRFIELD METHODIST SCHOOL (SECONDARY),102 DOVER ROAD Singapore,139649,QUEENSTOWN,SOUTH,103.784589,1.3017793
NGEE ANN SECONDARY SCHOOL,1 TAMPINES STREET 32 Singapore,529283,TAMPINES,EAST,103.9565479,1.3544057
SINGAPORE SPORTS SCHOOL,1 CHAMPIONS WAY Singapore,737913,WOODLANDS,NORTH,103.789056,1.426703
NUS HIGH SCHOOL OF MATHEMATICS AND SCIENCE,20 CLEMENTI AVENUE 1 Singapore,129957,CLEMENTI,WEST,103.7691976,1.3065479
"SCHOOL OF THE ARTS, SINGAPORE",1 ZUBIR SAID DRIVE Singapore,227968,CENTRAL,SOUTH,103.848618,1.299447
NORTHLIGHT SCHOOL,151 TOWNER ROAD Singapore,327830,MARINE PARADE,SOUTH,103.8576769,1.3207365
ASSUMPTION PATHWAY SCHOOL,30 CASHEW ROAD Singapore,679697,BUKIT PANJANG,WEST,103.7667515,1.3705274
"SCHOOL OF SCIENCE AND TECHNOLOGY, SINGAPORE",1 TECHNOLOGY DRIVE Singapore,138572,CLEMENTI,WEST,103.7742638,1.3136526
CREST SECONDARY SCHOOL,561 JURONG EAST STREET 24 Singapore,609561,JURONG EAST,WEST,103.7431328,1.34309
SPECTRA SECONDARY SCHOOL,1 WOODLANDS DRIVE 64 Singapore,737758,WOODLANDS,NORTH,103.8043528,1.4364631
