name,address,postal,lat,lon
115 EASTPOINT CLINIC & SURGERY,BLK 115 BEDOK NORTH RD Singapore,460115,1.3313891,103.9368316
18 CLINIC,BLK 101 TOWNER ROAD Singapore,322101,1.3193077,103.8609838
326 AVENUE 3 CLINIC,BLK 326 SERANGOON AVE 3 Singapore,550326,1.3503548,103.8690239
338 FAMILY CLINIC,BLK 338 ANG MO KIO AVE 1 Singapore,560338,1.363639,103.8487619
531 CLINIC & SURGERY,BLK 531 BEDOK NORTH ST 3 Singapore,460531,1.3333543,103.9259548
6-10 CLINIC & SURGERY,BLK 253 SERANGOON CENTRAL DR Singapore,550253,1.3539873,103.8708133
81 FAMILY CLINIC,BLK 81 MARINE PARADE CENTRAL Singapore,440081,1.3025927,103.9071036
8-11 CLINIC & SURGERY,BLK 106 JALAN BUKIT MERAH Singapore,160106,1.2803121,103.8242139
818 FAMILY CLINIC AND SURGERY,BLK 818 WOODLANDS ST 82 Singapore,730818,1.4416821,103.7900573
911 FAMILY CLINIC,BLK 289E BUKIT BATOK ST 25 Singapore,654289,1.344131,103.7591961
911 FAMILY CLINIC,BLK 276 JURONG WEST ST 25 Singapore,640276,1.3537395,103.7032533
"A.M., P.M. FAMILY  CLINIC & SURGERY",BLK 123 TOA PAYOH LOR 1 Singapore,310123,1.3386519,103.8456788
ACUMED MEDICAL GROUP,BLK 38 TEBAN GARDENS RD Singapore,600038,1.3211511,103.74281
ACUMED MEDICAL GROUP,NO.3 SAKRA RD Singapore,627878,1.2675487,103.704573
ACUMED MEDICAL GROUP,71 PIONEER RD Singapore,639591,1.316869,103.651887
ACUMED MEDICAL GROUP,NO. 7 PIONEER RD NORTH Singapore,628459,1.3248656,103.6954432
ACUMED MEDICAL GROUP,1 JURONG WEST CENTRAL 2 Singapore,648886,1.3393411,103.7053874
ACUMED MEDICAL GROUP,BLK 64 YUNG KUANG RD Singapore,610064,1.3325196,103.7226034
ACUMED MEDICAL GROUP,BLK 303 WOODLANDS ST 31 Singapore,730303,1.4309433,103.7737488
ACUMED MEDICAL GROUP CENTRAL,50 MARKET ST Singapore,048940,1.284342,103.850119
ACUMED MEDICAL GROUP CENTRAL,10 COLLYER QUAY Singapore,049315,1.2831801,103.8520125
ADIDAH FAMILY CLINIC & SURGERY,BLK 821 TAMPINES ST 81 Singapore,520821,1.3486734,103.9345656
ADMIRALTY FAMILY CLINIC PTE LTD,BLK 678A WOODLANDS AVE 6 Singapore,731678,1.4404732,103.8017932
ADVANCE CLINIC & SURGERY,BLK 301 UBI AVE 1 Singapore,400301,1.3307113,103.9020287
AFPD MEDICAL CLINIC,10 TAMPINES INDUSTRIAL AVE 3 Singapore,528798,1.360488,103.929698
AGAPE CLINIC,BLK 222 BISHAN ST 23 Singapore,570222,1.3580546,103.8483688
AGILENT CLINIC,NO 1 YISHUN AVE 7 Singapore,768923,1.4401573,103.841009
AGLOW BABY & CHILD SPECIALIST CLINIC,101 THOMSON RD Singapore,307591,1.3171474,103.8435716
ALBARAKAH CLINIC & SURGERY,BLK 356 HOUGANG AVE 7 Singapore,530356,1.3726089,103.8987664
ALJUNIED MEDICAL CLINIC,119 GEYLANG EAST CENTRAL Singapore,380119,1.3192506,103.886422
ALLIANCE CLINIC AND SURGERY,BLK 652 JLN TENAGA Singapore,410652,1.3326533,103.9079192
ALPHA CLINIC & SURGERY/ ALPHA LASER CENTRE,80 MARINE PARADE RD Singapore,449269,1.3014702,103.9051552
AMA KENG CLINIC,BLK 492 JURONG WEST ST 41 Singapore,640492,1.3501144,103.724983
AMD CLINIC,508 CHAI CHEE LANE Singapore,469032,1.330125,103.916355
AMITY MEDICAL CLINIC & DENTAL SURGERY,BLK 371 BT BATOK ST 31 Singapore,650371,1.3594109,103.750685
ANDERSON MEDICAL CENTRE,BLK 283 BISHAN ST 22 Singapore,570283,1.3587893,103.8448587
ANG MO KIO CLINIC,BLK 202 ANG MO KIO AVE 3 Singapore,560202,1.3684602,103.8445869
ANG MO KIO MEDICAL CENTRE,BLK 157 ANG MO KIO AVE 4 Singapore,560157,1.375304,103.8395144
ANG MO KIO PK 2 CLINIC,"5012 ANG MO KIO AVE 5,  ANG MO KIO INDUSTRIAL Singapore",569876,1.377459,103.8653773
ANSAR CLINIC AND DENTAL SURGERY,BLK 138 TAMPINES ST 11 Singapore,521138,1.3454615,103.9456244
ANTEH DISPENSARY,368 GEYLANG RD Singapore,389381,1.3129499,103.88136
APEX CLINIC & SURGERY,BLK 844 YISHUN ST 81 Singapore,760844,1.4154318,103.8350761
APEX CLINIC & SURGERY,BLK 306 WOODLANDS ST 31 Singapore,730306,1.4301936,103.7748213
APEX MEDICAL CENTRE (JURONG) PTE LTD,BLK 960 JURONG WEST ST 92 Singapore,640960,1.341362,103.6914075
AR-RAUDHAH MEDICAL CLINIC,BLK 372 BT BATOK ST 31 Singapore,650372,1.359015,103.751101
ASIA PACIFIC BREWERIES (SINGAPORE) PTE LTD (MEDIC,459 JLN AHMAD IBRAHIM Singapore,639934,1.3366284,103.6469395
ASSOCIATE DISPENSARIES,BLK 94 TOA PAYOH LOR 4 Singapore,310094,1.3382603,103.8500369
ATRIA MEDICAL ASSOCIATES PTE LTD,435 ORCHARD RD Singapore,238877,1.3037148,103.8332642
AVENUE 10 CLINIC,BLK 532 ANG MO KIO AVE 10 Singapore,560532,1.3737394,103.8546855
B L MEDICAL ASSOCIATES,16A SCIENCE PARK DR Singapore,118228,1.2897003,103.7877543
B S CHEW CLINIC,BLK 252 JURONG EAST ST 24 Singapore,600252,1.3430725,103.7381938
B T GOH FAMILY CLINIC & SURGERY,BLK 194 KIM KEAT AVE Singapore,310194,1.330963,103.8581751
BALA MEDICAL CLINIC,BLK 8 UPPER BOON KENG RD Singapore,380008,1.3134883,103.8699297
BALESTIER DISPENSARY MEDICAL & SURGICAL CLINIC,163 THOMSON RD Singapore,307616,1.3180094,103.8436008
BALKIS FAMILY CLINIC,BLK 631 BEDOK RESERVOIR RD Singapore,470631,1.3334378,103.9149165
BAN KOK CLINIC & SURGERY,BLK 146 POTONG PASIR AVE 1 Singapore,350146,1.3317893,103.8672346
BANYAN CLINIC,BLK 768 WOODLANDS AVE 6 Singapore,730768,1.4454883,103.79799
banyan clinic @ jw,BLK 502 JURONG WEST AVE 1 Singapore,640502,1.3504465,103.7181955
BEACH MEDICAL CENTRE,15 BEACH RD Singapore,189677,1.295817,103.8554963
BEDOK CLINIC & SURGERY,BLK 17 BEDOK SOUTH RD Singapore,460017,1.320175,103.935554
BEDOK FAMILY CLINIC & SURGERY,BLK 218 BEDOK NORTH ST 1 Singapore,460218,1.3274436,103.9341549
BEDOK LIFE CLINIC,BLK 123 BEDOK NORTH ST 2 Singapore,460123,1.3292647,103.9372849
BEDOK MEDICAL ASSOCIATES,BLK 88 BEDOK NORTH ST 4 Singapore,460088,1.3327641,103.9394604
BEDOK MEDICAL CENTRE,BLK 18 BEDOK SOUTH RD Singapore,460018,1.3205036000000001,103.9347465
BISHAN GRACE CLINIC,BLK 150 BISHAN ST 11 Singapore,570150,1.344518,103.855269
BL MEDICAL ASSOCIATES PTE LTD,21 SCIENCE PARK RD Singapore,117628,1.2892176,103.7809673
BOON KENG CLINIC & SURGERY,BLK 11 UPPER BOON KENG RD Singapore,380011,1.3142619,103.8708812
BOON LAY CENTRAL CLINIC,BLK 221 BOON LAY PLACE Singapore,640221,1.3461938,103.7124483
BOON MEDICAL CLINIC,10 UBI CRESCENT Singapore,408564,1.3264632,103.896365
BRITISH-AMERICAN TOBACCO (SINGAPORE) PRIVATE LIMI,15 SENOKO LOOP Singapore,758168,1.45822,103.802369
BRYAN BREN FAMILY DOCTORS,154 WEST COAST RD Singapore,127371,1.3037119,103.766029
BUKIT BATOK - SENIOR CITIZEN HEALTH CARE CENTRE,50 BUKIT BATOK WEST AVE 3 Singapore,659164,1.351972,103.747924
BUKIT BATOK MEDICAL CLINIC,BLK 207 BT BATOK ST 21 Singapore,650207,1.3462385,103.7493298
BUKIT BATOK WEST CLINIC,BLK 323 BUKIT BATOK ST 33 Singapore,650323,1.3611837,103.748241
BUKIT MERAH CENTRAL MEDICAL CENTRE,BLK 165 BT MERAH CENTRAL Singapore,150165,1.2831384,103.8167485
BUKIT MERAH CLINIC,BLK 55 LENGKOK BAHRU Singapore,151055,1.2875387,103.8135205
BUKIT TIMAH CLINIC,621A BUKIT TIMAH RD Singapore,269731,1.3245817,103.8091968
BUKIT TIMAH FAMILY CLINIC & SURGERY,833 BUKIT TIMAH RD Singapore,279887,1.3317128,103.793967
BUKIT TIMAH NAM SANG CLINIC,80 JLN JURONG KECHIL Singapore,598591,1.3404609,103.7732241
C H TAN MEDICAL CLINIC & DENTAL SURGERY,BLK 177 BT BATOK WEST AVE 8 Singapore,650177,1.346356,103.7416359
C K TAN FAMILY CLINIC & SURGERY,BLK 125 TOA PAYOH LOR 1 Singapore,310125,1.3383213,103.8458101
"C.M.C. DUNEARN BKT TIMAH  CLINIC MEDICAL, HEALTH",733 BUKIT TIMAH RD Singapore,269748,1.329899,103.7994724
C.M.C. WONG BINJAI CLINIC,23 BINJAI PARK Singapore,589828,1.336276,103.787132
CAMBRIDGE CLINIC,BLK 250 TAMPINES ST 21 Singapore,520250,1.3523254,103.9484346
CAMBRIDGE CLINIC,BLK 333 KRETA AYER RD Singapore,080333,1.2805458,103.8425682
CAMBRIDGE MEDICAL CENTRE,BLK 302 WOODLANDS ST 31 Singapore,730302,1.431797,103.7744033
CAMRY MEDICAL CENTRE,BLK 92 TOA PAYOH LOR 4 Singapore,310092,1.3380627,103.8494549
CANBERRA MEDICAL CENTRE,306A CANBERRA RD Singapore,751306,1.445376,103.8225779
CANTERBURY MEDICAL CLINIC AND SURGERY,BLK 909 JURONG WEST ST 91 Singapore,640909,1.3412034,103.6864671
CARE MEDICAL CENTRE,BLK 190 TOA PAYOH  LOR 6 Singapore,310190,1.3329648,103.8486276
CARE MEDICAL CLINIC,BLK 683 HOUGANG AVE 8 Singapore,530683,1.3735631,103.8860803
CARELINK FAMILY CLINIC,400 BALESTIER RD Singapore,329802,1.3257002,103.8503399
CARING COMMUNITY CLINIC,90 RACE COURSE RD Singapore,218577,1.3090534,103.8515595
CARITAS CLINIC,BLK 304 UBI AVE 1 Singapore,400304,1.3295534,103.9015013
CARRINGTON MEDICAL CENTRE,BLK 3 QUEEN'S RD Singapore,260003,1.3228663,103.8116414
CASHEW MEDICAL,BLK 105 CASHEW RD Singapore,679675,1.3734927,103.767568
CASHEW MEDICAL & SURGERY,BLK 445 FAJAR RD Singapore,670445,1.3837844,103.7708956
CASSIA CLINIC AND SURGERY,34 CASSIA CRESCENT Singapore,390034,1.3095876,103.8845353
CASSIA MEDICAL CENTRE,BLK 838 JURONG WEST ST 81 Singapore,640838,1.3439218,103.6934001
CAUSEWAY CLINIC,BLK 2 MARSILING DR Singapore,730002,1.4399313,103.7765762
CCK 24-HR FAMILY CLINIC,BLK 304 CHOA CHU KANG AVE 4 Singapore,680304,1.3844491,103.743172
CECILIA FAMILY CLINIC & SURGERY,BLK 484 TAMPINES ST 43 Singapore,520484,1.361307,103.952521
CENTRAL CLINIC & SURGERY,BLK 25 BENDEMEER RD Singapore,330025,1.318719,103.8628222
CENTRAL CLINIC & SURGERY (AMK),BLK 726 ANG MO KIO AVE 6 Singapore,560726,1.37279,103.8464666
CENTRAL CLINIC & SURGERY (BEDOK),BLK 211 NEW UPPER CHANGI RD Singapore,460211,1.3255108,103.931987
CENTRAL CLINIC & SURGERY (CLEMENTI),BLK 450 CLEMENTI AVE 3 Singapore,120450,1.3135577,103.7654405
CENTRAL CLINIC & SURGERY (HOUGANG),BLK 681 HOUGANG AVE 8 Singapore,530681,1.3729813,103.8855871
CENTRAL CLINIC & SURGERY (MARINE PARADE),BLK 83 MARINE PARADE CENTRAL Singapore,440083,1.3026709,103.9061973
CENTRAL CLINIC & SURGERY (YISHUN CENTRAL),BLK 923 YISHUN CENTRAL Singapore,760923,1.4285843,103.8357306
CENTRAL CLINIC & SURGERY (YISHUN),BLK 701A YISHUN AVE 5 Singapore,761701,1.4299278,103.8279207
CENTRAL MEDICAL CLINIC,BLK 109 CLEMENTI ST 11 Singapore,120109,1.3222301,103.7705903
CENTRAL MEDICAL GROUP,BLK 113 BT MERAH VIEW Singapore,150113,1.2864806,103.8230525
CHAI CHEE CLINIC & SURGERY,BLK 25A CHAI CHEE RD Singapore,461025,1.3232684,103.9240514
CHAIM CLINIC,BLK 111 TOA PAYOH LOR 1 Singapore,310111,1.3412293,103.8454701
CHAN CLINIC & SURGERY,BLK 153 BT BATOK ST 11 Singapore,650153,1.3475797,103.7442927
CHAN CLINIC & SURGERY,BLK 119 ALJUNIED AVE 2 Singapore,380119,1.3203429,103.8865903
CHAN FAMILY CLINIC,865 MOUNTBATTEN RD Singapore,437844,1.3037611,103.9008959
CHAN MEDICAL CLINIC AND SURGERY,428 JOO CHIAT RD Singapore,427645,1.3067592,103.904181
CHANG CLINIC,1 JLN ANAK BUKIT Singapore,588996,1.3385566,103.7786133
CHANG CLINIC,BLK 208 HOUGANG ST 21 Singapore,530208,1.3586913,103.886624
CHANG CLINIC & SURGERY,BLK 7 EVERTON PARK Singapore,080007,1.2770881,103.8392427
CHANGI CLINIC,BLK 2 GEYLANG SERAI Singapore,402002,1.3173789,103.897547
CHANGI MEDICAL CENTRE,"965 UPPER CHANGI RD NORTH, CHANGI GARDEN Singapore",507665,1.3603979,103.9699685
CHAN-GWEE MEDICARE CLINIC,70 ANSON RD Singapore,079905,1.2739236,103.8444671
CHANLAI HEALTHCARE CLINIC,BLK 604 YISHUN ST 61 Singapore,760604,1.4223688,103.8357353
CHARIS CLINIC & SURGERY,BLK 164 TAMPINES ST 12 Singapore,521164,1.3495577,103.9460777
CHARTERED SEMICONDUCTOR MANUFACTURING PTE LTD (ME,"60 WOODLANDS INDUSTRIAL ESTATE PARK D, STRE Singapore",738406,1.4349062,103.7660361
CHEAH FAMILY CLINIC AND SURGERY,BLK 804 HOUGANG CENTRAL Singapore,530804,1.370946,103.8946803
CHECK-UP PTE LTD,101 DUNLOP ST Singapore,209420,1.3052921,103.8529888
CHEE HWAN KOG CHARITY CLINIC,67 ANCHORVALE LINK Singapore,545071,1.393858,103.890284
CHEN & LOW FAMILY DOCTORS,BLK 548 WOODLANDS DR 44 Singapore,730548,1.4306862,103.7940058
CHEN FAMILY CLINIC,BLK 153 SERANGOON NORTH AVE 1 Singapore,550153,1.3702291,103.8722427
CHEN MAY MEDICAL ASSOCIATES,150 SOUTH BRIDGE RD Singapore,058727,1.285089,103.8463158
CHENG CLINIC,BLK 447 ANG MO KIO AVE 10 Singapore,560447,1.3675144,103.8559103
CHEOK CLINIC,349 GEYLANG RD Singapore,389372,1.3128101,103.8800093
CHEOK DISPENSARY,5E PAYA LEBAR RD Singapore,409001,1.316645,103.892698
CHEONG CLINIC,BLK 45 OWEN RD Singapore,210045,1.3155827,103.8508147
CHEONG MEDICAL CLINIC,76 JLN JURONG KECHIL Singapore,598589,1.3404457,103.7733374
CHIA & LEE MEDICAL & DENTAL CLINIC,BLK 802 TAMPINES AVE 4 Singapore,520802,1.3460914,103.93801
CHIA CLINIC AND SURGERY,27 FOCH RD Singapore,209264,1.3127026,103.8599445
CHIEW CLINIC,2 KOVAN RD Singapore,548008,1.3620031,103.8849336
CHIN CHOO CLINIC,BLK 35 CIRCUIT RD Singapore,370035,1.3291935,103.8859897
CHIN CLINIC,3 JLN WANGI Singapore,349351,1.3300714,103.8742335
CHINATOWN MEDICAL CENTRE,BLK 531 UPPER CROSS ST Singapore,050531,1.2844195,103.8454248
CHIONG'S CLINIC,BLK 8 TOA PAYOH LOR 7 Singapore,310008,1.337929,103.8567286
CHNG CLINIC & SURGERY,BLK 178 TOA PAYOH CENTRAL Singapore,310178,1.3335739,103.8492063
CHOK CLINIC,BLK 407 CLEMENTI AVE 1 Singapore,120407,1.3103244,103.7677943
CHONG & LIM FAMILY CLINIC,BLK 103 GANGSA RD Singapore,670103,1.3787279,103.7685186
CHONG CLINIC,BLK 63 KALLANG BAHRU Singapore,330063,1.3210258,103.8683218
CHONG MEDICAL CLINIC,BLK 703 BEDOK RESERVOIR ROAD Singapore,470703,1.3371946,103.9198822
CHONG'S CLINIC,234 UPPER THOMSON RD Singapore,574365,1.3530546,103.8349495
CHONG'S MEDICAL CENTRE,190 CLEMENCEAU AVE Singapore,239924,1.2980792,103.8440911
CHOO CLINIC,BLK 46 BEDOK SOUTH AVE 3 Singapore,460046,1.32243,103.9427236
CHOOK SPORTS & LIFESTYLE MEDICINE CENTRE,1 GRANGE RD Singapore,239693,1.3014488,103.8372499
CHOO-NG & HO CLINIC & SURGERY,BLK 57 GEYLANG BAHRU Singapore,330057,1.3233697,103.86881
CHOONG'S CLINIC,BLK 21 OLD AIRPORT RD Singapore,390021,1.3075351,103.8844799
CHOONG'S CLINIC,BLK 480 TAMPINES ST 44 Singapore,520480,1.3618601,103.953705
CHOU DISPENSARY,733 HAVELOCK RD Singapore,169651,1.2894968,103.8277262
CHUA CHU KANG CLINIC,BLK 347 BT BATOK ST 34 Singapore,650347,1.3621922,103.7512281
CHUA CLINIC,8 WHAMPOA DR Singapore,327718,1.3225752,103.8529865
K K TAN MEDICAL CLINIC,BLK 284 BISHAN ST 22 Singapore,570284,1.3587919,103.8444058
K L TAY CLINIC & SURGERY,BLK 632 BEDOK RESERVOIR RD Singapore,470632,1.3328523,103.9137015
K N CHIN & ASSOCIATES PTE LTD,NO. 3 TEMASEK BOULEVARD Singapore,038983,1.2957055,103.8597298
K N CHIN & ASSOCIATES PTE LTD,9 BATTERY RD Singapore,049910,1.2852308,103.8524113
K N LAU CLINIC,6 KENSINGTON PARK RD Singapore,557258,1.3648358,103.866122
K P TAN MEDICAL CLINIC,BLK 811 HOUGANG CENTRAL Singapore,530811,1.3718567,103.8937407
K T NG CLINIC,BLK 246 HOUGANG ST 22 Singapore,530246,1.3588823,103.891517
KAI CLINIC,223 EAST COAST RD Singapore,428920,1.3075982,103.9071741
KAMPUNG SENANG (MEDICAL CLINIC),BLK 840 TAMPINES ST 82 Singapore,520840,1.3510826,103.9356533
KANG AN CLINIC PTE LTD,BLK 644 BT BATOK CENTRAL Singapore,650644,1.3486832,103.7517825
KANG CLINIC,1 SELETAR RD Singapore,800001,1.3875841,103.869409
KAO & TAN FAMILY MEDICAL CENTRE & SURGERY,BLK 18 JLN MEMBINA Singapore,164018,1.2854546,103.8267886
KARUNYA COMMUNITY CLINIC,BLK 668 CHANDER RD Singapore,210668,1.307587,103.8513808
KEE CLINIC,BLK 15 HOLLAND DR Singapore,271015,1.3112031,103.7937794
KEE FAMILY CLINIC & SURGERY,BLK 151 SERANGOON NORTH AVE 2 Singapore,550151,1.3695973,103.8742136
KELINIK MAJU,BLK 1 JLN PASAR BARU Singapore,402001,1.31727,103.89751
KEMBANGAN MEDICAL CENTRE,3 COLEMAN ST Singapore,179804,1.291884,103.8500517
KEPPEL MEDICAL GROUP (TELOK BLANGAH CRESCENT BRAN,BLK 9 TELOK BLANGAH CRESCENT Singapore,090009,1.2774308,103.819242
KEPPEL SHIPYARD LIMITED (MEDICAL CLINIC),15 BENOI RD Singapore,629888,1.299996,103.677521
KEPPEL SHIPYARD MEDICAL CENTRE,51 PIONEER SECTOR 1 Singapore,628437,1.3005643,103.6551016
KEPPEL SINGMARINE MEDICAL CLINIC,55 GUL RD Singapore,629353,1.2963503,103.6706502
KHEI CLINIC,BLK 416 ANG MO KIO AVE 10 Singapore,560416,1.3644426,103.855095
KHO CLINIC,BLK 537 BEDOK NORTH ST 3 Singapore,460537,1.3320819,103.9240161
KHOO CLINIC & SURGERY,998 UPPER SERANGOON RD Singapore,534737,1.362352,103.887738
KHOO FAMILY CLINIC & SURGERY,2 BEACH RD Singapore,190002,1.3039272,103.8650614
KHOO MEDICAL CLINIC & SURGERY,BLK 143 TECK WHYE LANE Singapore,680143,1.380557,103.753062
KHOR CLINIC & SURGERY,BLK 424 BT BATOK WEST AVE 2 Singapore,650424,1.3618036,103.7455933
KIAN ANN CLINIC & SURGERY,BLK 501 WEST COAST DR Singapore,120501,1.3113986,103.7589225
KILLINEY AESTHETIC CLINIC,61 KILLINEY RD Singapore,239522,1.2989327,103.8395406
KIM SENG COMMUNITY CLINIC,570 HAVELOCK RD Singapore,169640,1.2896736,103.8307737
KIM TIAN CLINIC,BLK 71 SENG POH RD Singapore,160071,1.2843342,103.8327324
KIM'S CLINIC,20 FOCH RD Singapore,209261,1.3121436,103.8599392
KIN MUN CLINIC,BLK 66 TOA PAYOH LOR 4 Singapore,310066,1.3350292,103.8517446
KING GEORGE'S MEDICAL CENTRE,BLK 803 KING GEORGE'S AVE Singapore,200803,1.3080621,103.8606415
KING GEORGE'S MEDICAL CENTRE,BLK 916 HOUGANG AVE 9 Singapore,530916,1.3749471,103.8843361
KINGS MEDICAL CLINIC,59A SERANGOON GARDEN WAY Singapore,555955,1.3637729,103.865675
KIRIN CLINIC & SURGERY,BLK 5 EUNOS CRESCENT Singapore,400005,1.32128,103.903556
KLINIK BURHANI,BLK 136 BEDOK NORTH AVE 3 Singapore,460136,1.3281793,103.9352001
KLINIK LEONG,101 KITCHENER RD Singapore,208511,1.3086828,103.8581303
KLINIK LI LING,BLK 6A WOODLANDS CENTRE RD Singapore,731006,1.4428699,103.770284
KLINIK OMAR,BLK 56 NEW UPPER CHANGI RD Singapore,461056,1.3253215,103.9411197
KO FAMILY CLINIC,BLK 18 UPPER BOON KENG RD Singapore,380018,1.3150764,103.8723988
KOH CLINIC & SURGERY,BLK 166 BT BATOK WEST AVE 8 Singapore,650166,1.3472941,103.7429005
KOH CLINIC & SURGERY PTE LTD,BLK 801 TAMPINES AVE 4 Singapore,520801,1.3471997,103.9380066
KOH'S CLINIC,BLK 8 TOA PAYOH  LOR 7 Singapore,310008,1.337929,103.8567286
KOH'S T & T CLINIC & SURGERY,BLK 237 SERANGOON AVE 3 Singapore,550237,1.3536633,103.869862
KONG CLINIC AND SURGERY,BLK 293 YISHUN ST 22 Singapore,760293,1.4363967,103.8379745
KONG KIAN CLINIC,187 UPPER PAYA LEBAR RD Singapore,534869,1.3401225,103.8850156
KONG LING CLINIC & SURGERY,BLK 82 MACPHERSON LANE Singapore,360082,1.332396,103.885867
KOVAN CLINIC,BLK 210 HOUGANG ST 21 Singapore,530210,1.3589632,103.8875759
KRANJI MEDICAL CLINIC PTE LTD,281 KRANJI RD Singapore,739514,1.437308,103.7554473
L & G MEDICAL CLINIC,BLK 625 ELIAS RD Singapore,510625,1.3786144,103.9420438
L & H POLYCLINIC AND SURGERY,BLK 59 LENGKOK BAHRU Singapore,150059,1.2888505,103.8143356
L & L FAMILY MEDICINE CLINIC,6 SIN MING RD Singapore,575585,1.352907,103.8362536
LAI CLINIC,1 PARK RD Singapore,059108,1.2841977,103.8425488
LAI MEDICAL CLINIC PTE LTD,BLK 213 BT BATOK ST 21 Singapore,650213,1.3468062,103.7524981
LAM CLINIC,BLK 67 KALLANG BAHRU Singapore,330067,1.3217528,103.8691372
LAN MEDICAL CLINIC & SURGERY,BLK 308 CLEMENTI AVE 4 Singapore,120308,1.3210521,103.7668438
LAU CLINIC & SURGERY,328 TANJONG KATONG RD Singapore,437105,1.3042209,103.8963772
LAVENDER  MEDICAL CLINIC & SURGERY PTE LTD,BLK 808 FRENCH RD Singapore,200808,1.3086649,103.8615725
LEE & TAN FAMILY CLINIC AND SURGERY,BLK 72 CIRCUIT RD Singapore,370072,1.3246458,103.8878925
LEE AND KOH FAMILY CLINIC,BLK 359 BUKIT BATOK ST 31 Singapore,650359,1.3613129,103.7512281
LEE CLINIC,2 ST GEORGE'S RD Singapore,328023,1.3234736,103.8607352
LEE CLINIC,467C JOO CHIAT RD Singapore,427678,1.3065971,103.9046677
LEE CLINIC,BLK 259 BUKIT PANJANG RING RD Singapore,671259,1.3773085,103.7730453
LEE CLINIC,BLK 325 CLEMENTI AVE 5 Singapore,120325,1.315087,103.7667985
LEE CLINIC & SURGERY,BLK 325 WOODLANDS ST 32 Singapore,730325,1.4308119,103.7794734
LEE CLINIC AND SURGERY,BLK 505 ANG MO KIO AVE 8 Singapore,560505,1.3748745,103.8502032
LEE DISPENSARY,BLK 36 CHAI CHEE AVE Singapore,461036,1.3252727,103.9253656
LEE FAMILY CLINIC & SURGERY,BLK 201D TAMPINES ST 21 Singapore,524201,1.3525869,103.9537831
LEONG CLINIC,BLK 63B LENGKOK BAHRU Singapore,151063,1.2895016,103.8156035
LEONG CLINIC & SURGERY,BLK 65 TELOK BLANGAH DR Singapore,100065,1.2741756,103.8104415
LER CLINIC & SURGERY,BLK 835 TAMPINES ST 83 Singapore,520835,1.351148,103.9338631
LEW CLINIC,BLK 311 HOUGANG AVE 5 Singapore,530311,1.365683,103.8948305
LIAN CLINIC,BLK 18 MARSILING LANE Singapore,730018,1.443392,103.7778664
LIANG CLINIC,695D EAST COAST RD Singapore,459059,1.311988,103.9220235
LIEW CLINIC,BLK 5000G MARINE PARADE RD Singapore,449290,1.310052,103.932002
LIEW CLINIC & SURGERY,BLK 116 BT MERAH VIEW Singapore,151116,1.2851531,103.821393
LIFE CARE CLINIC,BLK 258 BUKIT PANJANG RING RD Singapore,670258,1.3778944,103.7731358
LIFECARE FAMILY CLINIC & SURGERY,BLK 102 YISHUN AVE 5 Singapore,760102,1.4310962,103.8288264
LIFECARE FAMILY CLINIC & SURGERY,BLK 106 HOUGANG AVE 1 Singapore,530106,1.35398,103.8908827
LIFECARE MEDICAL CENTRE,BLK 36 CIRCUIT RD Singapore,370036,1.329042,103.8868958
LIFELINE BISHAN MEDICAL CLINIC,BLK 501 BISHAN ST 11 Singapore,570501,1.348388,103.849097
LIFELINE LOYANG POINT MEDICAL CLINIC,258 PASIR RIS ST 21 Singapore,510258,1.3667277,103.9645679
LIFELINE MEDICAL CENTRE,BLK 710 CLEMENTI WEST ST 2 Singapore,120710,1.3059018,103.7614753
PIER MEDICAL CENTRE,BLK 725 JURONG WEST AVE 5 Singapore,640725,1.3455083,103.6978341
CHUA CLINIC,BLK 678 HOUGANG AVE 8 Singapore,530678,1.3707891,103.8844493
CHUA CLINIC & SURGERY,BLK 769 YISHUN AVE 3 Singapore,760769,1.4247591,103.8332645
CHUA MEDICAL CENTRE,BLK 248 SIMEI ST 3 Singapore,520248,1.344085,103.953308
CHUAH & LIM CLINIC & SURGERY,BLK 57 NEW UPPER CHANGI RD Singapore,461057,1.3241216,103.9416303
CHUAH CLINIC & SURGERY PTE LTD,BLK 113 ALJUNIED AVE 2 Singapore,380113,1.320518,103.8862212
CHUNG HWA CLINIC,BLK 215 YISHUN ST 21 Singapore,760215,1.4317299000000001,103.8356351
CHUNGKIAW CLINIC PTE LTD,118 UPPER BUKIT TIMAH RD Singapore,588173,1.3409604,103.7763447
CITILIFE FAMILY CLINIC,BLK 215 JURONG EAST ST 21 Singapore,600215,1.3400679,103.7384653
CITY CLINIC,25A PERAK RD Singapore,208136,1.3055001,103.8541251
CITYMED HEALTH ASSOCIATES PTE LTD,19 KEPPEL RD Singapore,089058,1.2729624,103.8423879
CLIFFORD DISPENSARY JURONG,BLK 188 BOON LAY DRIVE Singapore,640188,1.343968,103.7109545
CLIFFORD FAMILY CLINIC,BLK 531 ANG MO KIO AVE 10 Singapore,560531,1.3733106,103.8544609
CLINIC 10,19 TANGLIN RD Singapore,247909,1.3062265,103.8266074
CLINIC 10,BLK 644 PASIR RIS DR 10 Singapore,510644,1.3780918,103.9375568
CLINIC FARIDAH,BLK 59 NEW UPPER CHANGI ROAD Singapore,461059,1.324054,103.9406335
CLINICAL ASSOCIATES MEDICAL CENTRE,BLK 137 TECK WHYE LANE Singapore,680137,1.380068,103.7525859
CODE 4 MEDICAL SERVICE,461 SIMS AVENUE Singapore,387541,1.3160145,103.8870089
COMFORT CLINIC & SURGERY,BLK 214 SERANGOON AVE 4 Singapore,550214,1.3570751,103.8735761
COMMUNITY MEDICAL CLINIC,BLK 188 BOON LAY DR Singapore,640188,1.343968,103.7109545
COMPASSVALE 205A MEDICAL CLINIC,BLK 205A COMPASSVALE LANE Singapore,541205,1.3858607,103.8972032
COMPASSVALE 297A MEDICAL CLINIC,BLK 297A COMPASSVALE ST Singapore,541297,1.395093,103.9004881
COMWELL MEDICAL CLINIC,BLK 9 HOUGANG AVE 7 Singapore,530009,1.3633634,103.8954101
CORPORATE MEDICAL CENTER,190 MIDDLE RD Singapore,188979,1.3005243,103.8521508
CORPORATION CLINIC,BLK 253 CHOA CHU KANG AVE 1 Singapore,680253,1.3774405,103.744394
CORPORATION CLINIC,BLK 218 BOON LAY AVE Singapore,640218,1.3506331,103.7112275
CORPORATION CLINIC,BLK 507 JURONG WEST ST 52 Singapore,640507,1.3492,103.7183764
COUNTRYSIDE CLINIC & SURGERY,BLK 106 YISHUN RING RD Singapore,760106,1.431463,103.8271757
CRESCENT CLINIC & DENTAL SURGERY,BLK 1A EUNOS CRESCENT Singapore,401001,1.3213431,103.9027526
CREST FAMILY CLINIC & DENTAL SURGERY,BLK 724 WOODLANDS AVE 6 Singapore,730724,1.4444802,103.7986441
CUSTODIA MEDICAL CLINIC,BLK 291 YISHUN ST 22 Singapore,760291,1.4359652999999999,103.8365253
DAILY MEDICAL CENTRE,BLK 159 HOUGANG ST 11 Singapore,530159,1.3514844,103.8793753
DAYSPRING MEDICAL CLINIC,30 HAIG RD Singapore,438737,1.3132204,103.8957956
DAYSPRING MEDICAL CLINIC (PASIR RIS),1 PASIR RIS CENTRAL ST 3 Singapore,518457,1.3724166,103.9496584
DIANA CHAN CLINIC & SURGERY,BLK 826 TAMPINES ST 81 Singapore,520826,1.3493374,103.9336591
DIANA'S FAMILY CLINIC,"BLK 94 TOA PAYOH, LOR 4 Singapore",310094,1.3382603,103.8500369
DOCTOR JAY MEDICAL CENTRE,115 KILLINEY RD Singapore,239553,1.2979779,103.8387005
DOCTOR'S CLINIC,BLK 810 HOUGANG CENTRAL Singapore,530810,1.3715423,103.8933293
DOCTORS CLINIC & SURGERY,BLK 305 WOODLANDS ST 31 Singapore,730305,1.4303678,103.7740864
"DOCTORS KOO, LOH & FOK (PTE) LTD",14 TECHPARK CRESCENT Singapore,638118,1.310726,103.630198
"DOCTOR'S OFFICE, CARLTON HOTEL",76 BRAS BASAH RD Singapore,189558,1.2959543,103.8528188
DOVER CLINIC & SURGERY / DOVER DISPENSARY,BLK 35 DOVER RD Singapore,130035,1.299189,103.7833667
DOVER MEDICAL CENTRE,69 AYER RAJAH CRESCENT Singapore,139961,1.296167,103.787009
DR B C NG LASER SURGERY,133 NEW BRIDGE RD Singapore,059413,1.2852093,103.8447228
DR CHAN PENG MUN CLINIC & SURGERY,5 KOEK RD Singapore,228796,1.3013399,103.8407241
DR CLYDE LANE CLINIC,1 TANGLIN RD Singapore,247905,1.3066594,103.8276943
DR GOH SENG HENG MEDICAL & AESTHETIC CENTRE,277 ORCHARD RD Singapore,238858,1.3011442,103.8394612
DR LIM LEAN HUAT & ASSOCIATES PTE. LTD.,30 ROBINSON RD Singapore,048546,1.2816976,103.8504719
DR MAURICE CHEW CLINIC & SURGERY,144 UPPER BUKIT TIMAH RD Singapore,588177,1.3423741,103.7762593
DR RICHARD CHOO & PARTNERS PTE LTD,541 ORCHARD RD Singapore,238881,1.3051935,103.8305934
DR SEN & ASSOCIATES,6 SHENTON WAY Singapore,068809,1.2782034,103.8490529
DR SOH FAMILY CLINIC,BLK 966 JURONG WEST ST 93 Singapore,640966,1.3417196,103.6929457
DR STEVEN ANG CLINIC & SURGERY,BLK 71 REDHILL RD Singapore,150071,1.2875127,103.8173399
DR W K KOO & ASSOCIATES P L,NA BOON LAY MRT STATION Singapore,649846,1.3385559,103.7058277
DR WANG'S CLINIC PTE LTD,1 SOPHIA RD Singapore,228149,1.3012709,103.84943320000001
DR. W. K. KOO & ASSOCIATES (BUKIT PANJANG) P.L.,1 JELEBU RD Singapore,677743,1.3799623,103.7643089
DRS CHAN LEE THNG & PARTNERS (CLIFFORD DISPENSARY,350 ORCHARD RD Singapore,238868,1.3059065,103.8314983
"DRS CHAN, LEE, THNG & PARTNERS (CLIFFORD DISPENSA",77 ROBINSON RD Singapore,068896,1.2777689,103.8483915
DRS CHUA & PARTNERS PTE LTD,1 NA Singapore,082001,1.279232,103.8514473
DRS CHUA CHOW & PARTNERS PTE. LTD.,BLK 529 ANG MO KIO AVE 10 Singapore,560529,1.3727932,103.8558016
DRS FERNANDEZ & PARTNERS,9 PENANG RD Singapore,238459,1.2978935,103.845221
DRS HORNE & CHIN PTE LTD,9 RAFFLES PLACE Singapore,048619,1.2832744,103.8508826
DRS HORNE & CHIN PTE LTD,1 SCOTTS RD Singapore,228208,1.3061971000000001,103.8318606
ISLAND GROUP CLINIC,100 ORCHARD RD Singapore,238840,1.3007391,103.8423779
ISLAND GROUP CLINIC BEDOK,BLK 25 NEW UPPER CHANGI RD Singapore,462025,1.323454,103.9334499
J & L MEDICAL CLINIC,BLK 418 BEDOK NORTH AVE 2 Singapore,460418,1.3283185,103.9300788
J J CLINIC & SURGERY,BLK 251 ANG MO KIO AVE 4 Singapore,560251,1.3696964,103.8337174
J T MEDICAL CENTRE,BLK 844 TAMPINES ST 82 Singapore,520844,1.3519563000000001,103.9364691
JAMIYAH MEDICAL CLINIC,"31 LORONG 12, GEYLANG, LEVEL 4 Singapore",399006,1.3103011,103.8786188
JAPAN CLINIC AND SURGERY,BLK 802 FRENCH RD Singapore,200802,1.3074649,103.8600775
JAS MEDICAL SCREENING CENTRE PTE LTD,6001 BEACH RD Singapore,199589,1.3019921,103.8642024
JAS MEDICAL SCREENING CENTRE PTE LTD,67 LOR 27 GEYLANG Singapore,388189,1.316111,103.8837249
JIREH FAMILY CLINIC,BLK 883 WOODLANDS ST 82 Singapore,730883,1.4427059,103.7906912
JIREH MEDICAL CLINIC,BLK 30 TOA PAYOH LOR 5 Singapore,310030,1.3335455,103.8545514
JIREH MEDICAL CLINIC (PASIR RIS),BLK 750 PASIR RIS ST 71 Singapore,510750,1.3782003,103.9347242
RAFFLES MEDICAL GROUP,BLK 202 BEDOK NORTH ST 1 Singapore,460202,1.3256603,103.9279488
RAFFLES MEDICAL GROUP,10 COLEMAN ST Singapore,179809,1.2924547,103.8501126
RAFFLES MEDICAL GROUP,NA WOODLANDS AVE 3 Singapore,739044,1.4416895,103.7900977
RAFFLES MEDICAL GROUP,BLK 131 JURONG EAST ST 13 Singapore,600131,1.3345467,103.7401344
RAFFLES MEDICAL GROUP,370 ALEXANDRA ROAD Singapore,159953,1.2887553,103.8050985
RAFFLES MEDICAL GROUP,BLK 809 HOUGANG CENTRAL Singapore,530809,1.3712555,103.893633
RAFFLES MEDICAL GROUP,259 JLN AHMAD IBRAHIM Singapore,629148,1.3220472,103.6813088
RAFFLES MEDICAL GROUP,620A LOR 1 TOA PAYOH Singapore,319762,1.336153,103.8420639
RAFFLES MEDICAL GROUP,NO 35 ROBINSON RD Singapore,068876,1.2799728,103.8497276
RAFFLES MEDICAL GROUP,No. 1 WOODLANDS SQUARE Singapore,738099,1.4360933,103.7859471
RAFFLES MEDICAL GROUP,BLK 177 TOA PAYOH CENTRAL Singapore,310177,1.3338853,103.8487182
RAFFLES MEDICAL GROUP,3 TEMASEK BOULEVARD Singapore,038983,1.2957055,103.8597298
RAFFLES MEDICAL GROUP,BLK 445 CLEMENTI AVE 3 Singapore,120445,1.3121599,103.7646372
RAFFLES MEDICAL GROUP,NA SINGAPORE CHANGI AIRPORT Singapore,819646,1.3644202,103.9915308
RAFFLES MEDICAL GROUP,55 SIGLAP RD Singapore,455871,1.3125941,103.9231451
RAFFLES MEDICAL GROUP,115 AIRPORT CARGO RD Singapore,819466,1.3744182,103.9958061
RAFFLES MEDICAL GROUP,51 ANSON RD Singapore,079904,1.2745484,103.8458325
RAFFLES MEDICAL GROUP (RAFFLES DENTICARE),12 TAMPINES CENTRAL 1 Singapore,529537,1.354312,103.945301
RAFFLES MEDICAL GROUP RAFFLES DENTICARE,9 RAFFLES BOULEVARD Singapore,039596,1.2920715,103.859851
RAFFLES MEDICAL GROUP RAFFLES DENTICARE,1 RAFFLES PLACE Singapore,048616,1.2843580000000001,103.8510616
RAINBOW CLINIC & DENTAL SURGERY,BLK 376 BT BATOK WEST  ST 31 Singapore,650376,1.358394,103.749499
RAKYAT CLINIC,573 BALESTIER RD Singapore,329888,1.3264836,103.84412
RAKYAT CLINIC,BLK 282 BISHAN ST 22 Singapore,570282,1.3579846,103.8446775
RAPHA MEDICAL CENTRE,BLK 88 CIRCUIT RD Singapore,370088,1.3235389,103.8858657
RAYMAN DISPENSARY,2 WHAMPOA DRIVE Singapore,327713,1.3225025,103.8529615
REGENT CLINIC,301 UPPER THOMSON RD Singapore,574408,1.3548791,103.8308643
REGIONAL PATIENTCARE MEDICAL GROUP PTE LTD (ADMIR,70 WOODLANDS AVE 7 Singapore,738344,1.4405962,103.8009702
REGIONAL PATIENTCARE MEDICAL GROUP PTE LTD (ADMIR,BLK 678 WOODLANDS AVE 6 Singapore,730678,1.4399252,103.8013857
REGIONAL PATIENTCARE MEDICAL GROUP PTE LTD (YISHU,BLK 932 YISHUN CENTRAL 1 Singapore,760932,1.426375,103.836995
REGIONAL PATIENTCARE MEDICAL GROUP PTE LTD (YISHU,BLK 414 YISHUN RING RD Singapore,760414,1.4247207,103.8467951
REN MEDICAL GROUP - YISHUN CLINIC,BLK 101 YISHUN AVE 5 Singapore,760101,1.4312508,103.8275584
RESERVOIR ROAD CLINIC & SURGERY,BLK 704 BEDOK RESERVOIR RD Singapore,470704,1.3366434,103.9204951
RIDGEWOOD MEDICAL CLINIC,5 RIDGEWOOD CLOSE Singapore,276696,1.3165552,103.7790207
RISING SUN MEDICAL CENTRE,111 NORTH BRIDGE RD Singapore,179098,1.2923407,103.8508826
RIVER CLINIC,405 RIVER VALLEY RD Singapore,248303,1.2953314,103.830016
RIVER OF LIFE FAMILY CLINIC,12 WOODLANDS RD Singapore,677907,1.3805858,103.7612665
ROCHOR CENTRE CLINIC,1 ROCHOR RD Singapore,180001,1.3025558,103.8548721
ROWELL CLINIC & SURGERY,642 ROWELL RD Singapore,200642,1.307542,103.856473
ROYAL HEALTH CLINIC & SURGERY,833 BT TIMAH RD Singapore,279887,1.3317128,103.793967
ROYAL MEDICAL CENTRE,BLK 111 WOODLANDS ST 13 Singapore,730111,1.4379153,103.7820991
ROY'S FAMILY CLINIC & SURGERY,BLK 846 YISHUN RING RD Singapore,760846,1.4174261,103.8350306
LONDON (MH) CLINIC & SURGERY,BLK 104 HOUGANG AVE 1 Singapore,530104,1.354793,103.890305
LOOI SURGERY PTE LTD,BLK 102 TOWNER RD Singapore,322102,1.3206918,103.8620709
LOOK CLINIC,BLK 57 MARINE TERRACE Singapore,440057,1.3064945,103.9154413
LOONG CLINIC,1 ORCHARD BOULEVARD Singapore,248649,1.3033039,103.8239218
LOW & LEE CLINIC & SURGERY,BLK 55 CHAI CHEE DR Singapore,460055,1.3271729,103.9193384
LOW MEDICAL CLINIC AND DENTAL SURGERY,BLK 555 ANG MO KIO AVE 10 Singapore,560555,1.3708774,103.857088
LOYANG MEDICAL CENTRE,BOX 5142 LOYANG CRESCENT Singapore,508988,1.3798949,103.9735206
LUA CLINIC & SURGERY,BLK 350 UBI AVE 1 Singapore,400350,1.3258861,103.9013037
LUI CLINIC,149 ROCHOR RD Singapore,188425,1.3013888,103.8545062
RUBY MEDICAL CENTRE,35 TANNERY RD  ( TANNERY BLOCK ) Singapore,347740,1.3261079,103.8749419
RUBY MEDICAL CENTRE,BLK 505 TAMPINES CENTRAL 1 Singapore,520505,1.3554923,103.9451712
S & L FAMILY CLINIC,BLK 235 YISHUN ST 21 Singapore,760235,1.4345403,103.8385407
S & L FAMILY CLINIC,BLK 729 YISHUN ST 71 Singapore,760729,1.4259435,103.8315436
S G CLINIC FAMILY PRACTICE,84 SERANGOON GARDEN WAY Singapore,555980,1.3642625,103.8648819
S K TAY CLINIC & SURGERY,BLK 827 TAMPINES ST 81 Singapore,520827,1.3497029,103.9337498
S LEE CLINIC,BLK 644 HOUGANG AVE 8 Singapore,530644,1.3713988,103.8814585
S S TAN MEDICAL CLINIC,BLK 744 YISHUN ST 72 Singapore,760744,1.4293763,103.8340797
S T MEDICAL CENTRE,BLK 95 ALJUNIED CRESCENT Singapore,380095,1.3213403,103.8863806
S W MEDICAL CENTRE,BLK 160 YISHUN ST 11 Singapore,760160,1.4325476,103.8332133
S Y NG CLINIC,BLK 226A ANG MO KIO AVE 1 Singapore,561226,1.3674839,103.8393106
SAM KIANG HUAY KWAN CHARITY CLINIC,NO. 41 WILKIE RD Singapore,228055,1.3020774,103.8484534
SASCO CLINIC,8 CHANGI NORTH WAY Singapore,499611,1.3506069,103.972323
SATA CHINATOWN CLINIC,17 KRETA AYER RD Singapore,088989,1.2804033,103.8424053
SATA UTTAMRAM CLINIC,351 CHAI CHEE ST Singapore,468982,1.3278194,103.921423
SATA WOODLANDS CLINIC,900 SOUTH WOODLANDS DR Singapore,730900,1.4351289,103.786873
SATHYA SAI BABA (GENERAL AND SPECIALIST) CLINIC,133 MOULMEIN RD Singapore,308083,1.3189273,103.848565
SATS CLINIC,20 AIRPORT BOULEVARD Singapore,819659,1.341672,103.9838581
SEACARE MARITIME MEDICAL CENTRE,165 TANJONG PAGAR RD Singapore,088539,1.2750316,103.8435506
SEAGATE WELLNESS CENTRE,7000 ANG MO KIO AVE 5 Singapore,569877,1.377628,103.8727152
SEAH CLINIC,BLK 8 HOUGANG AVE 3 Singapore,530008,1.362155,103.89315
SEAH SKIN & MEDICAL CLINIC,BLK 503 BISHAN ST 11 Singapore,570503,1.3489574,103.8480291
SEFTON MEDICAL CENTRE PTE LTD,43 JALAN MERAH SAGA Singapore,278115,1.311206,103.7965185
SEGAR EAST COAST MEDICAL CENTRE,163 EAST COAST RD Singapore,428855,1.3066803,103.905875
SEGAR GEYLANG MEDICAL CENTRE,212 GEYLANG RD Singapore,389272,1.3120096,103.8767729
SELEGIE COMPLEX CLINIC,257 SELEGIE RD Singapore,188350,1.3040291,103.8499541
SELEGIE MEDICAL CENTRE,189 SELEGIE RD Singapore,188332,1.304578,103.84949
SEMBAWANG SHIPYARD MEDICAL CENTRE,NA ADMIRALTY RD EAST Singapore,759956,1.3445928,103.735187
SENGKANG MEDICAL CENTRE,5 SENGKANG SQUARE Singapore,545062,1.3914922,103.8960025
SERANGOON GARDEN CLINIC & DISPENSARY,BLK 263 SERANGOON CENTRAL DRIVE Singapore,550263,1.3537489,103.8719687
SERANGOON SAI CLINIC PTE LTD,48 SERANGOON RD Singapore,217959,1.3056841,103.851562
SERAYA MEDICAL CENTRE,"61 SERAYA AVE, JURONG ISLAND Singapore",627879,1.2717025,103.7262009
SHALOM CLINIC & SURGERY,123 BT MERAH LANE 1 Singapore,150123,1.2867152,103.8037402
SHALOM MEDICAL DENTAL GROUP PTE LTD,BLK 231 BAIN STREET Singapore,180231,1.2968471,103.8535281
SHANGRI-LA MEDICAL CLINIC,22 ORANGE GROVE RD Singapore,258350,1.3112751,103.8265168
SHEFFIELD CLINIC & SURGERY,BLK 69 TOA PAYOH LOR 4 Singapore,310069,1.3342033,103.8527218
SHENG CLINIC,18 JLN PARI BURONG Singapore,488684,1.3336087,103.9484119
SHENTON CLINIC,BLK 498 JURONG WEST ST 41 Singapore,640498,1.348725,103.7245304
SHENTON FAMILY MEDICAL CLINIC (BEDOK),BLK 744 BEDOK RESERVOIR RD Singapore,470744,1.337769,103.9217855
SHENTON FAMILY MEDICAL CLINIC (BT GOMBAK),BLK 372 BUKIT BATOK ST 31 Singapore,650372,1.359015,103.751101
SHENTON FAMILY MEDICAL CLINIC (HOUGANG),1189 UPPER SERANGOON RD Singapore,534785,1.3703965,103.8950963
SHENTON FAMILY MEDICAL CLINIC (JURONG EAST),NA JURONG EAST ST 12 Singapore,609690,1.3445928,103.735187
SHENTON FAMILY MEDICAL CLINIC (SERANGOON),BLK 304 SERANGOON AVE 2 Singapore,550304,1.3538957,103.8676876
SHENTON MEDICAL GROUP,10 ANSON RD Singapore,079903,1.2756998,103.8458098
DRS KOO & CHOO MEDICAL CLINIC PTE LTD,10 BUKIT BATOK CENTRAL Singapore,659958,1.3490579,103.7496251
DRS KOO & NEOH MEDICAL GROUP,27 WOODLANDS SECTOR 1 Singapore,738252,1.454745,103.80461
DRS KOO & NEOH MEDICAL GROUP,960 WOODLANDS RD Singapore,738702,1.425249,103.762
DRS KOO & NEOH MEDICAL GROUP,29 WOODLANDS IND. PARK E1 Singapore,757716,1.45535,103.799804
DRS KOO LOH & ASSOCIATES (PTE) LTD,BLK 152 YUNG HO RD Singapore,610152,1.3274286,103.7202737
"DRS KOO, FOK & ASSOCIATES P L",4 KIAN TECK AVE Singapore,628909,1.3287347,103.6938947
"DRS KOO, HAN & ASSOCIATES  (PTE) LTD",6 INTERNATIONAL BUSINESS PARK Singapore,609918,1.3271648,103.7474715
"DRS KOO, KOH & ASSOCIATES PTE LTD",BLK 163 BUKIT MERAH CENTRAL Singapore,150163,1.2837537,103.8170072
"DRS KOO, NEOH & ASSOCIATES",51 CHANGI BUSINESS PARK CENTRAL 2 Singapore,486066,1.3347003,103.9652515
"DRS KOO, NEOH & ASSOCIATES",BLK 750A CHAI CHEE RD Singapore,469001,1.3230967,103.9221028
"DRS KOO, NEOH & ASSOCIATES",BLK 3 CHANGI SOUTH AVE 4 Singapore,486116,1.3348978,103.9706421
DRS LEE & PARTNERS PTE LTD,11 COLLYER QUAY Singapore,049317,1.2835225,103.8522867
DRS LIM AND CHAN CLINIC,BLK 2 LOR LEW LIAN Singapore,531002,1.3504814,103.8755699
"DRS OH, LIM, WONG & PARTNERS",BLK 959 JURONG WEST ST 92 Singapore,640959,1.3415122,103.6907742
DRS ONG MEDICAL CLINIC,BLK 463 JURONG WEST ST 41 Singapore,640463,1.3506377,103.723173
"DRS SINGH & PARTNERS, RAFFLES CITY MEDICAL CENTRE",250 NORTH BRIDGE RD Singapore,179101,1.2937868,103.8527761
DRS TANG & PARTNERS PTE LTD,"BLK 64 YUNG KUANG RD, JURONG TOWN Singapore",610064,1.3325196,103.7226034
DRS THOMPSON & THOMSON PTE LTD,60 MARTIN RD Singapore,239065,1.2921356,103.8373401
DRS THOMPSON & THOMSON PTE LTD,24 RAFFLES PLACE Singapore,048621,1.2838533,103.8519697
DRS THOMPSON & THOMSON PTE LTD,2 SHENTON WAY Singapore,068804,1.279759,103.8500817
"DRS TRYTHALL, HOY, DAVIES (PTE) LTD",22 MALACCA ST Singapore,048980,1.2839977,103.8507512
DRS. BAIN + PARTNERS,350 ORCHARD ROAD Singapore,238868,1.3059065,103.8314983
DRS. BAIN + PARTNERS,1 HARBOUR FRONT AVENUE Singapore,098632,1.2648866,103.8182751
"DRS. CHAN, LEE, THNG & PARTNERS (CLIFFORD DISPENS","50 AIRPORT BOULEVARD, Singapore",819658,1.3488013,103.9861255
"DRS. KOO, TEY & ASSOCIATES P. L.",61 CHOA CHU KANG DR Singapore,689715,1.3973666,103.7474715
"DRS. OH, LIM, WONG & PARTNERS",BLK 65 YUNG KUANG RD Singapore,610065,1.332373,103.722887
DSC CLINIC,BLK 31 KELANTAN LANE Singapore,200031,1.306349,103.8568593
DU PONT SINGAPORE FIBRES PTE LTD (MEDICAL CLINIC),39 TUAS CRESCENT Singapore,638726,1.3179468,103.639047
DUNLOP CLINIC & SURGERY,BLK 1 JALAN BUKIT MERAH Singapore,150001,1.2865434,103.8083586
E C NG MEDICAL CENTRE,320 SERANGOON RD Singapore,218108,1.3108903,103.8552353
E J FAMILY CLINIC PTE LTD,BLK 109 TOA PAYOH LOR 1 Singapore,310109,1.3412683,103.8463176
E P WONG SURGERY,302 ORCHARD RD Singapore,238862,1.3040511,103.8348476
E.J. TAN CLINIC & SURGERY,BLK 104 JURONG EAST ST 13 Singapore,600104,1.3366371,103.7376509
EAST COAST FAMILY CLINIC,121 MEYER RD Singapore,437932,1.2972587,103.8945623
EAST COAST MEDICAL CENTRE,BLK 57A NEW UPPER CHANGI RD Singapore,462057,1.3238599,103.9411981
EAST SPRING CLINIC,BLK 328 TAMPINES ST 32 Singapore,520328,1.3535108,103.9584973
EASTERN CLINIC & DENTAL SURGERY,BLK 303 JURONG EAST ST 32 Singapore,600303,1.3447788,103.7356617
EASTERN CLINIC & SURGERY,BLK 318 JURONG EAST ST 31 Singapore,600318,1.3473716,103.7305939
EASTERN CLINIC & SURGERY,BLK 235 JURONG EAST ST 21 Singapore,600235,1.3399734,103.7421764
EASTLIFE MEDICAL CENTRE,500 MACPHERSON RD Singapore,368203,1.3322166,103.8835273
EASTWOOD CLINIC & SURGERY,42 EASTWOOD ROAD Singapore,486398,1.3214248,103.9576714
ECON MEDICARE CENTRE PTE LTD,452 UPPER EAST COAST RD Singapore,466500,1.31432,103.9411826
EE CLINIC,BLK 128 ANG MO KIO AVE 3 Singapore,560128,1.3708105,103.8435905
ELMANIC CLINIC,22 YIO CHU KANG RD Singapore,545535,1.3553744,103.8772068
EMMANUEL MEDICAL CLINIC,BLK 272 TAMPINES ST 22 Singapore,520272,1.3490946,103.950157
ESA CLINIC,51 CALSHOT RD Singapore,509927,1.3747956,103.9813612
ESSENTIAL FAMILY CLINIC AND SURGERY,BLK 626A WOODLANDS DR 52 Singapore,731626,1.4340786,103.8002765
ESTHER YEO CLINIC,BLK 256 JURONG EAST ST 24 Singapore,600256,1.3441045,103.7382863
EUNOS CLINIC,BLK 8 EUNOS CRESCENT Singapore,400008,1.321374,103.9046615
EVANGEL FAMILY CLINIC & SURGERY,BLK 399 YUNG SHENG RD Singapore,610399,1.3345709,103.72059
EVANGEL MEDICAL CLINIC,10 CHAI CHEE RD Singapore,467010,1.3270163,103.9244409
EVE MEDICAL AESTHETICS,92 TANJONG PAGAR RD Singapore,088513,1.278323,103.843781
EVERCARE MEDICAL CLINIC,BLK 475 CHOA CHU KANG AVE 3 Singapore,680475,1.3780266,103.7389881
EVERGREEN FAMILY CLINIC AND SURGERY,BLK 525 ANG MO KIO AVENUE 10 Singapore,560525,1.3726539,103.8540079
EVERHEALTH FAMILY CLINIC & SURGERY,BLK 762 JURONG WEST ST 75 Singapore,640762,1.3489162,103.6976086
EVERHEALTH MEDICAL CENTRE,BLK 540 HOUGANG AVE 8 Singapore,530540,1.3777526,103.8912623
EXCEL FAMILY CLINIC,21 HOUGANG ST 51 Singapore,538719,1.3792668,103.8878925
EXCELSIOR CLINIC AND SURGERY,BLK 283 BT BATOK EAST AVE 3 Singapore,650283,1.3472903,103.7574769
EZYCARE MEDICAL CENTRE,452 ALEXANDRA RD Singapore,119961,1.276777,103.800942
F & N COCA COLA PTE LTD (MEDICAL CLINIC),457 JLN AHMAD IBRAHIM Singapore,639933,1.335062,103.648866
F K LIM FAMILY CLINIC,BLK 267 TAMPINES ST 21 Singapore,520267,1.350784,103.9491598
F P WONG CLINIC PTE LTD,34 CRAIG RD Singapore,089673,1.2786888,103.8418711
FAITH CLINIC,BLK 168 TOA PAYOH LOR 1 Singapore,310168,1.3319248,103.8434952
FAITH CLINIC (ANG MO KIO),BLK 163 ANG MO KIO AVE 4 Singapore,560163,1.3743,103.83767280000001
FAITH CLINIC (SIMEI),BLK 139 SIMEI ST 1 Singapore,520139,1.3469355,103.9564122
FAITH CLINIC (TOA PAYOH),"BLK 211 TOA PAYOH, LORONG 8 Singapore",310211,1.340419,103.8537637
FAITH MEDICAL CLINIC & SURGERY,BLK 487C TAMPINES ST 45 Singapore,522487,1.3608247,103.9578487
FAMICARE BEDOK CLINIC,BLK 158 BEDOK SOUTH AVE 3 Singapore,460158,1.318767,103.9450805
FAMILY CARE CLINIC & SURGERY,BLK 608 ANG MO KIO AVE 5 Singapore,560608,1.3786898,103.8369782
FAMILY CARE CLINIC PTE LTD,BLK 415 BT BATOK WEST AVE 4 Singapore,650415,1.3631707,103.7467927
FAMILY CLINIC,BLK 103 YISHUN RING RD Singapore,760103,1.4319016,103.8289483
FAMILY CLINIC & SURGERY,BLK 530 BEDOK NORTH ST 3 Singapore,460530,1.3337144,103.9269518
FAMILY HEALTH CLINIC,BLK 43 HOLLAND DR Singapore,270043,1.3071086,103.7932361
FAMILY HEALTH CLINIC & SURGERY,BLK 2 BALESTIER RD Singapore,320002,1.3258546,103.8428618
FAMILY HEALTH MEDICAL CENTRE,BLK 226G ANG MO KIO AVE 1 Singapore,567226,1.366851,103.839876
FAMILY HEALTHCARE CLINIC & SURGERY PTE LTD,BLK 523 HOUGANG AVE 6 Singapore,530523,1.373794,103.8903844
FAMILY LIFE CLINIC,BLK 727 CLEMENTI  WEST ST 2 Singapore,120727,1.3041998,103.763811
FAMILY MEDICAL CLINIC PTE LTD,BLK 280 BT BATOK EAST AVE 3 Singapore,650280,1.3478798,103.7568434
FAMILY MEDICARE CLINIC & SURGERY,BLK 721 ANG MO KIO AVE 8 Singapore,560721,1.3723967,103.8479386
FAMILY MEDICINE CLINIC,BLK 58 MARINE TERRACE Singapore,440058,1.3058461,103.9137193
FAMILYCARE CLINIC & SURGERY,BLK 85C TOA PAYOH LOR 4 Singapore,313085,1.3363688,103.8474016
FAR EAST MEDICAL PRACTITIONERS,545 ORCHARD RD Singapore,238882,1.305512,103.8300944
FIRST CARE FAMILY CLINIC AND SURGERY PTE  LTD,BLK 253 JURONG EAST ST 24 Singapore,600253,1.3434465,103.736648
FIRST CLINIC,BLK 22 HAVELOCK RD Singapore,160022,1.288844,103.8287358
FIRST MEDICAL CENTRE,BLK 169 STIRLING RD Singapore,140169,1.2904595,103.8031098
FIRST MEDICAL CENTRE (YISHUN),BLK 110 YISHUN RING RD Singapore,760110,1.4336617,103.8292793
FIRST MEDICAL CLINIC & SURGERY,BLK 167 WOODLANDS ST 11 Singapore,730167,1.4335491,103.7759424
FITRAH MEDICARE CENTRE,BLK 217 BEDOK NORTH ST 1 Singapore,460217,1.3268697,103.9339311
FLINDERS PRACTICE PTE LTD,19 KEPPEL ROAD Singapore,089058,1.2729624,103.8423879
FOCUS MEDICAL GROUP,BLK 226C ANG MO KIO AVE 1 Singapore,563226,1.367159,103.839302
FONG CLINIC,BLK 162 MEI LING ST Singapore,140162,1.2921875,103.8027214
FOO CLINIC,BLK 962 JURONG WEST ST 91 Singapore,640962,1.3420748,103.6917077
FRANKEL CLINIC,689 EAST COAST RD Singapore,459056,1.3120152,103.9220574
FRASER & NEAVE CLINIC - ALEXANDRA POINT,438 ALEXANDRA RD Singapore,119958,1.2773648,103.8021102
FRASER MEDICAL CENTRE,BLK 78A TELOK BLANGAH ST 32 Singapore,101078,1.273512,103.8090239
FRONTIER MEDICAL ASSOCIATES,BLK 982 BUANGKOK CRESCENT Singapore,530982,1.3808544,103.8792821
FUNAN CLINIC,5 COLEMAN ST Singapore,179805,1.2920098,103.8499319
G H HENG  CLINIC,BLK 133 JLN BUKIT MERAH Singapore,160133,1.2796441,103.8272937
G P MEDICAL CENTRE & SURGERY,35 SELEGIE RD Singapore,188307,1.300661,103.8493367
G S CLINIC & SURGERY PTE LTD,BLK 632 ANG MO KIO AVE 4 Singapore,560632,1.3799826,103.8414166
G.I.F.T MEDICAL CENTRE,389 UPPER ALJUNIED RD Singapore,367874,1.3331428,103.8787445
GALILEE CLINIC,BLK 342 UBI AVE 1 Singapore,400342,1.3265457,103.9011225
GENERAL OUTPATIENT CLINIC,17 ANG MO KIO AVE 9 Singapore,569766,1.3841331,103.8403717
GENTLE MEDICAL CLINIC,BLK 301 SERANGOON AVE 2 Singapore,550301,1.3531794,103.8679185
GETHIN-JONES MEDICAL PRACTICE PTE LTD,260 ORCHARD RD Singapore,238855,1.3027635,103.837358
GETHIN-JONES MEDICAL PRACTICE PTE LTD,460 ALEXANDRA ROAD Singapore,119953,1.2736761,103.8015216
GETHIN-JONES MEDICAL PRACTICE PTE LTD,NA NANYANG AVE Singapore,639798,1.3483099,103.6831347
GETHIN-JONES MEDICAL PRACTICE PTE LTD,78 SHENTON WAY Singapore,079120,1.2731808,103.8453116
GEYLANG BAHRU CLINIC,BLK 16 UPPER BOON KENG RD Singapore,380016,1.3155916,103.8718552
GEYLANG SENIOR CITIZENS' HEALTH CARE CENTRE (SCHC,21 GEYLANG EAST CENTRAL Singapore,389707,1.3195933,103.887168
GEYLANG SERAI CLINIC,138 CHANGI RD Singapore,419722,1.3167936,103.9016016
GHIM MOH CLINIC & SURGERY,BLK 11 GHIM MOH RD Singapore,270011,1.310035,103.789976
GLAXO WELLCOME MANUFACTURING MEDICAL CENTRE,1 PIONEER SECTOR 1 Singapore,628413,1.3090952,103.6599029
GLENEAGLES MARITIME MEDICAL CENTRE PTE LTD,120 CANTONMENT RD Singapore,089760,1.276612,103.840361
GOH CLINIC,1 BROOKE RD Singapore,429979,1.3042198,103.9038411
GOH CLINIC & SURGERY,BLK 684 HOUGANG AVE 8 Singapore,530684,1.3742687,103.8866118
GOH CLINIC & SURGERY,BLK 150 BEDOK RESERVOIR RD Singapore,470150,1.3360666,103.9124505
GOH MEDICAL CLINIC,BLK 136 POTONG PASIR AVE 3 Singapore,350136,1.3340619,103.8666004
GOLDEN MILE CLINIC,BLK 465 NORTH BRIDGE RD Singapore,191465,1.305253,103.8630664
GOLDEN MILE CLINIC,5001 BEACH RD Singapore,199588,1.3027902,103.8653797
GOLDEN SULTAN PLAZA CLINIC & SURGERY,100 JLN SULTAN Singapore,199001,1.3032484,103.8619363
GOODWILL CLINIC,BLK 685 RACE COURSE RD Singapore,210685,1.3139721,103.8567281
GRACE CLINIC,100 EU TONG SEN ST Singapore,059812,1.2818682,103.8407372
GRACE CLINIC & SURGERY,BLK 607 ANG MO KIO AVE 4 Singapore,560607,1.3803646,103.8387898
GRACE POLYCLINIC,134 EAST COAST RD Singapore,428819,1.3061132,103.9053742
GREEN CROSS MEDICAL CENTRE,BLK 824 TAMPINES ST 81 Singapore,520824,1.3490499,103.9327527
GREENLIFE CLINIC & SURGERY PTE LTD,BLK 807 YISHUN RING RD Singapore,760807,1.4167736,103.8315436
GREENLIFE CLINIC AND SURGERY,11 CANBERRA RD Singapore,759775,1.4490229,103.8198723
GREIF SINGAPORE PTE LTD,7 TUAS AVE 3 Singapore,639406,1.320343,103.656902
H S LEE CLINIC & SURGERY,BLK 173 YISHUN AVE 7 Singapore,760173,1.4370075,103.8309346
HAFIZ CLINIC AND SURGERY,BLK 516 CHOA CHU KANG ST 51 Singapore,680516,1.3905346,103.7432625
HAMID FAMILY CLINIC & SURGERY,BLK 156 PASIR RIS ST 13 Singapore,510156,1.3640079,103.9630076
HAN CLINIC & SURGERY,BLK 81 TELOK BLANGAH DR Singapore,100081,1.2730003,103.8074563
HARMONY FAMILY CLINIC,BLK 235 CHOA CHU KANG CENTRAL Singapore,680235,1.37987,103.7488746
HEALTH IMAGE (SINGAPORE) CLINIC,304 ORCHARD RD Singapore,238863,1.3045755,103.8340344
HEALTH PARTNERS FAMILY CLINIC,1 BT BATOK CENTRAL LINK Singapore,658713,1.3500111,103.7492852
HEALTH PARTNERS MEDICAL CLINIC (HOLLAND VILLAGE),273 HOLLAND AVE Singapore,278992,1.3114,103.79564
HEALTH PARTNERSHIP MEDICAL CENTRE,BLK 109 BUKIT PURMEI RD Singapore,090109,1.2739482,103.8252941
HEALTHCARE CLINIC & SURGERY,BLK 212 HOUGANG ST 21 Singapore,530212,1.3594665,103.8882495
HEALTHCARE FAMILY CLINIC & SURGERY,BLK 403 SIN MING AVE Singapore,570403,1.3628453,103.8334355
HEALTHCREST MEDICAL CENTRE,349 BEDOK RD Singapore,469536,1.3314269,103.9472203
HEALTHGAIN CLINIC AND SURGERY,BLK 107 TAMPINES ST 11 Singapore,521107,1.3483749,103.948072
HEALTHJOY FAMILY CLINIC,BLK 573 HOUGANG ST 51 Singapore,530573,1.3773635,103.8876207
HEALTHLINE FAMILY CLINIC & SURGERY (BUKIT BATOK),BLK 151 BUKIT BATOK ST 11 Singapore,650151,1.3487581,103.7442612
HEALTHLINE FAMILY CLINIC AND SURGERY,BLK 25A CHAI CHEE ROAD Singapore,461025,1.3232684,103.9240514
HEALTHLINE FAMILY CLINIC AND SURGERY,BLK 66 KALLANG BAHRU Singapore,330066,1.3206511,103.869862
HEALTH-LINK (AMK) MEDICAL CENTRE,BLK 108 ANG MO KIO AVE 4 Singapore,560108,1.3709152,103.8382463
HEALTHLINK FAMILY CLINIC & SURGERY,BLK 86 REDHILL CLOSE Singapore,150086,1.2869242,103.8188638
HEALTHLINK FAMILY CLINIC & SURGERY,BLK 21 GHIM MOH RD Singapore,270021,1.3106477,103.7884371
HEALTHLINK MEDICAL CLINIC AND SURGERY PTE LTD,BLK 5 UPPER ALJUNIED LANE Singapore,360005,1.3337035,103.879825
HEALTH-PLUS CLINIC,BLK 307 CHOA CHU KANG AVE 4 Singapore,680307,1.3853509,103.742561
HEALTHPOINT FAMILY CLINIC & SURGERY,BLK 48 TANGLIN HALT RD Singapore,142048,1.3008454,103.797825
HEALTHPRO CLINIC AND SURGERY,BLK 820 TAMPINES ST 81 Singapore,520820,1.3479324,103.9361065
HEALTHSPRING FAMILY CLINIC & SURGERY,BLK 347 BUKIT BATOK WEST ST 34 Singapore,650347,1.3625194,103.7513838
HEALTHWAY ALEXANDRA POINT MEDICAL CENTRE,438A ALEXANDRA RD Singapore,119967,1.2777047,103.8008548
HEALTHWAY CLINIC & SURGERY,BLK 534 CHOA CHU KANG ST 51 Singapore,680534,1.3923359,103.7427781
HEALTHWAY FAMILY DOCTOR CLINIC & SURGERY,BLK 40 BEO CRESCENT Singapore,160040,1.2891435,103.8274678
HEALTHWAY HOUGANG POINT CLINIC,1 HOUGANG ST 91 Singapore,538692,1.3758021,103.8794307
HEALTHWAY JURONG WEST CLINIC,BLK 690 JURONG WEST CENTRAL 1 Singapore,640690,1.3413112,103.7067447
HEALTHWAY KAKI BUKIT CLINIC,31 KAKI BUKIT RD 3 Singapore,417818,1.3357041,103.9055177
HEALTHWAY MEDICAL CENTRE,BLK 417 YISHUN AVE 11 Singapore,760417,1.4237973,103.8465798
HEALTHWAY MEDICAL CENTRE (GATEWAY EAST),152 BEACH RD Singapore,189721,1.2988735,103.8594007
HEALTHWAY MEDICAL CLINIC,BLK 110 LENGKONG TIGA Singapore,410110,1.3234922,103.9109954
HEALTHWAY MEDICAL GROUP,30 SEMBAWANG DR Singapore,757713,1.4482678,103.8196887
HEALTHWAY SENGKANG CLINIC,118 RIVERVALE DRIVE Singapore,540118,1.3855939,103.9019834
HEALTHWAY TAMPINES CLINIC,BLK 710 TAMPINES ST 71 Singapore,520710,1.3587573,103.9377381
HEALTHWAY WOODLANDS FAMILY CLINIC,BLK 888 WOODLANDS DR 50 Singapore,730888,1.4377241,103.7952735
HENDERSON CLINIC & SURGERY,BLK 114 BT MERAH VIEW Singapore,150114,1.2864844,103.8223733
HENG CLINIC & SURGERY,BLK 740 BEDOK RESERVOIR RD Singapore,470740,1.3383014,103.9225237
HENG HENG CLINIC,BLK 45 HOLLAND DR Singapore,270045,1.3088129,103.7926702
HENG-GREF MEDICAL CENTRE PTE LTD,BLK 11 JALAN BUKIT MERAH Singapore,150011,1.2869066,103.8088114
HIA CLINIC,BLK 27 BENDEMEER RD Singapore,330027,1.318858,103.862831
HILLVIEW CLINIC & SURGERY,1 HILLVIEW AVE Singapore,669426,1.3663915,103.7623001
HK FAMILY CLINIC AND SURGERY,BLK 410 ANG MO KIO AVE 10 Singapore,560410,1.3626873,103.854642
HL FAMILY CLINIC AND SURGERY,BLK 111 JALAN BUKIT MERAH Singapore,160111,1.2803001,103.8263877
HL FAMILY CLINIC AND SURGERY(BEDOK),BLK 122 BEDOK NORTH ST 2 Singapore,460122,1.3287484,103.93801
HO MEDICAL CENTRE PTE LTD,BLK 6C MARGARET DR Singapore,142006,1.299554,103.8033247
HO MEDICAL CLINIC,101 UPPER CROSS ST Singapore,058357,1.2857964,103.8440022
HOLLAND CLINIC,BLK 31 HOLLAND CLOSE Singapore,270031,1.3070686,103.7971071
HONG ASSOCIATES CLINIC,BLK 18 TOA PAYOH LOR 7 Singapore,310018,1.3358021,103.8567256
HONG ASSOCIATES CLINIC,BLK 111 JLN BUKIT MERAH Singapore,160111,1.2803001,103.8263877
HONG FAMILY CLINIC,BLK 282 TAMPINES ST 22 Singapore,520282,1.3477639,103.9524233
HONG KONG CLINIC,283 TANJONG KATONG RD Singapore,437066,1.3068658,103.8958035
HONG WHYE CLINIC,BLK 412 BEDOK NORTH AVE 2 Singapore,460412,1.3290438,103.9311665
HORIZON MEDICAL CENTRE,200 UPPER THOMSON RD Singapore,574424,1.3518453,103.8360304
HOUGANG CLINIC,BLK 631 HOUGANG AVE 8 Singapore,530631,1.370734,103.8813686
HOUGANG MEDICAL CENTRE,BLK 247 HOUGANG AVE 3 Singapore,530247,1.359102,103.891517
HOUGANG SAI CLINIC,BLK 124 HOUGANG AVE 1 Singapore,530124,1.352906,103.8867146
HU CLINIC,BLK 433 CLEMENTI AVE 3 Singapore,120433,1.3140171,103.7618194
HUAN CLINIC,60 EU TONG SEN ST Singapore,059804,1.28649,103.8444964
HWANG & LIANG FAMILY CLINIC & SURGERY,BLK 476 TAMPINES ST 44 Singapore,520476,1.3609346,103.95342049999999
HYPERBARIC MEDICINE CENTRE,11 JALAN TAN TOCK SENG Singapore,308433,1.3205612,103.8485777
IN HOUSE CLINIC HONG LEONG ASIA LTD,7A TUAS AVE 13 Singapore,638979,1.317988,103.642942
INDUS CLINIC,BLK 77 INDUS RD Singapore,160077,1.2910317,103.8270996
INTERNATIONAL MEDICAL CLINIC,293 HOLLAND RD Singapore,278628,1.3175779,103.7858566
INTERNATIONAL SCREENING CENTRE,BLK 10 ANSON RD Singapore,079903,1.2756998,103.8458098
IPL - LASER MEDICAL & AESTHETIC CLINIC,290 ORCHARD RD Singapore,238859,1.3039054,103.8355763
ISABELLE YEOH AESTHETIC CLINIC,ONE ORCHARD BOULEVARD Singapore,248649,1.3030989,103.8239723
ISLAND CLINIC,594B SEMBAWANG RD Singapore,758453,1.440734,103.824966
JO-LIN FAMILY CLINIC & SURGERY,BLK 533 CHOA CHU KANG ST 51 Singapore,680533,1.3922588,103.7431268
JOY FAMILY CLINIC,BLK 703 BEDOK RESERVOIR RD Singapore,470703,1.3371946,103.9198822
JOYSPRING FAMILY CLINIC,BLK 133 ANG MO KIO AVE 3 Singapore,560133,1.3711089,103.8426847
JUBILEE MEDICAL CENTRE,BLK 116 JLN BT MERAH Singapore,160116,1.2815447,103.8264716
JURONG CLINIC & DENTAL SURGERY,BLK 501 JURONG WEST ST 51 Singapore,640501,1.3500718,103.719164
JURONG EAST CLINIC,BLK 114 JURONG EAST ST 13 Singapore,600114,1.3392112,103.7345734
JURONG SHIPYARD MEDICAL CENTRE (PS),"5 JALAN SAMULUN, JURONG TOWN Singapore",629122,1.301858,103.698625
JURONG SHIPYARD MEDICAL CENTRE (TK),29 TANJONG KLING RD Singapore,628054,1.304318,103.7044265
K C TAN'S CLINIC & BRIGHT DENTAL SURGERY,1016 UPPER SERANGOON RD Singapore,534754,1.362783,103.88821
PJ CLINIC,BLK 36 BEO CRESCENT Singapore,160036,1.2883406,103.8271961
POINT MEDICAL GROUP (JURONG WEST),BLK 541 JURONG WEST AVE 1 Singapore,640541,1.3511912,103.7161143
PONGGOL CLINIC,BLK 23 HOUGANG AVE 3 Singapore,530023,1.3648919,103.8907921
POW FAMILY CLINIC & SURGERY,BLK 620 HOUGANG AVE 8 Singapore,530620,1.3701336,103.883815
PRAISE FAMILY CLINIC,BLK 717 TAMPINES ST 72 Singapore,520717,1.3588465,103.9350188
PRASAD'S CLINIC,25 NORRIS RD Singapore,208267,1.3080905,103.8538268
PREMIER CLINIC & SURGERY PTE LTD,BLK 631 ANG MO KIO AVE 4 Singapore,560631,1.3795879,103.8407218
PREMIER HEALTHCARE CLINIC & SURGERY,BLK 376 BUKIT BATOK ST 31 Singapore,650376,1.3585031,103.7492819
LIFELINE MEDICAL GROUP,BLK 118 RIVERVALE DRIVE Singapore,540118,1.3855939,103.9019834
LIFELINE NEIGHBOURHOOD MEDICAL CLINIC,BLK 280 BUKIT BATOK EAST AVE 3 Singapore,650280,1.3478798,103.7568434
LIFELINE PUNGGOL MEDICAL CLINIC,BLK 198 PUNGGOL FIELD Singapore,820198,1.39946,103.90634
LIFELINK BUKIT TIMAH CLINIC & SURGERY,84 JALAN JURONG KECHIL Singapore,598593,1.3404516,103.7731595
LIFE-LINK CLINIC & SURGERY,BLK 446 PASIR RIS DR 6 Singapore,510446,1.3704673,103.9572734
LIGHTHOUSE CLINIC AND SURGERY,BLK 642 BUKIT BATOK CENTRAL Singapore,650642,1.34868,103.7514575
LIM CLINIC,BLK 446 ANG MO KIO AVE 10 Singapore,560446,1.3678117,103.8551856
LIM CLINIC,295 CHANGI RD Singapore,419773,1.3181712,103.9071036
LIM CLINIC,BLK 117 COMMONWEALTH DR Singapore,140117,1.3066305,103.8002085
LIM CLINIC & SURGERY,BLK 517 JURONG WEST ST 52 Singapore,640517,1.3456775,103.7194616
LIM CLINIC & SURGERY,BLK 20 CHAI CHEE RD Singapore,461020,1.326468,103.9227142
LIM MEDICAL CLINIC,BLK 320 CLEMENTI AVE 4 Singapore,120320,1.3170708,103.7654405
LIN & SONS CLINIC & SURGERY PTE LTD,BLK 18 TECK WHYE LANE Singapore,680018,1.3782996,103.7541248
LITTLE CROSS FAMILY CLINIC,BLK 915 TAMPINES ST 91 Singapore,520915,1.3486079,103.9395057
LO & LEE CLINIC & SURGERY,BLK 134 LORONG AH SOO Singapore,530134,1.3504537,103.8864328
LOH CLINIC,BLK 45 SIMS DR Singapore,380045,1.3174127,103.8783863
M LAM CLINIC,739 GEYLANG RD Singapore,389649,1.3148876,103.8904981
MACPHERSON MEDICAL CLINIC,BLK 78 CIRCUIT RD Singapore,370078,1.3279536,103.8852648
MAH MEDICAL,BLK 452 ANG MO KIO AVE 10 Singapore,560452,1.3689024,103.8561218
MAI DING CLINIC,319 CHANGI RD Singapore,419794,1.3183112,103.9081352
MAKE-WELL FAMILY CLINIC & SURGERY,BLK 70 LOR 4 TOA PAYOH Singapore,310070,1.3346601,103.8522881
MALAYEE DISPENSARY,BLK 9 SELEGIE RD Singapore,180009,1.3034202,103.8509279
MANDARIN MEDICAL CENTRE,66 JLN JURONG KECHIL Singapore,598586,1.3405074,103.7737639
MANDARIN MEDICAL CLINIC,333 ORCHARD RD Singapore,238867,1.3022077,103.836443
MANHATTAN MEDICAL CENTRE,151 CHIN SWEE RD Singapore,169876,1.2870826,103.8408451
MAO MEDICAL CENTRE & SURGERY,BLK 149 SILAT AVE Singapore,160149,1.2774392,103.8318833
MARINA MEDICAL CENTRE (TIONG BAHRU),BLK 78 GUAN CHUAN ST Singapore,160078,1.2833574,103.831082
MARINE PARADE CLINIC,BLK 59 MARINE TERRACE Singapore,440059,1.3058783,103.9144897
MARSILING CLINIC & SURGERY,BLK 1 MARSILING DR Singapore,730001,1.4406998,103.7765983
MAY MEDICAL CLINIC & SURGERY,BLK 27A COMMONWEALTH AVE Singapore,140027,1.295339,103.806026
MAYFAIR CLINIC & SURGERY,BLK 528 BT BATOK ST 51 Singapore,650528,1.3566967,103.7512281
MAYFLOWER MEDICAL CENTRE,BLK 88 ZION RD Singapore,160088,1.2917633,103.8330607
McGILL CLINIC PTE LTD,1150 DEPOT RD Singapore,109673,1.2825334,103.8071213
MCGILL CLINIC PTE LTD,164 WEST COAST WAY Singapore,127079,1.3165024,103.7575374
MEDEN CLINIC & SURGERY,BLK 35 TELOK BLANGAH RISE Singapore,090035,1.2730218,103.8220348
MEDICAL CENTRE - UNITED WORLD COLLEGE OF S. E. AS,NA DOVER RD Singapore,139654,1.285527,103.822038
MEDICAL CENTRE (STMICROELECTRONICS PTE LTD - TOA,629 TOA PAYOH LOR 4 & 6 Singapore,319521,1.3320572,103.8524226
MEDICAL CENTRE KEPPEL FELS LTD,50 GUL ROAD Singapore,629351,1.2954318,103.6693854
"MEDICAL CENTRE TELEPARK, DRS LEE & PARTNERS",5 TAMPINES CENTRAL 6 Singapore,529482,1.353279,103.9418625
MEDICAL CLINIC,202 BEDOK SOUTH AVE 1 Singapore,469332,1.3215427,103.9312006
MEDICAL UNION CLINIC,BLK 416 PANDAN GARDENS Singapore,600416,1.320992,103.7483088
MEDICAL UNION CLINIC,BLK 211 SERANGOON AVE 4 Singapore,550211,1.3563478,103.8732104
MEDICARE ASSOCIATES & DENTAL SURGERY,BLK 482 TAMPINES AVE 9 ST 43 Singapore,520482,1.3603909,103.9473633
MEDICARE ASSOCIATES CLINIC & SURGERY,BLK 107 SERANGOON NORTH AVE 1 Singapore,550107,1.3698481,103.8701338
MEDICO CLINIC & SURGERY,BLK 249 JURONG EAST ST 24 Singapore,600249,1.3425344,103.7393453
MEDICUS CLINIC & SURGERY,BLK 451 JURONG WEST ST 42 Singapore,640451,1.351899,103.7187384
MEDIHEALTH BISHAN 24 HOURS CLINIC & SURGERY,BLK 121 BISHAN ST 12 Singapore,570121,1.3471089,103.8511091
MEDIHEALTH CLINIC,27A EAST COAST RD Singapore,428749,1.3047237,103.9027369
MEDIHEALTH CLINIC & SURGERY,BLK 261 SERANGOON CENTRAL DR Singapore,550261,1.3539372,103.872293
MEDILIFE CLINIC & SURGERY,BLK 474 TAMPINES ST 43 Singapore,520474,1.3598407,103.9527077
MEDINA MEDICAL CENTRE,BLK 201-D TAMPINES ST 21 Singapore,524201,1.3525869,103.9537831
MEDIPLUS CLINIC AND SURGERY,BLK 305 UBI AVE 1 Singapore,400305,1.329924,103.9019581
MEDIPOINT FAMILY CLINIC,BLK 654 YISHUN AVE 4 Singapore,760654,1.4230275,103.8405108
MEDIPOINT MEDICAL CENTRE (ANG MO KIO),BLK 574 ANG MO KIO AVE 10 Singapore,560574,1.3708084,103.8563633
MEDIPOINT MEDICAL CENTRE (PONGGOL BRANCH),BLK 401 HOUGANG AVE 10 Singapore,540401,1.3748239,103.8969905
MEDIVIEW CLINIC & SURGERY,BLK 724 BEDOK RESERVOIR RD Singapore,470724,1.3371453,103.928402
MEDORA CLINIC & SURGERY,115 UPPER PAYA LEBAR RD Singapore,534833,1.3382724,103.8866121
MEENARA CLINIC,BLK 422 ANG MO KIO AVE 3 Singapore,560422,1.3679063,103.851562
MEI LING CLINIC,BLK 158 MEI LING ST Singapore,140158,1.2926445,103.8027441
MEI LING CLINIC (TOA PAYOH),BLK 500 LOR 6 TOA PAYOH Singapore,310500,1.3322503,103.8486537
MENG'S CLINIC,BLK 47 TANGLIN HALT RD Singapore,141047,1.3008447,103.7980579
MERIDIAN MEDICAL AND DENTAL CENTRE,BLK 327 HOUGANG AVE 5 Singapore,530327,1.3680936,103.8958922
MERIDIAN MEDICAL CENTRE,BLK 112 DEPOT RD Singapore,100112,1.281639,103.80804
METROPOLITAN MEDICAL CENTRE,N0. 8 CROSS ST Singapore,048424,1.2824439,103.8490256
MHC FAMILY CLINIC (BEDOK),BLK 515 BEDOK NORTH AVE 2 Singapore,460515,1.3320873,103.9299429
MHC MEDICAL CENTRE (KALLANG),BLK 164 KALLANG WAY Singapore,349248,1.3240933,103.8758916
MHC MEDICAL CENTRE (MARINA),6 RAFFLES BOULEVARD Singapore,039594,1.291433,103.8576787
MHC MEDICAL CENTRE (WOODLANDS),BLK 900 SOUTH WOODLANDS DR Singapore,730900,1.4351289,103.786873
MICRON SEMICONDUCTOR ASIA MEDICAL CLINIC,990 BENDEMEER RD Singapore,339942,1.3178653,103.8647592
MILLENNIUM MEDICAL GROUP,BLK 849 WOODLANDS ST 82 Singapore,730849,1.441304,103.792059
MING MEDICAL CENTRE,446 UPPER BUKIT TIMAH RD Singapore,678067,1.3596263,103.7676005
MISSION MEDICAL CLINIC,780 UPPER SERANGOON RD Singapore,534649,1.3545603,103.8792847
MOTOROLA ELECTRONICS PTE LTD (IN HOUSE CLINIC),NA ANG MO KIO ST 64 Singapore,569450,1.3879962,103.8495863
MUHAMMADIYAH HEALTH AND DAY CARE CENTRE FOR SENIO,BLK 10 EUNOS CRESCENT Singapore,400010,1.3223009,103.9025671
MURATA ELECTRONICS SINGAPORE (PTE) LTD (MEDICAL C,200 YISHUN AVE 7 Singapore,768927,1.4393237,103.8334004
MUTUAL HEALTHCARE MEDICAL CLINIC,319B ANCHORVALE DR Singapore,542319,1.3915634,103.8902484
MY DOCTOR'S PLACE,BLK 204 BEDOK NORTH ST 1 Singapore,460204,1.3264712,103.929992
MY FAMILY CLINIC (BUKIT PANJANG),BLK 524A JELAPANG RD Singapore,671524,1.3853755,103.7663006
MY FAMILY CLINIC (TANGLIN HALT),BLK 46-2 COMMONWEALTH DRIVE Singapore,140462,1.3000755,103.798239
NANYANG CLINIC,BLK 51 CHIN SWEE RD Singapore,160051,1.2874114,103.842057
NANYANG DISPENSARY,BLK 176 BOON LAY DR Singapore,640176,1.347343,103.7100505
NATIONAL CLINIC,BLK 352 CLEMENTI AVE 2 Singapore,120352,1.3146209,103.7715967
NATIONAL HEALTHCARE GROUP POLYCLINICS (ANG MO KIO,BLK 723 ANG MO KIO AVE 8 Singapore,560723,1.3724019,103.847305
NATIONAL HEALTHCARE GROUP POLYCLINICS (CHOA CHU K,2 TECK WHYE CRESCENT Singapore,688846,1.3823883,103.7507302
NATIONAL HEALTHCARE GROUP POLYCLINICS (CLEMENTI),BLK 451 CLEMENTI AVE 3 Singapore,120451,1.3126424,103.7656225
NATIONAL HEALTHCARE GROUP POLYCLINICS (HOUGANG),89 HOUGANG AVE 4 Singapore,538829,1.370032,103.889024
NATIONAL HEALTHCARE GROUP POLYCLINICS (JURONG),190 JURONG EAST AVE 1 Singapore,609788,1.349792,103.730619
NATIONAL HEALTHCARE GROUP POLYCLINICS (TOA PAYOH),2003 TOA PAYOH LOR 8 Singapore,319260,1.3345499,103.858986
NATIONAL HEALTHCARE GROUP POLYCLINICS (WOODLANDS),10 WOODLANDS ST 31 Singapore,738579,1.430806,103.775072
NATIONAL HEALTHCARE GROUP POLYCLINICS (YISHUN),100 YISHUN CENTRAL Singapore,768826,1.4229996,103.8371703
NATIONAL SEMICONDUCTOR MANUFACTURER SINGAPORE PTE,"11 LOR 3, TOA PAYOH Singapore",319579,1.3369142,103.8486187
NEE SOON CLINIC,926 UPPER THOMSON RD Singapore,787120,1.399354,103.817908
NEE SOON CLINIC (YISHUN BRANCH),BLK 779 YISHUN AVE 2 Singapore,760779,1.422385,103.833623
NEIGHBOURHOOD CLINIC,BLK 260 BANGKIT RD Singapore,670260,1.3779482,103.7733395
NELIFE CLINIC & SURGICAL CENTER,BLK 533 SERANGOON NORTH AVE 4 Singapore,550533,1.3745773,103.8744855
NEO CLINIC & SURGERY,BLK 257 BANGKIT RD Singapore,670257,1.3785541,103.7731358
NEO MEDICAL CENTRE,BLK 120 POTONG PASIR AVE 1 Singapore,350120,1.3354705,103.86325480000001
NEOH & ONG MEDICAL CLINIC,BLK 2A EUNOS CRESCENT Singapore,401002,1.3201696,103.9030255
NEPTUNE HEALTHCARE MEDICAL AND SURGERY NEPTUNE DE,BLK 357 TAMPINES ST 33 Singapore,520357,1.3540772,103.961761
NEPTUNE MEDICAL CENTRE & SURGERY,BLK 8 JALAN KUKOH Singapore,162008,1.2873774,103.8394012
NESTLE SINGAPORE (PTE) LTD (MEDICAL CLINIC),50 INTERNATIONAL RD Singapore,619625,1.331153,103.711746
NEW HORIZON CENTRE (LOKE YEW-TAMPINES),1 TAMPINES ST 41 Singapore,529203,1.3573037,103.9458665
NEW LIFE CLINIC,BLK 168 BEDOK SOUTH AVE 3 Singapore,460168,1.320155,103.9445364
NEW TOWN CLINIC,BLK 59 NEW UPPER CHANGI RD Singapore,461059,1.324054,103.9406335
NEW WORLD CLINIC & SURGERY,1 JLN BERSEH Singapore,209037,1.3073721,103.8577625
NEWLIFE FAMILY CLINIC & SURGERY,BLK 61 TEBAN GARDENS ROAD Singapore,600061,1.3221034,103.7384653
NG MEDICAL CENTRE,557 BT TIMAH RD Singapore,269694,1.3231069,103.8111659
NG'S CLINIC,BLK 28 HOY FATT RD Singapore,151028,1.2864623,103.8098075
NIPPON MEDICAL CARE (MOUNT ELIZABETH HOSPITAL),3 MT ELIZABETH Singapore,228510,1.3055915,103.8354837
NORTHLAND FAMILY CLINIC & SURGERY,BLK 640 YISHUN ST 61 Singapore,760640,1.421111,103.8386809
NOVO VITA CLINIC AND SURGERY,BLK 131 JLN BUKIT MERAH Singapore,160131,1.2801336,103.8283184
NYAM FAMILY CLINIC,337 BEDOK RD Singapore,469514,1.3311987,103.9473904
OCCUPATIONAL HEALTH UNIT,22 TANJONG KLING RD Singapore,628048,1.3078391,103.6993676
OMF INTERNATIONAL (IHQ) LTD,2 CLUNY RD Singapore,259570,1.3093387,103.8184855
ONG CLINIC,BLK 83 TOA PAYOH LOR 2 Singapore,310083,1.3357938,103.8479661
ONG MEDICAL CLINIC,BLK 307 ANG MO KIO AVE 1 Singapore,560307,1.365584,103.845157
ONG'S CLINIC,175 BENCOOLEN ST Singapore,189649,1.3021864,103.8526703
OOI CLINIC,BLK 1 THOMSON RD Singapore,300001,1.3253453,103.84232
ORCHARD CLINIC AND SURGERY,442 ORCHARD RD Singapore,238879,1.3075322,103.8286
ORCHARD MEDICAL CENTRE,230 ORCHARD RD Singapore,238854,1.3019708,103.8382146
OUR FAMILY CLINIC & SURGERY,BLK 221 PASIR RIS ST 21 Singapore,510221,1.37026,103.961361
OUR FAMILY CLINIC & SURGERY PTE LTD,BLK 8 JLN BATU Singapore,431008,1.3026541,103.8831808
OUR FAMILY PHYSICIAN CLINIC AND SURGERY,BLK 829 TAMPINES ST 81 Singapore,520829,1.3492574,103.9348375
OXFORD MEDICAL CENTRE,BLK 735 PASIR RIS ST 72 Singapore,510735,1.3797473,103.9363331
P N YEO CLINIC,BLK 87 WHAMPOA DR Singapore,320087,1.3233111,103.8557065
P S MEDICAL CLINIC,BLK 118 COMMONWEALTH CRESCENT Singapore,140118,1.3066423,103.8006349
PACIFIC MEDICAL & DENTAL GROUP,BLK 716 YISHUN ST 71 Singapore,760716,1.4264076,103.827649
PANDAN CLINIC PTE LTD,BLK 415 PANDAN GARDEN RD Singapore,600415,1.320736,103.7482636
PARIQUA CLINIC,BLK 47 BENDEMEER RD Singapore,330047,1.3233043,103.8666859
PARKSON MEDICAL CLINIC AND SURGERY,BLK 137 POTONG PASIR AVE 3 Singapore,350137,1.3337978,103.8660365
PASIR RIS CLINIC & SURGERY,BLK 442 PASIR RIS DR 6 Singapore,510442,1.3690369,103.9576814
PCS MEDICAL CENTRE,100 AYER MERBAU RD Singapore,628277,1.264568,103.724163
PEACE FAMILY CLINIC,BLK 371 WOODLANDS AVE 1 Singapore,730371,1.4323082,103.7868073
PEACE FAMILY CLINIC & SURGERY,BLK 406 SEMBAWANG DR Singapore,750406,1.4529679,103.8171431
PEACE FAMILY CLINIC (WL832),BLK 832 WOODLANDS ST 83 Singapore,730832,1.4396616,103.790565
PEACE MEDICAL CLINIC,BLK 338 JURONG EAST AVE 1 Singapore,600338,1.3503721,103.7311374
PHANG CLINIC,535 GEYLANG RD Singapore,389491,1.3137906,103.8850429
PHOENIX CLINIC & SURGERY,BLK 150 JALAN TECK WHYE Singapore,680150,1.3781942,103.7564557
PHOH KIU SIANG T'NG - NKF PREVENTION CENTRE,BLK 102 RIVERVALE WALK Singapore,540102,1.381822,103.9009109
PICTON MEDICAL CENTRE,BLK 163 TOA PAYOH LOR 1 Singapore,310163,1.3320706,103.8440377
PIDEMCO MEDICAL CENTRE,BLK 156 YISHUN ST 11 Singapore,760156,1.4319472,103.8336268
PRESIDENT MEDICAL CLINIC,BLK 74 WHAMPOA DR Singapore,320074,1.3248902,103.8579033
"PRIMEHEALTH MEDICAL GROUP, CLINIC AND SURGERY",81 CLEMENCEAU AVE Singapore,239917,1.2921309,103.8425941
PUBLIC MEDICAL CLINIC & SURGERY,BLK 664 YISHUN AVE 4 Singapore,760664,1.4202366,103.8410543
QUAH MEDICAL CLINIC,BLK 325 UBI AVE 1 Singapore,400325,1.3276889,103.903984
RAFFLES MEDICAL GROUP,NO 8 JURONG TOWN HALL RD Singapore,609434,1.3310751,103.7417689
RAFFLES MEDICAL GROUP,2 JURONG PORT RD Singapore,619088,1.3220289,103.718272
RAFFLES MEDICAL GROUP,1000 TOA PAYOH NORTH Singapore,318994,1.3430597,103.848618
RAFFLES MEDICAL GROUP,BLK 927 YISHUN CENTRAL Singapore,760927,1.4276666,103.8377028
RAFFLES MEDICAL GROUP,21 CHOA CHU KANG AVE 4 Singapore,689812,1.3852086,103.7449371
RAFFLES MEDICAL GROUP,BLK 722 ANG MO KIO AVE 8 Singapore,560722,1.372236,103.847521
SHENTON MEDICAL GROUP,82 GENTING LANE LEVEL 4 Singapore,349567,1.3253216,103.8765258
SHENTON MEDICAL GROUP,60B ORCHARD RD Singapore,238891,1.2998548,103.8454835
SHENTON MEDICAL GROUP,10 EUNOS RD 8 Singapore,408600,1.3189418,103.8944605
SHENTON MEDICAL GROUP,10 HOE CHIANG RD Singapore,089315,1.2744011,103.8425526
SHENTON MEDICAL GROUP,138 ROBINSON RD Singapore,068906,1.278646,103.8484196
SHIM CLINIC,39 KAKI BUKIT AVE 3 Singapore,415920,1.338132,103.9096411
SIA & YEO FAMILY CLINIC,BLK 407 ANG MO KIO AVE 10 Singapore,560407,1.3627059,103.8555136
SIA FAMILY CLINIC AND SURGERY,BLK 10 HAIG RD Singapore,430010,1.3147479,103.8958407
SIA TRAINING CENTRE CLINIC,720 NEW UPPER CHANGI RD EAST Singapore,486852,1.3258292,103.9428487
SIGLAP MEDICAL CLINIC,BLK 2 EAST COAST RD Singapore,450002,1.3118612,103.923417
SILAT CLINIC,BLK 147 SILAT AVE Singapore,160147,1.2773522,103.8310907
SILVER CROSS 24HR CLINIC (UPPER BUKIT TIMAH),2 CHUN TIN RD Singapore,599589,1.3420434,103.7753995
SILVER CROSS FAMILY CLINIC,BLK 923 YISHUN CENTRAL 1 Singapore,760923,1.4285843,103.8357306
SILVER CROSS MEDICAL CENTRE PTE LTD,275A HOLLAND AVE Singapore,278993,1.3117546,103.7952628
SIMON ROAD FAMILY CLINIC,9 SIMON RD Singapore,545895,1.361718,103.885889
SIMS DRIVE MEDICAL CLINIC,BLK 53 SIMS PLACE Singapore,380053,1.3181788,103.8799942
SIN MIN CLINIC,221 UPPER THOMSON RD Singapore,574353,1.3527851,103.8345711
SINCERE MEDICAL & DENTAL CLINIC,BLK 292 YISHUN ST 22 Singapore,760292,1.4370249,103.8372726
SINGAPORE CANCER SOCIETY - CANCER SCREENING CLINI,15 ENGGOR ST Singapore,079716,1.2740967,103.8441783
SINGAPORE CANCER SOCIETY - CENTRAL SINGAPORE CANC,BLK 22 BOON KENG RD Singapore,330022,1.3181563,103.861459
SINGAPORE FAMILY CLINIC & SURGERY,BLK 153 BUKIT BATOK ST 11 Singapore,650153,1.3475797,103.7442927
SINGAPORE FAMILY CLINIC & SURGERY (HOUGANG),BLK 108 HOUGANG AVE 1 Singapore,530108,1.3528142,103.889886
SINGAPORE FAMILY CLINIC & SURGERY (WOODLANDS),BLK 717 WOODLANDS DR 70 Singapore,730717,1.4409093,103.7995067
SINGAPORE TECHNOLOGIES AEROSPACE MEDICAL CENTRE,"540 AIRPORT RD, PAYA LEBAR Singapore",539938,1.350066,103.896786
SINGAPORE TECHNOLOGIES ELECTRONICS LIMITED (IN-HO,24 ANG MO KIO ST 65 Singapore,569061,1.391612,103.849258
SINGAPORE TECHNOLOGIES MARINE LTD (MEDICAL CLINIC,"7 BENOI RD, SUNGEI BENOI BASIN, JURONG Singapore",629882,1.3023592,103.6799341
SINGAPORE TELECOM CLINIC,31 EXETER RD Singapore,239732,1.2989297,103.8384106
SINGAPORE TURF CLUB CASUALTY ROOM,"1 TURF CLUB AVENUE, SINGAPORE RACECOURSE Singapore",738078,1.4218875,103.7644704
SINGAPURA CLINIC,27 BENCOOLEN ST Singapore,189620,1.2988095,103.8498883
SINGHEALTH POLYCLINICS - MARINE PARADE,BLK 80 MARINE PARADE RD Singapore,440080,1.3014702,103.9051552
SINGHEALTH POLYCLINICS - OUTRAM,3 SECOND HOSPITAL AVENUE Singapore,168937,1.2799858,103.8383881
SINGHEALTH POLYCLINICS - PASIR RIS,1 PASIR RIS DR 4 Singapore,519457,1.368309,103.959529
SINNAN CLINIC,390 VICTORIA ST Singapore,188061,1.3019085,103.8578808
SOH CLINIC,BLK 116 TOA PAYOH LOR 2 Singapore,310116,1.3404772,103.8457645
SONY DISPLAY DEVICE (S) PTE LTD (MEDICAL CLINIC),1 TUAS RD Singapore,638481,1.3296075,103.652646
SONY PRECISION ENGINEERING CENTRE (S) PTE LTD (ME,52 TUAS AVE 9 Singapore,639193,1.3303206,103.6432467
SO'S CLINIC,BLK 413 YISHUN RING RD Singapore,760413,1.424971,103.8465798
SP CLINIC,BLK 117 PENDING RD Singapore,670117,1.3773202,103.7679528
SPORTS MEDICINE  & RESEARCH CENTRE,"15 STADIUM RD, NATIONAL STADIUM Singapore",397718,1.303242,103.874757
SPRING LASER & AESTHETIC CLINIC PTE LTD,1 NEWTON RD Singapore,308899,1.3140212,103.8394114
SPRINGS OF JOY CLINIC & SURGERY,BLK 10 TELOK BLANGAH CRESCENT Singapore,090010,1.2778529,103.8197695
SSMC MEDICAL CLINIC,70 PASIR RIS DR 1 Singapore,519527,1.3799157,103.9342605
ST ANTHONY MEDICAL CLINIC,25 WOODLANDS AVE 1 Singapore,739064,1.4295996,103.7796998
ST FRANCIS XAVIER MEDICAL CLINIC,63A CHARTWELL DRIVE Singapore,558758,1.3585765,103.8635736
ST GEORGES CLINIC AND SURGERY,3 ST GEORGE'S RD Singapore,320003,1.3228769,103.8612779
ST KINETICS CLINIC,5 PORTSDOWN RD Singapore,139296,1.2945463,103.7957859
ST KINETICS IN-HOUSE CLINIC,249 JALAN BOON LAY Singapore,619523,1.3396878,103.711798
ST. GREGORY AESTHETICS CLINIC,238 THOMSON RD Singapore,307683,1.3199572,103.8439076
STAMFORD MEDICAL GROUP PTE LTD,BLK 456 JURONG WEST AVE 1 Singapore,640456,1.3499053,103.7272462
STAMFORD MEDICAL GROUP PTE LTD,NO. 38 TRAS ST Singapore,078977,1.2783924,103.8443423
STAMFORD MEDICAL GROUP PTE LTD,BLK 7 TANJONG PAGAR RD Singapore,081007,1.2771602,103.8429957
STANFORD MEDICAL CLINIC & SURGERY,BLK 152 SERANGOON NORTH AVE 1 Singapore,550152,1.3697398,103.8726988
STARCARE CLINIC AND SURGERY,BLK 207 BUKIT BATOK ST 21 Singapore,650207,1.3462385,103.7493298
STARLIGHT CLINIC,547 SERANGOON RD Singapore,218169,1.315239,103.857831
STATS CLINIC,5 YISHUN ST 23 Singapore,768442,1.439902,103.842371
STERLING CLINIC & SURGERY,BLK 3 LOR LEW LIAN Singapore,531003,1.3504783,103.8761135
STERLING FAMILY CLINIC,BLK 84 BEDOK NORTH ST 4 Singapore,460084,1.3318119,103.9396416
STEWARD CLINIC,4A LOYANG LANE Singapore,508923,1.3712116,103.9704153
STMICROELECTRONICS PTE LTD (MEDICAL CENTRE),28 ANG MO KIO INDUSTRIAL PARK 2 Singapore,569508,1.3754,103.865508
STREET 11 CLINIC,BLK 139 TAMPINES ST 11 Singapore,520139,1.346859,103.944446
STREET 21 CLINIC (TAMPINES),BLK 201B TAMPINES ST 21 Singapore,522201,1.3530815,103.9532402
SUMBAWA CLINIC,1 BEACH RD Singapore,190001,1.3034886,103.8645218
SUMMIT MEDICAL CLINIC,BLK 134 JURONG EAST ST 13 Singapore,600134,1.3339827,103.7388339
SUNSHINE CLINIC,BLK 445 TAMPINES ST 42 Singapore,520445,1.3581696,103.9505196
SUNSHINE FAMILY CLINIC,BLK 491 JURONG WEST AVE 1 Singapore,640491,1.3496047,103.726248
SWAN CLINIC,BLK 81 WHAMPOA DR Singapore,320081,1.3241423,103.8564294
SYDNEY CLINIC,400 ORCHARD RD Singapore,238875,1.3069439,103.8291434
SYY CLINIC,BLK 703 ANG MO KIO AVE 8 Singapore,560703,1.3697629,103.8473045
SYY CLINIC (JURONG),BLK 135 JURONG EAST ST 13 Singapore,600135,1.3337862,103.7398022
SYY CLINIC (TAMPINES),BLK 513 TAMPINES CENTRAL Singapore,520513,1.3536087,103.9441485
T & T FAMILY HEALTH CLINIC & SURGERY,181 KITCHENER RD Singapore,208533,1.3106349,103.8557348
T H LEE CLINIC & SURGERY,BLK 447 CHOA CHU KANG AVE 4 Singapore,680447,1.3806151,103.7374923
T K ONG CLINIC,100 KIM SENG RD Singapore,239427,1.293047,103.8335661
T K WONG CLINIC & SURGERY,BLK 638 BUKIT BATOK CENTRAL Singapore,650638,1.3493133,103.752328
T M AUW CLINIC,BLK 123 HOUGANG AVE 1 Singapore,530123,1.3533485,103.8861709
T P SIM FAMILY CLINIC & SURGERY,BLK 509 BISHAN ST 11 Singapore,570509,1.348569,103.8495696
T S WONG CLINIC & SURGERY,BLK 166 WOODLANDS ST 13 Singapore,730166,1.4336992,103.7753992
TAI SENG CLINIC,137 UPPER PAYA LEBAR RD Singapore,534844,1.3388413,103.8862314
TALIB CLINIC PTE LTD,305B CHANGI RD Singapore,419783,1.3181734,103.9076825
TAN & KOH CLINIC & SURGERY,BLK 121 BEDOK RESERVOIR RD Singapore,470121,1.3313246,103.909913
TAN & KOH CLINIC SURGERY,BLK 374 BT BATOK WEST AVE 5 ST 31 Singapore,650374,1.3575864,103.7505728
TAN & TAN CLINIC,BLK 183 BOON LAY DR Singapore,640183,1.3486848,103.7081347
TAN CLINIC,BLK 345 CLEMENTI AVE 5 Singapore,120345,1.3176728,103.7690165
TAN CLINIC & SURGERY,BLK 725 CLEMENTI WEST ST 2 Singapore,120725,1.303395,103.763811
TAN MEDICAL CLINIC PTE LTD,BLK 339 ANG MO KIO AVE 1 Singapore,560339,1.3652102,103.8491162
TAN MEDICARE CLINIC PTE LTD,BLK 629 ANG MO KIO AVE 4 Singapore,560629,1.3801351,103.8404202
TANAMERA CLINIC,BLK 73 BEDOK SOUTH AVE 3 Singapore,460073,1.3197859,103.9440599
TANG MEDICAL & SURGERY CLINIC,BLK 8 JALAN BATU Singapore,431008,1.3026541,103.8831808
TANGLIN HALT CLINIC,BLK 39 TANGLIN HALT RD Singapore,143039,1.2976393,103.7989408
TANGLIN TRUST SCHOOL CLINIC,NA PORTSDOWN RD Singapore,139294,1.294399,103.796002
TAN'S T & T CLINIC & SURGERY,BLK 152 BISHAN ST 11 Singapore,570152,1.3455498,103.8548232
TAN-TEOH CLINIC & SURGERY,BLK 101 TOWNER RD Singapore,322101,1.3193077,103.8609838
TAN-TEOH CLINIC & SURGERY (ANG MO KIO BRANCH),BLK 302 ANG MO KIO AVE 3 Singapore,560302,1.3670437,103.8456513
TAY CLINIC,BLK 201 HOUGANG ST 21 Singapore,530201,1.3577628,103.8836701
TAY CLINIC,494 GEYLANG RD Singapore,389452,1.313382,103.884982
TAY GUAN CLINIC,BLK 39 TEBAN GARDENS RD Singapore,600039,1.3213889,103.7428326
"TAY KHOON HEAN SURGERY GENERAL SURGERY, HEPATOBIL",6 NAPIER RD Singapore,258499,1.3076257,103.8202012
TAY MEDICAL CENTRE CLINIC & SURGERY,BLK 6 HOLLAND CLOSE Singapore,271006,1.3071143,103.7954772
TC FAMILY CLINIC,BLK 526 JURONG WEST ST 52 Singapore,640526,1.347724,103.7170413
TEBAN GARDEN CLINIC,BLK 61 TEBAN GARDENS RD Singapore,600061,1.3221034,103.7384653
TECH SEMICONDUCTOR SINGAPORE PTE LTD (MEDICAL CLI,1 WOODLANDS INDUSTRIAL PARK D ST 1 Singapore,738799,1.4321191,103.7674419
TECK GHEE CLINIC,BLK 451 ANG MO KIO AVE 10 Singapore,560451,1.3688347,103.8556385
TECK WHYE CLINIC,BLK 26 TECK WHYE LANE Singapore,680026,1.3775575,103.7556637
TEH'S CLINIC AND SURGERY,BLK 64 CIRCUIT RD Singapore,370064,1.326992,103.887077
TEK DISPENSARY,BLK 4 TOA PAYOH LOR 7 Singapore,310004,1.3391094,103.8558209
TELOK BLANGAH MEDICAL CENTRE,BLK 80 TELOK BLANGAH DR Singapore,100080,1.273644,103.80801
TEMASEK MEDICAL ASSOCIATES,9 BATTERY ROAD Singapore,049910,1.2852308,103.8524113
TEMASEK MEDICAL CENTRE,BLK 413 BUKIT BATOK WEST AVE 4 Singapore,650413,1.3635376,103.7467021
TEMASEK MEDICAL CENTRE,BLK 624 CHOA CHU KANG ST 62 Singapore,689142,1.398094,103.7468279
TEMASEK MEDICAL CLINIC,BLK 212 TOA PAYOH LOR 8 Singapore,310212,1.3406524,103.8542845
TEMASEK MEDICAL CLINIC,BLK 86 BEDOK NORTH ST 4 Singapore,460086,1.3329698,103.9387321
TENG CLINIC,BLK 171 STIRLING RD Singapore,140171,1.2906819,103.8038534
TEOH CLINIC FAMILY PRACTICE,BLK 47 TOA PAYOH LOR 6 Singapore,310047,1.3369237,103.8540048
TEXTILE CENTRE CLINIC,200 JLN SULTAN Singapore,199018,1.303828,103.8614791
THAM DISPENSARY,516 GEYLANG RD Singapore,389472,1.3136431,103.8857218
THE ARCADIA CLINIC,2 PANDAN VALLEY Singapore,597626,1.3204349,103.7789302
THE BALMORAL CLINIC,271 BUKIT TIMAH RD Singapore,259708,1.3167505,103.8351666
THE BONHAM CLINIC,1 PHILLIP ST Singapore,048692,1.2849791,103.8500505
THE CENTRAL CLINIC,BLK 633 BT BATOK CENTRAL Singapore,650633,1.3492281,103.7511473
THE CLINIC @ CUPPAGE,51 CUPPAGE RD Singapore,229469,1.3029328,103.8400126
THE CORONATION CLINIC,587 BUKIT TIMAH RD Singapore,269707,1.3239187,103.8099886
THE DOCTOR'S CLINIC,BLK 429 JURONG WEST AVE 1 Singapore,640429,1.3519334,103.7246207
THE DRx CLINIC,583 ORCHARD RD Singapore,238884,1.306069,103.8286
THE EDINBURGH CLINIC,BLK 306 CHOA CHU KANG AVE 4 Singapore,680306,1.3849645,103.74281
THE FAMILY CLINIC,BLK 10 GHIM MOH RD Singapore,270010,1.310459,103.789891
"THE FAMILY DOCTOR, CLINIC & SURGERY",215D UPPER THOMSON RD Singapore,574349,1.3522812,103.8349765
THE FAMILY MEDICAL CENTRE,BLK 411 YISHUN RING RD Singapore,760411,1.425964,103.8476529
THE FAMILY PRACTICE - POTONG PASIR,BLK 148 POTONG PASIR AVE 1 Singapore,350148,1.3326694,103.8680478
THE FLAME TREE MEDICAL CENTRE,244-M UPPER THOMSON RD Singapore,574369,1.3535116,103.8346119
"THE JAPANESE ASSOCIATION CLINIC, SINGAPORE",120 ADAM RD Singapore,289899,1.3307278,103.8161016
THE KATONG CLINIC,221 EAST COAST RD Singapore,428918,1.307564,103.9071401
THE MEDICAL & REJUVENATION CENTRE,18 CROSS ST Singapore,048423,1.2835867,103.8470853
THE MEDICAL CENTRE CLINIC (HONG LEONG),16 RAFFLES QUAY Singapore,048581,1.2814095,103.8510185
THE MEDICAL CLINIC,65 CHULIA ST Singapore,049513,1.285184,103.8488954
THE MEDICAL PRACTICE,BLK 15 BEACH RD Singapore,190015,1.295817,103.8554963
THE NEPTUNE CLINIC,BLK 328 CLEMENTI AVE 2 Singapore,120328,1.3139144,103.7670701
THE OLIVE TREE FAMILY CLINIC & SURGERY,BLK 303 ANCHORVALE LINK Singapore,540303,1.3875675,103.8905656
THE PEOPLE'S CLINIC,BLK 145 TECK WHYE AVE Singapore,680145,1.3812863,103.7524617
THE SLOANE CLINIC,30 RAFFLES PLACE Singapore,048622,1.2841089,103.852015
THEAN CLINIC,BLK 38 BEO CRESCENT Singapore,160038,1.2886331,103.8271961
THOMAS CLINIC & SURGERY,BLK 61 TELOK BLANGAH HEIGHTS Singapore,100061,1.2757812,103.8120747
THONG HOE CLINIC,BLK 151 BT BATOK ST 11 Singapore,650151,1.3487581,103.7442612
THONG TECK CLINIC,72 SMITH ST Singapore,058969,1.283043,103.843061
THONG TECK SIAN TONG LIAN SIN SIA WESTERN MEDICAL,BLK 101 JLN RAJAH Singapore,321101,1.3288769,103.850839
THYE HUA KWAN MORAL SOCIETY FREE CLINIC,BLK 91 PAYA LEBAR WAY Singapore,370091,1.322677,103.8867146
TIEN WAH PRESS PTE LTD (MEDICAL CLINIC),4 PANDAN CRESCENT Singapore,128475,1.3037462,103.7598731
TIMES PUBLISHING LTD,16 TUAS AVE 5 Singapore,639340,1.321429,103.65335
TIMES PUBLISHING LTD,1 NEW INDUSTRIAL RD Singapore,536196,1.3421918,103.8847664
TIN PHUAN SURGERY,255 TANJONG KATONG RD Singapore,437043,1.3081235,103.8953582
TOA PAYOH CLINIC,BLK 51 TOA PAYOH LOR 6 Singapore,310051,1.3377525,103.8524876
TOA PAYOH CLINIC & SURGERY,BLK 233 TOA PAYOH LOR 8 Singapore,310233,1.3382109,103.8584432
TOA PAYOH NORTH CLINIC & SURGERY,BLK 203 TOA PAYOH NORTH Singapore,310203,1.3420685,103.8491162
TOA PAYOH SENIOR CITIZENS' HEALTH CARE CENTRE (SC,2003 LOR 8 TOA PAYOH EAST Singapore,319260,1.3345499,103.858986
TOH GUAN FAMILY CLINIC,BLK 267A TOH GUAN RD Singapore,601267,1.3415898,103.7449477
TOH YI FAMILY CLINIC,BLK 19 TOH YI DRIVE Singapore,590019,1.339922,103.773874
TOWN CLINIC,287 BEACH RD Singapore,199551,1.3010441,103.8605531
TOWN HALL CLINIC,456 ALEXANDRA RD Singapore,119962,1.2752179,103.8014338
TOWN HALL CLINIC,2 JURONG EAST ST 21 Singapore,609601,1.3355903,103.7466569
TOYU MEDICAL CENTRE,BLK 351 JURONG EAST ST 31 Singapore,600351,1.3448616,103.7307969
TRACTORS SINGAPORE LTD (MEDICAL CLINIC),26 BENOI SECTOR (OFF PIONEER RD) Singapore,629858,1.3162279,103.6906171
TRINITY  MEDICAL CLINIC,BLK 32 DOVER RD Singapore,130032,1.3000649,103.7837288
TRINITY FAMILY CLINIC,BLK 151 SIMEI ST 1 Singapore,520151,1.3457587,103.9574094
TRINITY MEDICAL CLINIC & DENTAL SURGERY,BLK 130 JURONG EAST ST 13 Singapore,600130,1.334747,103.7392954
TWIN CITY MEDICAL CENTRE,1 KIM SENG PROMENADE Singapore,237994,1.2936891,103.8319512
UMCI IN-HOUSE CLINIC,NO 3 PASIR RIS DR 12 Singapore,519528,1.3796257,103.9321636
UNION CLINIC & SURGERY,BLK 722 CLEMENTI WEST ST 2 Singapore,120722,1.3027453,103.7635239
UNION FAMILY CLINIC,BLK 201D TAMPINES ST 23 Singapore,524201,1.3535032,103.9540724
UNITED CLINIC & SURGERY,BLK 8 TELOK BLANGAH CRESCENT Singapore,090008,1.2778549,103.8194072
UNITED HEALTH FAMILY CLINIC & SURGERY,BLK 627 YISHUN ST 61 Singapore,760627,1.4176952,103.836797
UNITED MEDICAL CLINIC,BLK 25 JLN BERSEH Singapore,200025,1.3062864,103.8581069
UNIVERSAL MEDICAL CLINIC,BLK 164 BUKIT BATOK ST 11 Singapore,650164,1.3477409,103.7428129
UNIVERSAL MEDICAL CLINIC,BLK 201E TAMPINES ST 23 Singapore,527201,1.3531703,103.9541458
UPPER SERANGOON CLINIC,1003 UPPER SERANGOON RD Singapore,534741,1.36248,103.887428
USRAH MEDICAL CLINIC,BLK 510 BEDOK NORTH ST 3 Singapore,460510,1.3322416,103.9310472
VALLEY MEDICAL CENTRE,240 RIVER VALLEY RD Singapore,238297,1.294043,103.8422655
VALLEY POINT CLINIC,491 RIVER VALLEY RD Singapore,248371,1.2931776,103.8271938
VERNON CLINIC & SURGERY,100 JALAN SULTAN Singapore,199001,1.3032484,103.8619363
VICTORIA MEDICAL CLINIC & SURGERY,BLK 285 YISHUN AVE 6 Singapore,760285,1.4399842,103.8393332
"VICTORIA MEDICAL HALL, CLINIC & SURGERY",328 NORTH BRIDGE RD Singapore,188719,1.2955861,103.8540165
VINEYARD MEDICAL CLINIC,10 JALAN SERENE Singapore,258748,1.3225807,103.8136111
VISTA MEDICAL CENTRE,3 SOUTH BUONA VISTA RD Singapore,118136,1.2797197,103.7859924
VIVIEN @ ROBINSON.PRACTICE,80 ROBINSON RD Singapore,068898,1.2800305,103.8492068
W KOH CLINIC,BLK 4 EVERTON PARK Singapore,080004,1.276937,103.840149
WAN'S DENTIST,272 JOO CHIAT RD Singapore,427526,1.3109191,103.9012015
WEE MEDICAL CLINIC,BLK 378 CLEMENTI AVE 5 Singapore,120378,1.3176349,103.767364
WEE'S FAMILY CLINIC & SURGERY,BLK 88 WHAMPOA DRIVE Singapore,320088,1.3227499,103.8554145
WEI MIN CLINIC,14 KENSINGTON PARK RD Singapore,557265,1.3652018,103.8661248
WELL MEDICAL & LASER SURGERY PTE LTD,BLK 739 PASIR RIS DR 10 Singapore,510739,1.3785172,103.9368543
WEN & WENG FAMILY CLINIC,BLK 505 CANBERRA LINK Singapore,750505,1.4502688,103.8228497
WEN & WENG MEDICAL GROUP,371 BEACH RD Singapore,199597,1.3022946,103.8623895
WESLEY FAMILY CLINIC AND SURGERY,BLK 265 BUKIT BATOK EAST AVE 4 Singapore,650265,1.3499142,103.7597406
WEST COAST CLINIC & SURGERY,BLK 517 WEST COAST RD Singapore,120517,1.3075861,103.7601899
WEST POINT CLINIC,BLK 853 JURONG WEST ST 81 Singapore,640853,1.3472386,103.6931068
WESTIN HOTEL STAFF CLINIC,2 STAMFORD RD Singapore,178882,1.2933597,103.8531036
WHAMPOA CLINIC,BLK 88 WHAMPOA DR Singapore,320088,1.3227499,103.8554145
WILMER CLINIC PRIVATE LIMITED,50 ARMENIAN STREET Singapore,179938,1.2943507,103.849603
WINSTEDT CLINIC,51 UPPER WELD RD Singapore,207408,1.306298,103.8533241
WONG FAMILY CLINIC & SURGERY,BLK 117 BEDOK RESERVOIR RD Singapore,470117,1.3314046,103.9087348
WOODLANDS CLINIC,BLK 131 MARSILING RISE Singapore,730131,1.4384526,103.7782964
WOODLANDS MEDICAL CENTRE & WOODLANDS DENTAL CLINI,BLK 210 MARSILING CRESCENT Singapore,730210,1.4461708,103.7736971
WOODS MEDICAL CLINIC (CHANGI),969A UPPER CHANGI ROAD NORTH Singapore,507667,1.360328,103.970375
WOODS MEDICAL CLINIC PTE LTD,20 EASTWOOD RD Singapore,486442,1.321592,103.9554587
WU LO CLINIC,BLK 149 SILAT AVENUE Singapore,160149,1.2774392,103.8318833
XINHUO MEDICAL CLINIC,BLK 731 YISHUN ST 72 Singapore,760731,1.4283169,103.8310968
Y M CHAN CLINIC & SURGERY,BLK 406 TAMPINES ST 41 Singapore,520406,1.3581418,103.945919
YANG CLINIC,970 GEYLANG RD Singapore,423492,1.315945,103.8972
YANG CLINIC & DENTAL SURGERY,14 D/E KENSINGTON PARK RD Singapore,557265,1.365312,103.8660795
YAO MEDICAL CLINIC,BLK 419 TAMPINES ST 41 Singapore,520419,1.3582652,103.9467122
YAP FAMILY CLINIC,BLK 132 MARSILING RISE Singapore,730132,1.4383074,103.7780248
YAP FAMILY CLINIC & SURGERY,BLK 232 ANG MO KIO AVE 3 Singapore,560232,1.3682103,103.8372499
YAP MEDICAL CLINIC,BLK 85 LOR 4 TOA PAYOH Singapore,310085,1.3363581,103.8484195
YAP MEDICARE CLINIC & SURGERY,BLK 8 EMPRESS RD Singapore,260008,1.3163339,103.8052796
YAU MEDICAL CLINIC PTE LTD,BLK 236 YISHUN RING ROAD Singapore,760236,1.4341163,103.8388803
YEO CLINIC,BLK 134 BT BATOK WEST AVE 6 Singapore,650134,1.3516111,103.7444427
YEO'S CLINIC,BLK 354 CLEMENTI AVE 2 Singapore,120354,1.3135272,103.7708724
YEW YING MEDICAL CLINIC & SURGERY,BLK 612 CLEMENTI WEST ST 1 Singapore,120612,1.3033858,103.7683928
YISHUN CENTRAL CLINIC,BLK 935 YISHUN CENTRAL 1 Singapore,760935,1.4251788,103.8366159
YISHUN MEDICAL & DENTAL CENTRE,BLK 618 YISHUN RING RD Singapore,760618,1.4188027,103.8356195
YISHUN MEDICAL AND DENTAL SURGERY,BLK 747 YISHUN ST 72 Singapore,760747,1.4282981,103.8333783
YONG CLINIC & SURGERY,BLK 632 YISHUN ST 61 Singapore,760632,1.4184883,103.8390615
YOONG FAMILY CLINIC & SURGERY,BLK 333 TAMPINES ST 32 Singapore,520333,1.3534959,103.9610358
YSL BEDOK (24 HR) CLINIC & SURGERY,BLK 539 BEDOK NORTH ST 3 Singapore,460539,1.3314711,103.9257531
YIO CHU KANG MRT CLINIC PTE LTD,3000 ANG MO KIO AVE 8 Singapore,569813,1.3817199,103.8450399
C & K FAMILY CLINIC PTE LTD,108 UPPER EAST COAST RD Singapore,455297,1.313281,103.92879
TWIN CITY MEDICAL GROUP PTE LTD,391B ORCHARD RD Singapore,238874,1.3027623,103.8342901
B H TAN MEDICAL CLINIC,619C BT TIMAH RD Singapore,269723,1.3244779,103.8092224
SHENTON MEDICAL GROUP,7500A BEACH RD Singapore,199591,1.299782,103.860659
HEALTH PARTNERS MEDICAL CLINIC (SIGLAP),23 UPPER EAST COAST ROAD Singapore,455289,1.312971,103.926153
HOSPICE CARE ASSOCIATION CLINIC,12 JLN TAN TOCK SENG Singapore,308437,1.3206177,103.8492
JINMIN CLINIC,430 CHANGI RD Singapore,419872,1.319028,103.912273
THE HALE MEDICAL CLINIC,300 BEACH RD Singapore,199555,1.3010505,103.8626595
THE JURONG DISPENSARY,BLK 449 CLEMENTI AVE 3 Singapore,120499,1.3134143,103.7648974
THE RAFFLESIAN CLINIC & SURGERY,252 NORTH BRIDGE RD Singapore,179103,1.2939208,103.8533896
K W CHAN MEDICAL CLINIC & SURGERY,77 UPPER EAST COAST RD Singapore,445218,1.3133533,103.9275347
KEPPEL MEDICAL GROUP,1 MARITIME SQUARE Singapore,99253,1.2642175,103.8203582
PULAU BUKOM CLINIC,NA PULAU BUKOM Singapore,903808,1.234572,103.7622268
SIA ALH CLINIC,25 AIRLINE RD Singapore,819829,1.3772009,103.997269
