school_name,address,postal_code,dgp_code,zone_code,lon,lat,SUBZONE_NO,SUBZONE_N,PLN_AREA_N,REGION_N
HWA CHONG INSTITUTION,661 BUKIT TIMAH ROAD Singapore,269734,BUKIT TIMAH,WEST,103.8059,1.324644,6,CORONATION ROAD,BUKIT TIMAH,CENTRAL REGION
MILLENNIA INSTITUTE,60 BUKIT BATOK WEST AVENUE 8 Singapore,658965,BUKIT BATOK,WEST,103.7417383,1.3510437,3,BRICKWORKS,BUKIT BATOK,WEST REGION
BUKIT PANJANG PRIMARY SCHOOL,109 CASHEW ROAD Singapore,679676,BUKIT PANJANG,WEST,103.7692713,1.372936,6,DAIRY FARM,BUKIT PANJANG,WEST REGION
HAIG GIRLS' SCHOOL,51 KOON SENG ROAD Singapore,427072,GEYLANG,EAST,103.9026249,1.3115593,5,GEYLANG EAST,GEYLANG,CENTRAL REGION
TECK WHYE PRIMARY SCHOOL,11 TECK WHYE WALK Singapore,688261,CHOA CHU KANG,WEST,103.753548,1.383126,1,TECK WHYE,CHOA CHU KANG,WEST REGION
JURONG PRIMARY SCHOOL,320 JURONG EAST STREET 32 Singapore,609476,JURONG EAST,WEST,103.732992,1.348679,1,YUHUA WEST,JURONG EAST,WEST REGION
QUEENSTOWN PRIMARY SCHOOL,310 MARGARET DR Singapore,149303,QUEENSTOWN,SOUTH,103.8076794,1.2958718,5,MARGARET DRIVE,QUEENSTOWN,CENTRAL REGION
RADIN MAS PRIMARY SCHOOL,1 BUKIT PURMEI AVENUE Singapore,099840,BUKIT MERAH,SOUTH,103.8240741,1.275094,15,TELOK BLANGAH RISE,BUKIT MERAH,CENTRAL REGION
RAFFLES GIRLS' PRIMARY SCHOOL,21 HILLCREST ROAD Singapore,289072,BUKIT TIMAH,SOUTH,103.8062274,1.3300317,5,HILLCREST,BUKIT TIMAH,CENTRAL REGION
ROSYTH SCHOOL,21 SERANGOON NORTH AVENUE 4 Singapore,555855,SERANGOON,NORTH,103.874589,1.3729091,3,SERANGOON NORTH,SERANGOON,NORTH-EAST REGION
DAMAI PRIMARY SCHOOL,52 BEDOK RESERVOIR CRESCENT Singapore,479226,BEDOK,EAST,103.9202895,1.3358357,2,BEDOK RESERVOIR,BEDOK,EAST REGION
FUHUA PRIMARY SCHOOL,65 JURONG EAST STREET 13 Singapore,609647,JURONG EAST,WEST,103.7364909,1.3365456,2,YUHUA EAST,JURONG EAST,WEST REGION
WOODLANDS PRIMARY SCHOOL,10 WOODLANDS DRIVE 50 Singapore,738853,WOODLANDS,NORTH,103.791794,1.436771,2,MIDVIEW,WOODLANDS,NORTH REGION
EUNOS PRIMARY SCHOOL,95 JALAN EUNOS Singapore,419529,GEYLANG,EAST,103.904727,1.324223,5,GEYLANG EAST,GEYLANG,CENTRAL REGION
HENRY PARK PRIMARY SCHOOL,1 HOLLAND GROVE ROAD Singapore,278790,BUKIT TIMAH,WEST,103.784132,1.3168709,4,ULU PANDAN,BUKIT TIMAH,CENTRAL REGION
BENDEMEER PRIMARY SCHOOL,91 BENDEMEER ROAD Singapore,339948,KALLANG,SOUTH,103.8652706,1.3219582,1,BENDEMEER,KALLANG,CENTRAL REGION
CORPORATION PRIMARY SCHOOL,31 JURONG WEST STREET 24 Singapore,648347,JURONG WEST,WEST,103.707576,1.351499,1,WENYA,JURONG WEST,WEST REGION
YIO CHU KANG PRIMARY SCHOOL,1 HOUGANG STREET 51 Singapore,538720,HOUGANG,NORTH,103.885447,1.3777919,5,TRAFALGAR,HOUGANG,NORTH-EAST REGION
BLANGAH RISE PRIMARY SCHOOL,91 TELOK BLANGAH HEIGHTS Singapore,109100,BUKIT MERAH,SOUTH,103.8084074,1.2762766,13,TELOK BLANGAH DRIVE,BUKIT MERAH,CENTRAL REGION
ANG MO KIO PRIMARY SCHOOL,20 ANG MO KIO AVENUE 3 Singapore,569920,ANG MO KIO,SOUTH,103.8392649,1.3694167,5,SHANGRI-LA,ANG MO KIO,NORTH-EAST REGION
MAYFLOWER PRIMARY SCHOOL,200 ANG MO KIO AVE 5 Singapore,569878,ANG MO KIO,SOUTH,103.843181,1.376395,6,KEBUN BAHRU,ANG MO KIO,NORTH-EAST REGION
TECK GHEE PRIMARY SCHOOL,1 ANG MO KIO STREET 32 Singapore,569299,ANG MO KIO,SOUTH,103.8505239,1.365396,4,TOWNSVILLE,ANG MO KIO,NORTH-EAST REGION
TEMASEK PRIMARY SCHOOL,501 BEDOK SOUTH AVE 3 Singapore,469300,BEDOK,EAST,103.945488,1.317502,6,BEDOK SOUTH,BEDOK,EAST REGION
SI LING PRIMARY SCHOOL,61 WOODLANDS AVENUE 1 Singapore,739067,WOODLANDS,NORTH,103.78577,1.432693,5,WOODGROVE,WOODLANDS,NORTH REGION
JING SHAN PRIMARY SCHOOL,5 ANG MO KIO ST 52 Singapore,569228,ANG MO KIO,SOUTH,103.851863,1.3714789,2,CHENG SAN,ANG MO KIO,NORTH-EAST REGION
YISHUN PRIMARY SCHOOL,500 YISHUN RING ROAD Singapore,768679,YISHUN,NORTH,103.834125,1.4334484,9,YISHUN WEST,YISHUN,NORTH REGION
STAMFORD PRIMARY SCHOOL,1 VICTORIA LANE Singapore,198423,CENTRAL,SOUTH,103.8572692,1.304116,4,ROCHOR CANAL,ROCHOR,CENTRAL REGION
FERNVALE PRIMARY SCHOOL,1 FERNVALE LANE Singapore,797701,SENG KANG,NORTH,103.873919,1.389948,6,FERNVALE,SENGKANG,NORTH-EAST REGION
TOWNSVILLE PRIMARY SCHOOL,3 ANG MO KIO AVE 10 Singapore,569730,ANG MO KIO,SOUTH,103.8537829,1.3600534,3,CHONG BOON,ANG MO KIO,NORTH-EAST REGION
RULANG PRIMARY SCHOOL,6 JURONG WEST STREET 52 Singapore,649295,JURONG WEST,WEST,103.718911,1.346187,3,HONG KAH,JURONG WEST,WEST REGION
QIFA PRIMARY SCHOOL,50 WEST COAST AVENUE Singapore,128104,CLEMENTI,WEST,103.7568857,1.3126176,5,WEST COAST,CLEMENTI,WEST REGION
ZHANGDE PRIMARY SCHOOL,51 JALAN MEMBINA Singapore,169485,BUKIT MERAH,SOUTH,103.8260335,1.2843455,4,TIONG BAHRU STATION,BUKIT MERAH,CENTRAL REGION
TAMPINES PRIMARY SCHOOL,250 TAMPINES STREET 12 Singapore,529426,TAMPINES,EAST,103.94402,1.349774,2,TAMPINES EAST,TAMPINES,EAST REGION
CHONGZHENG PRIMARY SCHOOL,1 TAMPINES STREET 21 Singapore,529392,TAMPINES,EAST,103.951438,1.350835,2,TAMPINES EAST,TAMPINES,EAST REGION
XINGHUA PRIMARY SCHOOL,45 HOUGANG AVENUE 1 Singapore,538882,HOUGANG,SOUTH,103.8901506,1.3578717,7,LORONG AH SOO,HOUGANG,NORTH-EAST REGION
JIEMIN PRIMARY SCHOOL,2 YISHUN STREET 71 Singapore,768515,YISHUN,NORTH,103.830502,1.4276007,9,YISHUN WEST,YISHUN,NORTH REGION
FUCHUN PRIMARY SCHOOL,23 WOODLANDS AVENUE 1 Singapore,739063,WOODLANDS,NORTH,103.778088,1.4302,5,WOODGROVE,WOODLANDS,NORTH REGION
BUKIT VIEW PRIMARY SCHOOL,18 BUKIT BATOK STREET 21 Singapore,659634,BUKIT BATOK,WEST,103.75348,1.3459352,7,BUKIT BATOK CENTRAL,BUKIT BATOK,WEST REGION
CEDAR PRIMARY SCHOOL,15 CEDAR AVENUE Singapore,349700,TOA PAYOH,SOUTH,103.8754605,1.3356131,11,SENNETT,TOA PAYOH,CENTRAL REGION
OPERA ESTATE PRIMARY SCHOOL,48 FIDELIO STREET Singapore,458436,BEDOK,EAST,103.9236436,1.3195034,5,FRANKEL,BEDOK,EAST REGION
RIVER VALLEY PRIMARY SCHOOL,2 RIVER VALLEY GREEN Singapore,237993,CENTRAL,SOUTH,103.8362883,1.2938988,5,INSTITUTION HILL,RIVER VALLEY,CENTRAL REGION
TELOK KURAU PRIMARY SCHOOL,50 BEDOK RESERVOIR RD Singapore,479239,BEDOK,EAST,103.9114083,1.3309135,1,KAKI BUKIT,BEDOK,EAST REGION
YUMIN PRIMARY SCHOOL,3 TAMPINES STREET 21 Singapore,529393,TAMPINES,EAST,103.9507462,1.3514701,2,TAMPINES EAST,TAMPINES,EAST REGION
SHUQUN PRIMARY SCHOOL,8 JURONG WEST STREET 51 Singapore,649332,JURONG WEST,WEST,103.7215779,1.347595,3,HONG KAH,JURONG WEST,WEST REGION
GAN ENG SENG PRIMARY SCHOOL,100 REDHILL CLOSE Singapore,158901,BUKIT MERAH,SOUTH,103.8153327,1.2858277,3,REDHILL,BUKIT MERAH,CENTRAL REGION
GONGSHANG PRIMARY SCHOOL,1 TAMPINES STREET 42 Singapore,529176,TAMPINES,EAST,103.948893,1.357339,2,TAMPINES EAST,TAMPINES,EAST REGION
HUAMIN PRIMARY SCHOOL,530 YISHUN RING ROAD Singapore,768680,YISHUN,NORTH,103.8447228,1.4278803,3,YISHUN EAST,YISHUN,NORTH REGION
XISHAN PRIMARY SCHOOL,8 YISHUN STREET 21 Singapore,768611,YISHUN,NORTH,103.8378387,1.4334989,2,NORTHLAND,YISHUN,NORTH REGION
PRINCESS ELIZABETH PRIMARY SCHOOL,30 BUKIT BATOK WEST AVENUE 3 Singapore,659163,BUKIT BATOK,WEST,103.74102,1.349481,6,BUKIT BATOK WEST,BUKIT BATOK,WEST REGION
DAZHONG PRIMARY SCHOOL,35 BUKIT BATOK STREET 31 Singapore,659441,BUKIT BATOK,WEST,103.7485279,1.359,2,HONG KAH NORTH,BUKIT BATOK,WEST REGION
BEDOK GREEN PRIMARY SCHOOL,1 BEDOK SOUTH AVE 2 Singapore,469317,BEDOK,EAST,103.9380502,1.3237397,6,BEDOK SOUTH,BEDOK,EAST REGION
LIANHUA PRIMARY SCHOOL,2 BUKIT BATOK STREET 52 Singapore,659243,BUKIT BATOK,WEST,103.754202,1.354143,4,GUILIN,BUKIT BATOK,WEST REGION
ZHONGHUA PRIMARY SCHOOL,12 SERANGOON AVENUE 4 Singapore,556095,SERANGOON,SOUTH,103.869558,1.359895,4,SERANGOON GARDEN,SERANGOON,NORTH-EAST REGION
PEIYING PRIMARY SCHOOL,651 YISHUN RING ROAD Singapore,768687,YISHUN,NORTH,103.8302303,1.4174051,8,KHATIB,YISHUN,NORTH REGION
KEMING PRIMARY SCHOOL,90 BUKIT BATOK EAST AVENUE 6 Singapore,659762,BUKIT BATOK,WEST,103.7562455,1.3454147,7,BUKIT BATOK CENTRAL,BUKIT BATOK,WEST REGION
CHANGKAT PRIMARY SCHOOL,11 SIMEI ST 3 Singapore,529896,TAMPINES,EAST,103.9521967,1.3401906,4,SIMEI,TAMPINES,EAST REGION
ZHENGHUA PRIMARY SCHOOL,9 FAJAR ROAD Singapore,679002,BUKIT PANJANG,WEST,103.769301,1.37957,3,FAJAR,BUKIT PANJANG,WEST REGION
SOUTH VIEW PRIMARY SCHOOL,6 CHOA CHU KANG CENTRAL Singapore,689762,CHOA CHU KANG,WEST,103.747145,1.381324,3,CHOA CHU KANG CENTRAL,CHOA CHU KANG,WEST REGION
PASIR RIS PRIMARY SCHOOL,5 PASIR RIS STREET 21 Singapore,518968,PASIR RIS,EAST,103.9628003,1.3722117,5,PASIR RIS DRIVE,PASIR RIS,EAST REGION
CHUA CHU KANG PRIMARY SCHOOL,20 CHOA CHU KANG AVENUE 2 Singapore,689905,CHOA CHU KANG,WEST,103.7417229,1.378056,2,KEAT HONG,CHOA CHU KANG,WEST REGION
GREENRIDGE PRIMARY SCHOOL,11 JELAPANG ROAD Singapore,677744,BUKIT PANJANG,WEST,103.7679301,1.3856591,2,SAUJANA,BUKIT PANJANG,WEST REGION
FARRER PARK PRIMARY SCHOOL,2 FARRER PARK ROAD Singapore,217567,KALLANG,SOUTH,103.8508273,1.3122933,7,KAMPONG JAVA,KALLANG,CENTRAL REGION
BUKIT TIMAH PRIMARY SCHOOL,111 LORONG KISMIS Singapore,598112,BUKIT TIMAH,WEST,103.766768,1.337385,1,ANAK BUKIT,BUKIT TIMAH,CENTRAL REGION
LAKESIDE PRIMARY SCHOOL,161 CORPORATION WALK Singapore,618310,JURONG WEST,WEST,103.718147,1.3384626,4,TAMAN JURONG,JURONG WEST,WEST REGION
BEACON PRIMARY SCHOOL,36 BUKIT PANJANG RING ROAD Singapore,679944,BUKIT PANJANG,WEST,103.77377,1.384235,4,BANGKIT,BUKIT PANJANG,WEST REGION
INNOVA PRIMARY SCHOOL,80 WOODLANDS DRIVE 17 Singapore,737888,WOODLANDS,NORTH,103.790631,1.428957,4,WOODLANDS SOUTH,WOODLANDS,NORTH REGION
GREENDALE PRIMARY SCHOOL,50 EDGEDALE PLAINS Singapore,828848,PUNGGOL,NORTH,103.9126762,1.396398,4,PUNGGOL FIELD,PUNGGOL,NORTH-EAST REGION
ENDEAVOUR PRIMARY SCHOOL,10 ADMIRALTY LINK Singapore,757521,SEMBAWANG,NORTH,103.8173695,1.4546184,4,SEMBAWANG NORTH,SEMBAWANG,NORTH REGION
NORTH VISTA PRIMARY SCHOOL,20 COMPASSVALE LINK Singapore,544974,SENG KANG,NORTH,103.8960478,1.3828084,5,COMPASSVALE,SENGKANG,NORTH-EAST REGION
ANCHOR GREEN PRIMARY SCHOOL,31 ANCHORVALE DRIVE Singapore,544969,SENG KANG,NORTH,103.8874074,1.3909254,4,ANCHORVALE,SENGKANG,NORTH-EAST REGION
HORIZON PRIMARY SCHOOL,61 EDGEDALE PLAINS Singapore,828819,PUNGGOL,NORTH,103.913058,1.400025,5,WATERWAY EAST,PUNGGOL,NORTH-EAST REGION
CANTONMENT PRIMARY SCHOOL,1 CANTONMENT CLOSE Singapore,088256,BUKIT MERAH,SOUTH,103.8400126,1.2754392,16,EVERTON PARK,BUKIT MERAH,CENTRAL REGION
FRONTIER PRIMARY SCHOOL,20 JURONG WEST STREET 61 Singapore,648200,JURONG WEST,WEST,103.6990865,1.3365813,9,JURONG WEST CENTRAL,JURONG WEST,WEST REGION
WESTWOOD PRIMARY SCHOOL,1 JURONG WEST STREET 73 Singapore,649188,JURONG WEST,WEST,103.7003201,1.3475751,8,YUNNAN,JURONG WEST,WEST REGION
PUNGGOL GREEN PRIMARY SCHOOL,98 PUNGGOL WALK Singapore,828772,PUNGGOL,EAST,103.8985774,1.4019149,3,MATILDA,PUNGGOL,NORTH-EAST REGION
PUNGGOL VIEW PRIMARY SCHOOL,9 PUNGGOL PLACE Singapore,828845,PUNGGOL,EAST,103.9051798,1.4052956,2,PUNGGOL TOWN CENTRE,PUNGGOL,NORTH-EAST REGION
SENGKANG GREEN PRIMARY SCHOOL,15 FERNVALE ROAD Singapore,797636,SENG KANG,EAST,103.8753898,1.392548,6,FERNVALE,SENGKANG,NORTH-EAST REGION
SPRINGDALE PRIMARY SCHOOL,71 ANCHORVALE LINK Singapore,544799,SENG KANG,EAST,103.8897326,1.3949665,4,ANCHORVALE,SENGKANG,NORTH-EAST REGION
PALM VIEW PRIMARY SCHOOL,150 COMPASSVALE BOW Singapore,544822,SENG KANG,NORTH,103.8907384,1.3835054,5,COMPASSVALE,SENGKANG,NORTH-EAST REGION
RIVERSIDE PRIMARY SCHOOL,110 WOODLANDS CRESCENT Singapore,737803,WOODLANDS,NORTH,103.8044982,1.4446036,3,WOODLANDS EAST,WOODLANDS,NORTH REGION
WEST SPRING PRIMARY SCHOOL,60 BUKIT PANJANG RING ROAD Singapore,679946,BUKIT PANJANG,WEST,103.7663052,1.3888971,2,SAUJANA,BUKIT PANJANG,WEST REGION
ALEXANDRA PRIMARY SCHOOL,2A PRINCE CHARLES CRESCENT Singapore,159016,BUKIT MERAH,SOUTH,103.8235297,1.2912968,6,ALEXANDRA NORTH,BUKIT MERAH,CENTRAL REGION
NORTHOAKS PRIMARY SCHOOL,61 SEMBAWANG DRIVE Singapore,757622,SEMBAWANG,NORTH,103.813826,1.456638,4,SEMBAWANG NORTH,SEMBAWANG,NORTH REGION
ANGSANA PRIMARY SCHOOL,3 TAMPINES STREET 22 Singapore,529366,TAMPINES,EAST,103.951859,1.348251,2,TAMPINES EAST,TAMPINES,EAST REGION
PUNGGOL COVE PRIMARY SCHOOL,52 SUMANG WALK Singapore,828674,PUNGGOL,EAST,103.895989,1.4082573,2,PUNGGOL TOWN CENTRE,PUNGGOL,NORTH-EAST REGION
OASIS PRIMARY SCHOOL,71 EDGEFIELD PLAINS Singapore,828716,PUNGGOL,EAST,103.9109619,1.404288,5,WATERWAY EAST,PUNGGOL,NORTH-EAST REGION
WATERWAY PRIMARY SCHOOL,70 PUNGGOL DRIVE Singapore,828802,PUNGGOL,EAST,103.9186176,1.3991315,5,WATERWAY EAST,PUNGGOL,NORTH-EAST REGION
FERN GREEN PRIMARY SCHOOL,70 FERNVALE LINK Singapore,797538,SENG KANG,EAST,103.8798637,1.3975315,6,FERNVALE,SENGKANG,NORTH-EAST REGION
FIRST TOA PAYOH PRIMARY SCHOOL,7 LORONG 8 TOA PAYOH Singapore,319252,TOA PAYOH,SOUTH,103.855651,1.340145,5,LORONG 8 TOA PAYOH,TOA PAYOH,CENTRAL REGION
NEW TOWN PRIMARY SCHOOL,300 TANGLIN HALT ROAD Singapore,148812,QUEENSTOWN,SOUTH,103.7998822,1.2999119,4,TANGLIN HALT,QUEENSTOWN,CENTRAL REGION
BOON LAY GARDEN PRIMARY SCHOOL,20 BOON LAY DRIVE Singapore,649930,JURONG WEST,WEST,103.712983,1.34287,2,BOON LAY PLACE,JURONG WEST,WEST REGION
MARSILING PRIMARY SCHOOL,31 WOODLANDS CENTRE ROAD Singapore,738927,WOODLANDS,NORTH,103.773663,1.433827,6,WOODLANDS WEST,WOODLANDS,NORTH REGION
PEI TONG PRIMARY SCHOOL,15 CLEMENTI AVENUE 5 Singapore,129857,CLEMENTI,SOUTH,103.767568,1.3160707,4,CLEMENTI NORTH,CLEMENTI,WEST REGION
YUHUA PRIMARY SCHOOL,158 JURONG EAST STREET 24 Singapore,609558,JURONG EAST,WEST,103.7406829,1.3428019,2,YUHUA EAST,JURONG EAST,WEST REGION
FENGSHAN PRIMARY SCHOOL,307 BEDOK NORTH ROAD Singapore,469680,BEDOK,EAST,103.9318916,1.3299176,4,BEDOK NORTH,BEDOK,EAST REGION
YU NENG PRIMARY SCHOOL,56 BEDOK NORTH ST 3 Singapore,469623,BEDOK,EAST,103.9324355,1.3338657,4,BEDOK NORTH,BEDOK,EAST REGION
XINMIN PRIMARY SCHOOL,9 HOUGANG AVENUE 8 Singapore,538784,HOUGANG,NORTH,103.8830289,1.371069,4,HOUGANG WEST,HOUGANG,NORTH-EAST REGION
YANGZHENG PRIMARY SCHOOL,15 SERANGOON AVENUE 3 Singapore,556108,SERANGOON,SOUTH,103.8682765,1.3488764,6,SERANGOON CENTRAL,SERANGOON,NORTH-EAST REGION
JUYING PRIMARY SCHOOL,31 JURONG WEST STREET 91 Singapore,649037,JURONG WEST,WEST,103.688061,1.33837,8,YUNNAN,JURONG WEST,WEST REGION
JUNYUAN PRIMARY SCHOOL,2 TAMPINES STREET 91 Singapore,528906,TAMPINES,EAST,103.940012,1.347973,3,TAMPINES WEST,TAMPINES,EAST REGION
NORTHLAND PRIMARY SCHOOL,15 YISHUN AVENUE 4 Singapore,769026,YISHUN,NORTH,103.8405561,1.4210098,4,YISHUN SOUTH,YISHUN,NORTH REGION
NAVAL BASE PRIMARY SCHOOL,7 YISHUN AVE 4 Singapore,769028,YISHUN,NORTH,103.8387445,1.4163264,4,YISHUN SOUTH,YISHUN,NORTH REGION
XINGNAN PRIMARY SCHOOL,5 JURONG WEST STREET 91 Singapore,649036,JURONG WEST,WEST,103.68778,1.34283,8,YUNNAN,JURONG WEST,WEST REGION
QIHUA PRIMARY SCHOOL,5 WOODLANDS STREET 81 Singapore,738525,WOODLANDS,NORTH,103.788557,1.442105,2,MIDVIEW,WOODLANDS,NORTH REGION
GUANGYANG PRIMARY SCHOOL,6 BISHAN STREET 12 Singapore,579806,BISHAN,SOUTH,103.849315,1.345887,3,BISHAN EAST,BISHAN,CENTRAL REGION
TAMPINES NORTH PRIMARY SCHOOL,30 TAMPINES AVENUE 9 Singapore,529565,TAMPINES,EAST,103.948581,1.360298,2,TAMPINES EAST,TAMPINES,EAST REGION
ELIAS PARK PRIMARY SCHOOL,11 PASIR RIS STREET 52 Singapore,518866,PASIR RIS,EAST,103.9452385,1.3749538,3,PASIR RIS CENTRAL,PASIR RIS,EAST REGION
AHMAD IBRAHIM PRIMARY SCHOOL,10 YISHUN STREET 11 Singapore,768643,YISHUN,NORTH,103.8330381,1.4337487,9,YISHUN WEST,YISHUN,NORTH REGION
NORTH VIEW PRIMARY SCHOOL,210 YISHUN AVENUE 6 Singapore,768960,YISHUN,NORTH,103.8485274,1.4277102,3,YISHUN EAST,YISHUN,NORTH REGION
PIONEER PRIMARY SCHOOL,23 JURONG WEST STREET 81 Singapore,649076,JURONG WEST,WEST,103.694609,1.348486,8,YUNNAN,JURONG WEST,WEST REGION
PUNGGOL PRIMARY SCHOOL,61 HOUGANG AVENUE 8 Singapore,538787,HOUGANG,SOUTH,103.894746,1.37819,3,HOUGANG EAST,HOUGANG,NORTH-EAST REGION
PARK VIEW PRIMARY SCHOOL,60 PASIR RIS DRIVE 1 Singapore,519524,PASIR RIS,EAST,103.939371,1.377331,2,PASIR RIS WEST,PASIR RIS,EAST REGION
ADMIRALTY PRIMARY SCHOOL,11 WOODLANDS CIRCLE Singapore,738907,WOODLANDS,NORTH,103.8004349,1.4430507,3,WOODLANDS EAST,WOODLANDS,NORTH REGION
KRANJI PRIMARY SCHOOL,11 CHOA CHU KANG STREET 54 Singapore,689189,CHOA CHU KANG,WEST,103.7477849,1.393694,5,CHOA CHU KANG NORTH,CHOA CHU KANG,WEST REGION
SENG KANG PRIMARY SCHOOL,21 COMPASSVALE WALK Singapore,545166,SENG KANG,NORTH,103.899471,1.389086,3,SENGKANG TOWN CENTRE,SENGKANG,NORTH-EAST REGION
WOODLANDS RING PRIMARY SCHOOL,11 WOODLANDS RING ROAD Singapore,738240,WOODLANDS,NORTH,103.797928,1.434839,3,WOODLANDS EAST,WOODLANDS,NORTH REGION
WEST VIEW PRIMARY SCHOOL,31 SENJA ROAD Singapore,677742,BUKIT PANJANG,WEST,103.7603257,1.383358,1,SENJA,BUKIT PANJANG,WEST REGION
WHITE SANDS PRIMARY SCHOOL,2 PASIR RIS ST 11 Singapore,519075,PASIR RIS,EAST,103.961329,1.364903,5,PASIR RIS DRIVE,PASIR RIS,EAST REGION
UNITY PRIMARY SCHOOL,21 CHOA CHU KANG CRESCENT Singapore,688268,CHOA CHU KANG,WEST,103.74729,1.403245,6,YEW TEE,CHOA CHU KANG,WEST REGION
CANBERRA PRIMARY SCHOOL,21 ADMIRALTY DRIVE Singapore,757714,SEMBAWANG,NORTH,103.8156488,1.4511784,4,SEMBAWANG NORTH,SEMBAWANG,NORTH REGION
RIVERVALE PRIMARY SCHOOL,80 RIVERVALE DRIVE Singapore,545092,SENG KANG,NORTH,103.904383,1.393196,2,RIVERVALE,SENGKANG,NORTH-EAST REGION
JURONG WEST PRIMARY SCHOOL,30 JURONG WEST ST 61 Singapore,648368,JURONG WEST,WEST,103.698854,1.339037,9,JURONG WEST CENTRAL,JURONG WEST,WEST REGION
EAST SPRING PRIMARY SCHOOL,31 TAMPINES ST 33 Singapore,529258,TAMPINES,EAST,103.961799,1.35349,2,TAMPINES EAST,TAMPINES,EAST REGION
EVERGREEN PRIMARY SCHOOL,31 WOODLANDS CIRCLE Singapore,738908,WOODLANDS,NORTH,103.795038,1.444082,3,WOODLANDS EAST,WOODLANDS,NORTH REGION
COMPASSVALE PRIMARY SCHOOL,21 COMPASSVALE ST Singapore,545091,SENG KANG,NORTH,103.898003,1.3944615,3,SENGKANG TOWN CENTRE,SENGKANG,NORTH-EAST REGION
WOODGROVE PRIMARY SCHOOL,2 WOODLANDS DRIVE 14 Singapore,738079,WOODLANDS,NORTH,103.7904291,1.4331667,4,WOODLANDS SOUTH,WOODLANDS,NORTH REGION
SEMBAWANG PRIMARY SCHOOL,10 SEMBAWANG DRIVE Singapore,757715,SEMBAWANG,NORTH,103.8211733,1.4454915,3,SEMBAWANG CENTRAL,SEMBAWANG,NORTH REGION
CONCORD PRIMARY SCHOOL,3 CHOA CHU KANG AVE 4 Singapore,689814,CHOA CHU KANG,WEST,103.745047,1.3852291,3,CHOA CHU KANG CENTRAL,CHOA CHU KANG,WEST REGION
NORTH SPRING PRIMARY SCHOOL,1 RIVERVALE STREET Singapore,545088,SENG KANG,NORTH,103.903609,1.386881,2,RIVERVALE,SENGKANG,NORTH-EAST REGION
YEW TEE PRIMARY SCHOOL,10 CHOA CHU KANG ST 64 Singapore,689100,CHOA CHU KANG,WEST,103.751221,1.396985,6,YEW TEE,CHOA CHU KANG,WEST REGION
HOUGANG PRIMARY SCHOOL,1 HOUGANG ST 93 Singapore,534238,HOUGANG,NORTH,103.881046,1.37734,5,TRAFALGAR,HOUGANG,NORTH-EAST REGION
MERIDIAN PRIMARY SCHOOL,20 PASIR RIS ST 71 Singapore,518798,PASIR RIS,EAST,103.9352781,1.3762831,2,PASIR RIS WEST,PASIR RIS,EAST REGION
GREENWOOD PRIMARY SCHOOL,11 WOODLANDS  DR  62 Singapore,737942,WOODLANDS,NORTH,103.804609,1.43985,3,WOODLANDS EAST,WOODLANDS,NORTH REGION
ANDERSON PRIMARY SCHOOL,19 ANG MO KIO AVE 9 Singapore,569785,ANG MO KIO,NORTH,103.841225,1.384692,9,YIO CHU KANG WEST,ANG MO KIO,NORTH-EAST REGION
WELLINGTON PRIMARY SCHOOL,10 WELLINGTON CIRCLE Singapore,757702,SEMBAWANG,NORTH,103.8222601,1.4519448,5,ADMIRALTY,SEMBAWANG,NORTH REGION
EDGEFIELD PRIMARY SCHOOL,41 EDGEFIELD PLAINS Singapore,828869,PUNGGOL,NORTH,103.9076926,1.4004367,4,PUNGGOL FIELD,PUNGGOL,NORTH-EAST REGION
WEST GROVE PRIMARY SCHOOL,1 JURONG WEST ST 72 Singapore,649223,JURONG WEST,WEST,103.698987,1.34455,8,YUNNAN,JURONG WEST,WEST REGION
CASUARINA PRIMARY SCHOOL,30 PASIR RIS ST 41 Singapore,518935,PASIR RIS,EAST,103.9570205,1.3725006,5,PASIR RIS DRIVE,PASIR RIS,EAST REGION
CLEMENTI PRIMARY SCHOOL,8 CLEMENTI AVE 3 Singapore,129903,CLEMENTI,WEST,103.7632163,1.3155074,6,CLEMENTI CENTRAL,CLEMENTI,WEST REGION
TANJONG KATONG PRIMARY SCHOOL,860 NEW UPPER CHANGI ROAD Singapore,467353,MARINE PARADE,EAST,103.93895500000001,1.3247024,6,BEDOK SOUTH,BEDOK,EAST REGION
ANDERSON SECONDARY SCHOOL,10 ANG MO KIO STREET 53 Singapore,569206,ANG MO KIO,NORTH,103.8516001,1.3750929,2,CHENG SAN,ANG MO KIO,NORTH-EAST REGION
BARTLEY SECONDARY SCHOOL,10 JALAN BUNGA RAMPAI Singapore,538403,TOA PAYOH,SOUTH,103.882831,1.340275,12,JOO SENG,TOA PAYOH,CENTRAL REGION
BEATTY SECONDARY SCHOOL,1 TOA PAYOH NORTH Singapore,318990,TOA PAYOH,SOUTH,103.851956,1.34154,3,BRADDELL,TOA PAYOH,CENTRAL REGION
CEDAR GIRLS' SECONDARY SCHOOL,1 CEDAR AVENUE Singapore,349692,TOA PAYOH,EAST,103.874242,1.333751,11,SENNETT,TOA PAYOH,CENTRAL REGION
CRESCENT GIRLS' SCHOOL,357 TANGLIN ROAD Singapore,247961,BUKIT MERAH,SOUTH,103.8178223,1.2934751,6,ALEXANDRA NORTH,BUKIT MERAH,CENTRAL REGION
GAN ENG SENG SCHOOL,1 HENDERSON ROAD Singapore,159561,BUKIT MERAH,SOUTH,103.823528,1.2895675,8,HENDERSON HILL,BUKIT MERAH,CENTRAL REGION
QUEENSWAY SECONDARY SCHOOL,2A MARGARET DRIVE Singapore,149295,QUEENSTOWN,SOUTH,103.8019743,1.3005119,5,MARGARET DRIVE,QUEENSTOWN,CENTRAL REGION
RAFFLES GIRLS' SCHOOL (SECONDARY),20 ANDERSON ROAD Singapore,259978,CENTRAL,SOUTH,103.8287358,1.311665,1,ORANGE GROVE,NEWTON,CENTRAL REGION
RAFFLES INSTITUTION,1 RAFFLES INSTITUTION LANE Singapore,575954,BISHAN,SOUTH,103.8432556,1.3466384,2,MARYMOUNT,BISHAN,CENTRAL REGION
SERANGOON SECONDARY SCHOOL,11 UPPER SERANGOON VIEW Singapore,534237,HOUGANG,NORTH,103.9022635,1.3748927,2,KANGKAR,HOUGANG,NORTH-EAST REGION
COMMONWEALTH SECONDARY SCHOOL,698 WEST COAST ROAD Singapore,608784,JURONG EAST,WEST,103.7455916,1.3189295,8,TEBAN GARDENS,JURONG EAST,WEST REGION
TANJONG KATONG GIRLS' SCHOOL,2 BEDOK SOUTH ROAD Singapore,469268,MARINE PARADE,EAST,103.926756,1.3220605,5,FRANKEL,BEDOK,EAST REGION
VICTORIA SCHOOL,2 SIGLAP LINK Singapore,448880,BEDOK,EAST,103.9275012,1.3085839,7,SIGLAP,BEDOK,EAST REGION
WHITLEY SECONDARY SCHOOL,30 BISHAN STREET 24 Singapore,579747,BISHAN,SOUTH,103.843265,1.355497,2,MARYMOUNT,BISHAN,CENTRAL REGION
YUHUA SECONDARY SCHOOL,35 JURONG WEST STREET 41 Singapore,649406,JURONG WEST,WEST,103.722405,1.347026,3,HONG KAH,JURONG WEST,WEST REGION
YISHUN SECONDARY SCHOOL,4 YISHUN STREET 71 Singapore,768516,YISHUN,NORTH,103.828833,1.428129,9,YISHUN WEST,YISHUN,NORTH REGION
BENDEMEER SECONDARY SCHOOL,1 ST WILFRED ROAD Singapore,327919,KALLANG,SOUTH,103.8606585,1.3245246,1,BENDEMEER,KALLANG,CENTRAL REGION
FUCHUN SECONDARY SCHOOL,21 WOODLANDS AVENUE 1 Singapore,739062,WOODLANDS,NORTH,103.777326,1.430948,5,WOODGROVE,WOODLANDS,NORTH REGION
ANG MO KIO SECONDARY SCHOOL,6 ANG MO KIO STREET 22 Singapore,569362,ANG MO KIO,SOUTH,103.8426103,1.3677825,5,SHANGRI-LA,ANG MO KIO,NORTH-EAST REGION
BEDOK SOUTH SECONDARY SCHOOL,1 JALAN LANGGAR BEDOK Singapore,468585,BEDOK,EAST,103.950977,1.3248089,6,BEDOK SOUTH,BEDOK,EAST REGION
CLEMENTI TOWN SECONDARY SCHOOL,10 CLEMENTI AVE 3 Singapore,129904,CLEMENTI,WEST,103.7618194,1.3154809,6,CLEMENTI CENTRAL,CLEMENTI,WEST REGION
TEMASEK SECONDARY SCHOOL,600 UPPER EAST COAST ROAD Singapore,465561,BEDOK,EAST,103.9471669,1.3157589,8,BAYSHORE,BEDOK,EAST REGION
MAYFLOWER SECONDARY SCHOOL,2 ANG MO KIO STREET 21 Singapore,569384,ANG MO KIO,SOUTH,103.835438,1.368331,5,SHANGRI-LA,ANG MO KIO,NORTH-EAST REGION
TAMPINES SECONDARY SCHOOL,252 TAMPINES ST 12 Singapore,529427,TAMPINES,EAST,103.9439474,1.3498263,2,TAMPINES EAST,TAMPINES,EAST REGION
BUKIT VIEW SECONDARY SCHOOL,16 BUKIT BATOK STREET 21 Singapore,659633,BUKIT BATOK,WEST,103.7521004,1.345925,7,BUKIT BATOK CENTRAL,BUKIT BATOK,WEST REGION
WOODLANDS SECONDARY SCHOOL,11 MARSILING ROAD Singapore,739111,WOODLANDS,NORTH,103.774208,1.439565,6,WOODLANDS WEST,WOODLANDS,NORTH REGION
BOWEN SECONDARY SCHOOL,2 LORONG NAPIRI Singapore,547529,HOUGANG,NORTH,103.877649,1.370117,4,HOUGANG WEST,HOUGANG,NORTH-EAST REGION
BUKIT BATOK SECONDARY SCHOOL,50 BUKIT BATOK WEST AVE 8 Singapore,658962,BUKIT BATOK,WEST,103.740867,1.348506,6,BUKIT BATOK WEST,BUKIT BATOK,WEST REGION
YISHUN TOWN SECONDARY SCHOOL,6 YISHUN STREET 21 Singapore,768610,YISHUN,NORTH,103.8384727,1.4325411,2,NORTHLAND,YISHUN,NORTH REGION
HOUGANG SECONDARY SCHOOL,2 HOUGANG STREET 93 Singapore,534256,HOUGANG,NORTH,103.88253,1.377661,5,TRAFALGAR,HOUGANG,NORTH-EAST REGION
NAN HUA HIGH SCHOOL,41 CLEMENTI AVENUE 1 Singapore,129956,CLEMENTI,WEST,103.769189,1.30807,7,CLEMENTI WOODS,CLEMENTI,WEST REGION
HILLGROVE SECONDARY SCHOOL,10 BUKIT BATOK STREET 52 Singapore,659250,BUKIT BATOK,WEST,103.752785,1.35277,4,GUILIN,BUKIT BATOK,WEST REGION
XINMIN SECONDARY SCHOOL,11 HOUGANG AVENUE 8 Singapore,538789,HOUGANG,NORTH,103.883077,1.372635,4,HOUGANG WEST,HOUGANG,NORTH-EAST REGION
GREENRIDGE SECONDARY SCHOOL,32 BUKIT PANJANG RING ROAD Singapore,679938,BUKIT PANJANG,WEST,103.773836,1.38206,4,BANGKIT,BUKIT PANJANG,WEST REGION
SPRINGFIELD SECONDARY SCHOOL,30 TAMPINES AVENUE 8 Singapore,529593,TAMPINES,EAST,103.9300788,1.3498342,3,TAMPINES WEST,TAMPINES,EAST REGION
CHUA CHU KANG SECONDARY SCHOOL,3 TECK WHYE CRESCENT Singapore,688845,CHOA CHU KANG,WEST,103.7525502,1.3825531,1,TECK WHYE,CHOA CHU KANG,WEST REGION
DAMAI SECONDARY SCHOOL,4800 BEDOK RESERVOIR ROAD Singapore,479229,BEDOK,EAST,103.927061,1.336405,2,BEDOK RESERVOIR,BEDOK,EAST REGION
NORTHLAND SECONDARY SCHOOL,3 YISHUN STREET 22 Singapore,768578,YISHUN,NORTH,103.840098,1.435827,2,NORTHLAND,YISHUN,NORTH REGION
PEIRCE SECONDARY SCHOOL,10 SIN MING WALK Singapore,575566,BISHAN,SOUTH,103.829903,1.36613,1,UPPER THOMSON,BISHAN,CENTRAL REGION
JURONGVILLE SECONDARY SCHOOL,202 JURONG EAST AVENUE 1 Singapore,609790,JURONG EAST,WEST,103.729161,1.351493,1,YUHUA WEST,JURONG EAST,WEST REGION
FAJAR SECONDARY SCHOOL,31 GANGSA ROAD Singapore,678972,BUKIT PANJANG,WEST,103.7644367,1.3753749,5,JELEBU,BUKIT PANJANG,WEST REGION
KRANJI SECONDARY SCHOOL,38 TECK WHYE CRESCENT Singapore,688945,CHOA CHU KANG,WEST,103.756524,1.381679,1,TECK WHYE,CHOA CHU KANG,WEST REGION
JUYING SECONDARY SCHOOL,33 JURONG WEST STREET 91 Singapore,649038,JURONG WEST,WEST,103.6871273,1.3386025,8,YUNNAN,JURONG WEST,WEST REGION
WEST SPRING SECONDARY SCHOOL,61 SENJA  ROAD Singapore,677737,BUKIT PANJANG,WEST,103.760018,1.387707,1,SENJA,BUKIT PANJANG,WEST REGION
JURONG WEST SECONDARY SCHOOL,61 JURONG WEST STREET 65 Singapore,648348,JURONG WEST,WEST,103.702086,1.335276,9,JURONG WEST CENTRAL,JURONG WEST,WEST REGION
BEDOK GREEN SECONDARY SCHOOL,360 BEDOK NORTH AVE 3 Singapore,469722,BEDOK,EAST,103.935336,1.3341416,4,BEDOK NORTH,BEDOK,EAST REGION
PUNGGOL SECONDARY SCHOOL,51 EDGEFIELD PLAINS Singapore,828870,PUNGGOL,NORTH,103.909443,1.402069,5,WATERWAY EAST,PUNGGOL,NORTH-EAST REGION
NORTH VISTA SECONDARY SCHOOL,11 RIVERVALE LINK Singapore,545081,SENG KANG,NORTH,103.8990751,1.38121,2,RIVERVALE,SENGKANG,NORTH-EAST REGION
ADMIRALTY SECONDARY SCHOOL,31 WOODLANDS CRESCENT Singapore,737916,WOODLANDS,NORTH,103.8026082,1.4462673,3,WOODLANDS EAST,WOODLANDS,NORTH REGION
PEI HWA SECONDARY SCHOOL,21 FERNVALE LINK Singapore,797702,SENG KANG,NORTH,103.8785975,1.3907376,6,FERNVALE,SENGKANG,NORTH-EAST REGION
GREENDALE SECONDARY SCHOOL,51 EDGEDALE PLAINS Singapore,828866,PUNGGOL,NORTH,103.9117179,1.396986,4,PUNGGOL FIELD,PUNGGOL,NORTH-EAST REGION
EDGEFIELD SECONDARY SCHOOL,36 PUNGGOL FIELD Singapore,828814,PUNGGOL,NORTH,103.902302,1.399882,3,MATILDA,PUNGGOL,NORTH-EAST REGION
MERIDIAN SECONDARY SCHOOL,31 PASIR RIS STREET 51 Singapore,518901,PASIR RIS,EAST,103.949261,1.3671009,3,PASIR RIS CENTRAL,PASIR RIS,EAST REGION
LOYANG VIEW SECONDARY SCHOOL,12 PASIR RIS STREET 11 Singapore,519073,PASIR RIS,EAST,103.956826,1.366972,5,PASIR RIS DRIVE,PASIR RIS,EAST REGION
DUNMAN HIGH SCHOOL,10 TANJONG RHU ROAD Singapore,436895,KALLANG,EAST,103.8835308,1.2982166,5,TANJONG RHU,KALLANG,CENTRAL REGION
RIVER VALLEY HIGH SCHOOL,6 BOON LAY AVENUE Singapore,649961,JURONG WEST,WEST,103.709695,1.3431764,2,BOON LAY PLACE,JURONG WEST,WEST REGION
AHMAD IBRAHIM SECONDARY SCHOOL,751 YISHUN AVENUE 7 Singapore,768928,YISHUN,NORTH,103.8299804,1.4364306,9,YISHUN WEST,YISHUN,NORTH REGION
BROADRICK SECONDARY SCHOOL,61 DAKOTA CRESCENT Singapore,399935,GEYLANG,EAST,103.8866552,1.307525,4,ALJUNIED,GEYLANG,CENTRAL REGION
BUKIT MERAH SECONDARY SCHOOL,10 LENGKOK BAHRU Singapore,159050,BUKIT MERAH,SOUTH,103.81344,1.285583,7,ALEXANDRA HILL,BUKIT MERAH,CENTRAL REGION
BUKIT PANJANG GOVT. HIGH SCHOOL,7 CHOA CHU KANG AVE 4 Singapore,689809,CHOA CHU KANG,WEST,103.738424,1.38166,4,PENG SIANG,CHOA CHU KANG,WEST REGION
DUNMAN SECONDARY SCHOOL,21 TAMPINES STREET 45 Singapore,529093,TAMPINES,EAST,103.956206,1.360673,2,TAMPINES EAST,TAMPINES,EAST REGION
JURONG SECONDARY SCHOOL,31 YUAN CHING ROAD Singapore,618652,JURONG WEST,WEST,103.7239048,1.3305084,4,TAMAN JURONG,JURONG WEST,WEST REGION
NAVAL BASE SECONDARY SCHOOL,901 YISHUN RING ROAD Singapore,768689,YISHUN,NORTH,103.8310319,1.41924,8,KHATIB,YISHUN,NORTH REGION
OUTRAM SECONDARY SCHOOL,3 YORK HILL Singapore,168622,CENTRAL,SOUTH,103.837091,1.286507,1,PEARL'S HILL,OUTRAM,CENTRAL REGION
YIO CHU KANG SECONDARY SCHOOL,3063 ANG MO KIO AVENUE 5 Singapore,569868,ANG MO KIO,NORTH,103.842103,1.377635,9,YIO CHU KANG WEST,ANG MO KIO,NORTH-EAST REGION
YUAN CHING SECONDARY SCHOOL,103 YUAN CHING ROAD Singapore,618654,JURONG WEST,WEST,103.720994,1.341917,4,TAMAN JURONG,JURONG WEST,WEST REGION
BOON LAY SECONDARY SCHOOL,11 JURONG WEST STREET 65 Singapore,648354,JURONG WEST,WEST,103.701945,1.342172,9,JURONG WEST CENTRAL,JURONG WEST,WEST REGION
BEDOK VIEW SECONDARY SCHOOL,6 BEDOK SOUTH AVENUE 3 Singapore,469293,BEDOK,EAST,103.9438629,1.3246274,6,BEDOK SOUTH,BEDOK,EAST REGION
HUA YI SECONDARY SCHOOL,60 JURONG WEST ST 42 Singapore,649371,JURONG WEST,WEST,103.72158,1.351473,3,HONG KAH,JURONG WEST,WEST REGION
DEYI SECONDARY SCHOOL,1 ANG MO KIO STREET 42 Singapore,569277,ANG MO KIO,NORTH,103.852329,1.365893,3,CHONG BOON,ANG MO KIO,NORTH-EAST REGION
PING YI SECONDARY SCHOOL,61 CHAI CHEE STREET Singapore,468980,BEDOK,EAST,103.920426,1.3278983,3,KEMBANGAN,BEDOK,EAST REGION
PEICAI SECONDARY SCHOOL,10 SERANGOON AVENUE 4 Singapore,556094,SERANGOON,SOUTH,103.8704861,1.3593733,4,SERANGOON GARDEN,SERANGOON,NORTH-EAST REGION
PASIR RIS SECONDARY SCHOOL,390 TAMPINES STREET 21 Singapore,529400,TAMPINES,EAST,103.948533,1.354757,2,TAMPINES EAST,TAMPINES,EAST REGION
GUANGYANG SECONDARY SCHOOL,8 BISHAN STREET 12 Singapore,579807,BISHAN,SOUTH,103.850566,1.344693,3,BISHAN EAST,BISHAN,CENTRAL REGION
RIVERSIDE SECONDARY SCHOOL,3 WOODLANDS STREET 81 Singapore,738524,WOODLANDS,NORTH,103.788591,1.4404834,2,MIDVIEW,WOODLANDS,NORTH REGION
ZHONGHUA SECONDARY SCHOOL,13 SERANGOON AVENUE 3 Singapore,556123,SERANGOON,SOUTH,103.8694885,1.3486694,6,SERANGOON CENTRAL,SERANGOON,NORTH-EAST REGION
SWISS COTTAGE SECONDARY SCHOOL,3 BUKIT BATOK STREET 34 Singapore,659322,BUKIT BATOK,WEST,103.75064,1.36469,2,HONG KAH NORTH,BUKIT BATOK,WEST REGION
YUSOF ISHAK SECONDARY SCHOOL,11 BUKIT BATOK STREET 25 Singapore,658712,BUKIT BATOK,WEST,103.760309,1.342423,9,BUKIT BATOK SOUTH,BUKIT BATOK,WEST REGION
CHANGKAT CHANGI SECONDARY SCHOOL,23 SIMEI ST 3 Singapore,529894,TAMPINES,EAST,103.952619,1.340939,4,SIMEI,TAMPINES,EAST REGION
TECK WHYE SECONDARY SCHOOL,31 TECK WHYE CRESCENT Singapore,688848,CHOA CHU KANG,WEST,103.755214,1.382536,1,TECK WHYE,CHOA CHU KANG,WEST REGION
DUNEARN SECONDARY SCHOOL,21 BUKIT BATOK WEST AVENUE 2 Singapore,659204,BUKIT BATOK,WEST,103.7449283,1.3634532,2,HONG KAH NORTH,BUKIT BATOK,WEST REGION
NEW TOWN SECONDARY SCHOOL,1020 DOVER ROAD Singapore,139657,QUEENSTOWN,WEST,103.7736048,1.3091505,9,SINGAPORE POLYTECHNIC,QUEENSTOWN,CENTRAL REGION
QUEENSTOWN SECONDARY SCHOOL,1 STRATHMORE ROAD Singapore,148800,QUEENSTOWN,SOUTH,103.8132036,1.2938664,5,MARGARET DRIVE,QUEENSTOWN,CENTRAL REGION
SERANGOON GARDEN SECONDARY SCHOOL,21 SERANGOON NORTH AVENUE 1 Singapore,555889,SERANGOON,SOUTH,103.868983,1.36967,4,SERANGOON GARDEN,SERANGOON,NORTH-EAST REGION
TANGLIN SECONDARY SCHOOL,301 WEST COAST ROAD Singapore,127391,CLEMENTI,SOUTH,103.7581531,1.3096831,8,CLEMENTI WEST,CLEMENTI,WEST REGION
TANJONG KATONG SECONDARY SCHOOL,130 HAIG ROAD Singapore,438796,MARINE PARADE,EAST,103.897257,1.3086279,2,KATONG,MARINE PARADE,CENTRAL REGION
WOODLANDS RING SECONDARY SCHOOL,10 WOODLANDS RING ROAD Singapore,738239,WOODLANDS,NORTH,103.8007288,1.4364147,3,WOODLANDS EAST,WOODLANDS,NORTH REGION
ORCHID PARK SECONDARY SCHOOL,10 YISHUN STREET 81 Singapore,768454,YISHUN,NORTH,103.8383822,1.4153017,4,YISHUN SOUTH,YISHUN,NORTH REGION
SEMBAWANG SECONDARY SCHOOL,30 SEMBAWANG CRESCENT Singapore,757704,SEMBAWANG,NORTH,103.8170072,1.4459577,3,SEMBAWANG CENTRAL,SEMBAWANG,NORTH REGION
SENG KANG SECONDARY SCHOOL,10 COMPASSVALE LANE Singapore,545090,SENG KANG,NORTH,103.897892,1.386517,3,SENGKANG TOWN CENTRE,SENGKANG,NORTH-EAST REGION
JUNYUAN SECONDARY SCHOOL,11 TAMPINES STREET 84 Singapore,528933,TAMPINES,EAST,103.9335232,1.3533278,3,TAMPINES WEST,TAMPINES,EAST REGION
EAST SPRING SECONDARY SCHOOL,30 TAMPINES STREET 34 Singapore,529231,TAMPINES,EAST,103.960586,1.3559969,2,TAMPINES EAST,TAMPINES,EAST REGION
UNITY SECONDARY SCHOOL,20 CHOA CHU KANG STREET 62 Singapore,689143,CHOA CHU KANG,WEST,103.746125,1.40005,6,YEW TEE,CHOA CHU KANG,WEST REGION
NORTHBROOKS SECONDARY SCHOOL,585 YISHUN RING ROAD Singapore,768692,YISHUN,NORTH,103.8450852,1.4209822,3,YISHUN EAST,YISHUN,NORTH REGION
PASIR RIS CREST SECONDARY SCHOOL,11 PASIR RIS STREET 41 Singapore,518934,PASIR RIS,EAST,103.9593862,1.3724026,5,PASIR RIS DRIVE,PASIR RIS,EAST REGION
FUHUA SECONDARY SCHOOL,5 JURONG WEST STREET 41 Singapore,649410,JURONG WEST,WEST,103.726756,1.346902,3,HONG KAH,JURONG WEST,WEST REGION
MARSILING SECONDARY SCHOOL,12 MARSILING ROAD Singapore,739110,WOODLANDS,NORTH,103.7763303,1.4381054,6,WOODLANDS WEST,WOODLANDS,NORTH REGION
WOODGROVE SECONDARY SCHOOL,3 WOODLANDS AVENUE 6 Singapore,738990,WOODLANDS,NORTH,103.796334,1.4280679,4,WOODLANDS SOUTH,WOODLANDS,NORTH REGION
ZHENGHUA SECONDARY SCHOOL,91 SENJA ROAD Singapore,677741,BUKIT PANJANG,WEST,103.764939,1.388271,2,SAUJANA,BUKIT PANJANG,WEST REGION
REGENT SECONDARY SCHOOL,50 CHOA CHU KANG NORTH 5 Singapore,689621,CHOA CHU KANG,WEST,103.750966,1.393079,5,CHOA CHU KANG NORTH,CHOA CHU KANG,WEST REGION
KENT RIDGE SECONDARY SCHOOL,147 WEST COAST ROAD Singapore,127368,CLEMENTI,SOUTH,103.7649426,1.3013766,8,CLEMENTI WEST,CLEMENTI,WEST REGION
WESTWOOD SECONDARY SCHOOL,11 JURONG WEST STREET 25 Singapore,648350,JURONG WEST,WEST,103.7017788,1.3537852,1,WENYA,JURONG WEST,WEST REGION
CANBERRA SECONDARY SCHOOL,51 SEMBAWANG DRIVE Singapore,757699,SEMBAWANG,NORTH,103.8144714,1.4536086,4,SEMBAWANG NORTH,SEMBAWANG,NORTH REGION
COMPASSVALE SECONDARY SCHOOL,51 COMPASSVALE CRESCENT Singapore,545083,SENG KANG,NORTH,103.899711,1.396086,3,SENGKANG TOWN CENTRE,SENGKANG,NORTH-EAST REGION
EVERGREEN SECONDARY SCHOOL,11 WOODLANDS STREET 83 Singapore,738489,WOODLANDS,NORTH,103.794011,1.441283,2,MIDVIEW,WOODLANDS,NORTH REGION
ANGLO-CHINESE SCHOOL (JUNIOR),16 WINSTEDT ROAD Singapore,227988,CENTRAL,SOUTH,103.8415002,1.3089557,5,MONK'S HILL,NEWTON,CENTRAL REGION
CHIJ PRIMARY (TOA PAYOH),628 LORONG 1 TOA PAYOH Singapore,319765,TOA PAYOH,SOUTH,103.841908,1.333107,2,TOA PAYOH CENTRAL,TOA PAYOH,CENTRAL REGION
CHIJ (KELLOCK),121 QUEENSWAY Singapore,149059,BUKIT MERAH,SOUTH,103.800263,1.302031,3,COMMONWEALTH,QUEENSTOWN,CENTRAL REGION
CHIJ OUR LADY OF THE NATIVITY,1257 UPPER SERANGOON ROAD Singapore,534793,HOUGANG,SOUTH,103.898088,1.372971,3,HOUGANG EAST,HOUGANG,NORTH-EAST REGION
DE LA SALLE SCHOOL,11 CHOA CHU KANG ST 52 Singapore,689285,CHOA CHU KANG,WEST,103.7435172,1.3947804,5,CHOA CHU KANG NORTH,CHOA CHU KANG,WEST REGION
ST. ANDREW'S JUNIOR SCHOOL,2 FRANCIS THOMAS DRIVE Singapore,359337,TOA PAYOH,SOUTH,103.8652089,1.331468,9,POTONG PASIR,TOA PAYOH,CENTRAL REGION
ST. ANTHONY'S CANOSSIAN PRIMARY SCHOOL,1602 BEDOK NORTH AVE 4 Singapore,469701,BEDOK,EAST,103.941072,1.334282,4,BEDOK NORTH,BEDOK,EAST REGION
ST. GABRIEL'S PRIMARY SCHOOL,220 LORONG CHUAN Singapore,556742,SERANGOON,SOUTH,103.8622746,1.3493095,5,LORONG CHUAN,SERANGOON,NORTH-EAST REGION
ST. MARGARET'S PRIMARY SCHOOL,99 WILKIE ROAD Singapore,228091,CENTRAL,SOUTH,103.84625080000001,1.303746,7,MOUNT EMILY,ROCHOR,CENTRAL REGION
ST. JOSEPH'S INSTITUTION JUNIOR,3 ESSEX ROAD Singapore,309331,NOVENA,SOUTH,103.8458472,1.3174708,2,MOULMEIN,NOVENA,CENTRAL REGION
ST. STEPHEN'S SCHOOL,20 SIGLAP VIEW Singapore,455789,BEDOK,EAST,103.9175727,1.3188814,5,FRANKEL,BEDOK,EAST REGION
CHIJ OUR LADY OF GOOD COUNSEL,2C BURGHLEY DRIVE Singapore,558979,SERANGOON,SOUTH,103.863998,1.35732,4,SERANGOON GARDEN,SERANGOON,NORTH-EAST REGION
MONTFORT JUNIOR SCHOOL,52 HOUGANG AVENUE 8 Singapore,538786,HOUGANG,NORTH,103.889614,1.373864,4,HOUGANG WEST,HOUGANG,NORTH-EAST REGION
CHIJ OUR LADY QUEEN OF PEACE,4 CHESTNUT DRIVE Singapore,679287,BUKIT PANJANG,WEST,103.767594,1.366297,6,DAIRY FARM,BUKIT PANJANG,WEST REGION
FAIRFIELD METHODIST SCHOOL (PRIMARY),100 DOVER ROAD Singapore,139648,QUEENSTOWN,SOUTH,103.785809,1.3007439,10,DOVER,QUEENSTOWN,CENTRAL REGION
GEYLANG METHODIST SCHOOL (PRIMARY),4 GEYLANG EAST CENTRAL Singapore,389706,GEYLANG,EAST,103.882915,1.3179179,4,ALJUNIED,GEYLANG,CENTRAL REGION
KUO CHUAN PRESBYTERIAN PRIMARY SCHOOL,8 BISHAN STREET 13 Singapore,579793,BISHAN,SOUTH,103.854727,1.349116,3,BISHAN EAST,BISHAN,CENTRAL REGION
ST. HILDA'S PRIMARY SCHOOL,2 TAMPINES AVE 3 Singapore,529706,TAMPINES,EAST,103.936605,1.3492104,3,TAMPINES WEST,TAMPINES,EAST REGION
SINGAPORE CHINESE GIRLS' PRIMARY SCHOOL,60 DUNEARN ROAD Singapore,309434,NOVENA,NORTH,103.8296851,1.3202303,3,MALCOLM,NOVENA,CENTRAL REGION
METHODIST GIRLS' SCHOOL (PRIMARY),11 BLACKMORE DRIVE Singapore,599986,BUKIT TIMAH,WEST,103.782566,1.332954,3,HOLLAND ROAD,BUKIT TIMAH,CENTRAL REGION
NAN CHIAU PRIMARY SCHOOL,50 ANCHORVALE LINK Singapore,545080,SENG KANG,NORTH,103.890834,1.391841,4,ANCHORVALE,SENGKANG,NORTH-EAST REGION
CANOSSA CATHOLIC PRIMARY SCHOOL,1 SALLIM ROAD Singapore,387621,GEYLANG,EAST,103.8822778,1.3261855,2,MACPHERSON,GEYLANG,CENTRAL REGION
KONG HWA SCHOOL,350 GUILLEMARD ROAD Singapore,399772,GEYLANG,EAST,103.8878503,1.311,4,ALJUNIED,GEYLANG,CENTRAL REGION
MEE TOH SCHOOL,21 EDGEDALE PLAINS Singapore,828867,PUNGGOL,NORTH,103.9089333,1.3947729,4,PUNGGOL FIELD,PUNGGOL,NORTH-EAST REGION
NGEE ANN PRIMARY SCHOOL,344 MARINE TERRACE Singapore,449149,MARINE PARADE,EAST,103.9181149,1.3055653,3,MARINE PARADE,MARINE PARADE,CENTRAL REGION
RED SWASTIKA SCHOOL,350 BEDOK NORTH AVENUE 3 Singapore,469719,BEDOK,EAST,103.9346109,1.3332677,4,BEDOK NORTH,BEDOK,EAST REGION
TAO NAN SCHOOL,49 MARINE CRESCENT Singapore,449761,MARINE PARADE,EAST,103.9113177,1.3049455,3,MARINE PARADE,MARINE PARADE,CENTRAL REGION
NANYANG PRIMARY SCHOOL,52 KING'S ROAD Singapore,268097,BUKIT TIMAH,WEST,103.8077117,1.3210855,8,FARRER COURT,BUKIT TIMAH,CENTRAL REGION
ST. ANTHONY'S PRIMARY SCHOOL,30 BUKIT BATOK ST 32 Singapore,659401,BUKIT BATOK,WEST,103.7490186,1.3642757,2,HONG KAH NORTH,BUKIT BATOK,WEST REGION
MAHA BODHI SCHOOL,10 UBI AVENUE 1 Singapore,408931,GEYLANG,EAST,103.8962436,1.3264069,3,KAMPONG UBI,GEYLANG,CENTRAL REGION
PEI CHUN PUBLIC SCHOOL,580 TOA PAYOH EAST Singapore,319133,TOA PAYOH,SOUTH,103.8589626,1.3332385,7,KIM KEAT,TOA PAYOH,CENTRAL REGION
POI CHING SCHOOL,21 TAMPINES STREET 71 Singapore,529067,TAMPINES,EAST,103.9352454,1.3577836,3,TAMPINES WEST,TAMPINES,EAST REGION
KHENG CHENG SCHOOL,15 LORONG 3 TOA PAYOH Singapore,319580,TOA PAYOH,SOUTH,103.847796,1.337666,3,BRADDELL,TOA PAYOH,CENTRAL REGION
NAN HUA PRIMARY SCHOOL,170 WEST COAST ROAD Singapore,127443,CLEMENTI,WEST,103.7652142,1.3065701,7,CLEMENTI WOODS,CLEMENTI,WEST REGION
PEI HWA PRESBYTERIAN PRIMARY SCHOOL,7 PEI WAH AVENUE Singapore,597610,BUKIT TIMAH,WEST,103.77613,1.338081,1,ANAK BUKIT,BUKIT TIMAH,CENTRAL REGION
AI TONG SCHOOL,100 BRIGHT HILL DRIVE Singapore,579646,BISHAN,SOUTH,103.832615,1.360415,1,UPPER THOMSON,BISHAN,CENTRAL REGION
HONG WEN SCHOOL,30 TOWNER ROAD Singapore,327829,KALLANG,SOUTH,103.8576768,1.3219278,1,BENDEMEER,KALLANG,CENTRAL REGION
HOLY INNOCENTS' PRIMARY SCHOOL,5 LORONG LOW KOON Singapore,536451,HOUGANG,SOUTH,103.893711,1.366573,2,KANGKAR,HOUGANG,NORTH-EAST REGION
PAYA LEBAR METHODIST GIRLS' SCHOOL (PRIMARY),298 LORONG AH SOO Singapore,536741,HOUGANG,EAST,103.884813,1.351003,8,TAI SENG,HOUGANG,NORTH-EAST REGION
CHONGFU SCHOOL,170 YISHUN AVENUE 6 Singapore,768959,YISHUN,NORTH,103.8389256,1.4386291,2,NORTHLAND,YISHUN,NORTH REGION
CHIJ (KATONG) PRIMARY,17 MARTIA ROAD Singapore,424821,BEDOK,EAST,103.9109552,1.3064102,5,FRANKEL,BEDOK,EAST REGION
ANGLO-CHINESE SCHOOL (PRIMARY),50 BARKER ROAD Singapore,309918,NOVENA,SOUTH,103.8351774,1.3186587,3,MALCOLM,NOVENA,CENTRAL REGION
ANGLO-CHINESE SCHOOL (INDEPENDENT),121 DOVER ROAD Singapore,139650,QUEENSTOWN,SOUTH,103.7809869,1.302298,10,DOVER,QUEENSTOWN,CENTRAL REGION
ASSUMPTION ENGLISH SCHOOL,622 UPPER BUKIT TIMAH ROAD Singapore,678117,BUKIT PANJANG,WEST,103.7661047,1.3681024,6,DAIRY FARM,BUKIT PANJANG,WEST REGION
CHIJ SECONDARY (TOA PAYOH),626 LORONG 1 TOA PAYOH Singapore,319764,TOA PAYOH,SOUTH,103.8432669,1.3324745,2,TOA PAYOH CENTRAL,TOA PAYOH,CENTRAL REGION
GEYLANG METHODIST SCHOOL (SECONDARY),2 GEYLANG EAST CENTRAL Singapore,389705,GEYLANG,EAST,103.8829,1.318124,4,ALJUNIED,GEYLANG,CENTRAL REGION
CHIJ KATONG CONVENT,346 MARINE TERRACE Singapore,449150,MARINE PARADE,EAST,103.9173898,1.3065932,3,MARINE PARADE,MARINE PARADE,CENTRAL REGION
MONTFORT SECONDARY SCHOOL,50 HOUGANG AVENUE 8 Singapore,538785,HOUGANG,NORTH,103.888992,1.373518,4,HOUGANG WEST,HOUGANG,NORTH-EAST REGION
SINGAPORE CHINESE GIRLS' SCHOOL,190 DUNEARN ROAD Singapore,309437,NOVENA,NORTH,103.8280003,1.3211402,3,MALCOLM,NOVENA,CENTRAL REGION
ST. ANDREW'S SECONDARY SCHOOL,15 FRANCIS THOMAS DRIVE Singapore,359342,TOA PAYOH,SOUTH,103.8658718,1.3307305,9,POTONG PASIR,TOA PAYOH,CENTRAL REGION
ST. ANTHONY'S CANOSSIAN SECONDARY SCHOOL,1600 BEDOK NORTH AVENUE 4 Singapore,469700,BEDOK,EAST,103.9419352,1.3346718,4,BEDOK NORTH,BEDOK,EAST REGION
ST. GABRIEL'S SECONDARY SCHOOL,24 SERANGOON AVENUE 1 Singapore,556140,SERANGOON,SOUTH,103.8754893,1.3468395,7,UPPER PAYA LEBAR,SERANGOON,NORTH-EAST REGION
CHIJ ST. JOSEPH'S CONVENT,62 SENGKANG EAST WAY Singapore,548595,SENG KANG,NORTH,103.902461,1.391747,2,RIVERVALE,SENGKANG,NORTH-EAST REGION
ST. JOSEPH'S INSTITUTION,38 MALCOLM ROAD Singapore,308274,NOVENA,SOUTH,103.828591,1.322914,3,MALCOLM,NOVENA,CENTRAL REGION
ST. MARGARET'S SECONDARY SCHOOL,111 FARRER ROAD Singapore,259240,BUKIT TIMAH,SOUTH,103.8094906,1.3198595,8,FARRER COURT,BUKIT TIMAH,CENTRAL REGION
ST. PATRICK'S SCHOOL,490 EAST COAST ROAD Singapore,429058,BEDOK,EAST,103.916926,1.3085736,5,FRANKEL,BEDOK,EAST REGION
CHIJ ST. THERESA'S CONVENT,160 LOWER DELTA ROAD Singapore,099138,BUKIT MERAH,SOUTH,103.8218103,1.2753258,14,TELOK BLANGAH WAY,BUKIT MERAH,CENTRAL REGION
CHRIST CHURCH SECONDARY SCHOOL,20 WOODLANDS DRIVE 17 Singapore,737924,WOODLANDS,NORTH,103.793419,1.426395,4,WOODLANDS SOUTH,WOODLANDS,NORTH REGION
PAYA LEBAR METHODIST GIRLS' SCHOOL (SECONDARY),296 LOR AH SOO Singapore,536742,HOUGANG,EAST,103.88551030000001,1.3508153,8,TAI SENG,HOUGANG,NORTH-EAST REGION
YUYING SECONDARY SCHOOL,47 HOUGANG AVENUE 1 Singapore,538884,HOUGANG,SOUTH,103.8900219,1.3572435,7,LORONG AH SOO,HOUGANG,NORTH-EAST REGION
KUO CHUAN PRESBYTERIAN SECONDARY SCHOOL,10 BISHAN STREET 13 Singapore,579795,BISHAN,SOUTH,103.854975,1.349774,3,BISHAN EAST,BISHAN,CENTRAL REGION
ST. HILDA'S SECONDARY SCHOOL,2 TAMPINES STREET 82 Singapore,528986,TAMPINES,EAST,103.9366957,1.3504543,3,TAMPINES WEST,TAMPINES,EAST REGION
METHODIST GIRLS' SCHOOL (SECONDARY),11 BLACKMORE DRIVE Singapore,599986,BUKIT TIMAH,WEST,103.782566,1.332954,3,HOLLAND ROAD,BUKIT TIMAH,CENTRAL REGION
HAI SING CATHOLIC SCHOOL,9 PASIR RIS DRIVE 6 Singapore,519421,PASIR RIS,EAST,103.954463,1.374513,5,PASIR RIS DRIVE,PASIR RIS,EAST REGION
ANGLO-CHINESE SCHOOL (BARKER ROAD),60 BARKER ROAD Singapore,309919,NOVENA,SOUTH,103.8359365,1.3188316,3,MALCOLM,NOVENA,CENTRAL REGION
ANGLICAN HIGH SCHOOL,600 UPPER CHANGI ROAD Singapore,487012,BEDOK,EAST,103.942429,1.3300216,4,BEDOK NORTH,BEDOK,EAST REGION
CATHOLIC HIGH SCHOOL,9 BISHAN STREET 22 Singapore,579767,BISHAN,NORTH,103.8454488,1.3551578,2,MARYMOUNT,BISHAN,CENTRAL REGION
CHUNG CHENG HIGH SCHOOL (MAIN),50 GOODMAN ROAD Singapore,439012,MARINE PARADE,EAST,103.8925324,1.3048047,1,MOUNTBATTEN,MARINE PARADE,CENTRAL REGION
CHUNG CHENG HIGH SCHOOL (YISHUN),11 YISHUN STREET 61 Singapore,768547,YISHUN,NORTH,103.837311,1.418737,4,YISHUN SOUTH,YISHUN,NORTH REGION
HOLY INNOCENTS' HIGH SCHOOL,1191 UPPER SERANGOON ROAD Singapore,534786,HOUGANG,SOUTH,103.896018,1.371204,3,HOUGANG EAST,HOUGANG,NORTH-EAST REGION
MARIS STELLA HIGH SCHOOL,25 MOUNT VERNON ROAD Singapore,368051,TOA PAYOH,NORTH,103.8782839,1.341737,10,BIDADARI,TOA PAYOH,CENTRAL REGION
NAN CHIAU HIGH SCHOOL,20 ANCHORVALE LINK Singapore,545079,SENG KANG,NORTH,103.8899803,1.389411,4,ANCHORVALE,SENGKANG,NORTH-EAST REGION
NANYANG GIRLS' HIGH SCHOOL,2 LINDEN DRIVE Singapore,288683,BUKIT TIMAH,WEST,103.8022688,1.3306486,5,HILLCREST,BUKIT TIMAH,CENTRAL REGION
CHIJ ST. NICHOLAS GIRLS' SCHOOL,501 ANG MO KIO STREET 13 Singapore,569405,ANG MO KIO,NORTH,103.8339743,1.3735892,6,KEBUN BAHRU,ANG MO KIO,NORTH-EAST REGION
MARYMOUNT CONVENT SCHOOL,20 MARYMOUNT ROAD Singapore,297754,TOA PAYOH,SOUTH,103.8399377,1.3406992,1,TOA PAYOH WEST,TOA PAYOH,CENTRAL REGION
MANJUSRI SECONDARY SCHOOL,20 UBI AVENUE 1 Singapore,408940,GEYLANG,EAST,103.9013422,1.3274138,3,KAMPONG UBI,GEYLANG,CENTRAL REGION
PRESBYTERIAN HIGH SCHOOL,5209 ANG MO KIO AVENUE 6 Singapore,569845,ANG MO KIO,NORTH,103.8431,1.382254,9,YIO CHU KANG WEST,ANG MO KIO,NORTH-EAST REGION
FAIRFIELD METHODIST SCHOOL (SECONDARY),102 DOVER ROAD Singapore,139649,QUEENSTOWN,SOUTH,103.784589,1.3017793,10,DOVER,QUEENSTOWN,CENTRAL REGION
NGEE ANN SECONDARY SCHOOL,1 TAMPINES STREET 32 Singapore,529283,TAMPINES,EAST,103.9565479,1.3544057,2,TAMPINES EAST,TAMPINES,EAST REGION
SINGAPORE SPORTS SCHOOL,1 CHAMPIONS WAY Singapore,737913,WOODLANDS,NORTH,103.789056,1.426703,4,WOODLANDS SOUTH,WOODLANDS,NORTH REGION
NUS HIGH SCHOOL OF MATHEMATICS AND SCIENCE,20 CLEMENTI AVENUE 1 Singapore,129957,CLEMENTI,WEST,103.7691976,1.3065479,7,CLEMENTI WOODS,CLEMENTI,WEST REGION
"SCHOOL OF THE ARTS, SINGAPORE",1 ZUBIR SAID DRIVE Singapore,227968,CENTRAL,SOUTH,103.848618,1.299447,1,DHOBY GHAUT,MUSEUM,CENTRAL REGION
NORTHLIGHT SCHOOL,151 TOWNER ROAD Singapore,327830,MARINE PARADE,SOUTH,103.8576769,1.3207365,1,BENDEMEER,KALLANG,CENTRAL REGION
ASSUMPTION PATHWAY SCHOOL,30 CASHEW ROAD Singapore,679697,BUKIT PANJANG,WEST,103.7667515,1.3705274,6,DAIRY FARM,BUKIT PANJANG,WEST REGION
"SCHOOL OF SCIENCE AND TECHNOLOGY, SINGAPORE",1 TECHNOLOGY DRIVE Singapore,138572,CLEMENTI,WEST,103.7742638,1.3136526,9,SINGAPORE POLYTECHNIC,QUEENSTOWN,CENTRAL REGION
CREST SECONDARY SCHOOL,561 JURONG EAST STREET 24 Singapore,609561,JURONG EAST,WEST,103.7431328,1.34309,2,YUHUA EAST,JURONG EAST,WEST REGION
SPECTRA SECONDARY SCHOOL,1 WOODLANDS DRIVE 64 Singapore,737758,WOODLANDS,NORTH,103.8043528,1.4364631,3,WOODLANDS EAST,WOODLANDS,NORTH REGION
